Company_Name,Category,Address,Url,Latitude,Longitude,State
Norberts Fitness Studio,Gym,"Sansha's Ground Floor, NH 66, opp. Motel Avni, Porvorim, Aradi Socorro, Goa 403521, India",https://www.google.co.kr/maps/place/Norberts+Fitness+Studio/data=!4m5!3m4!1s0x3bbfc0141e576f19:0x1d27cf8348593fbb!8m2!3d15.5428846!4d73.8215885?authuser=0&hl=en&rclk=1,15.5428846,73.8215885,Goa
Norberts Fitness Studio,Gym,"St Joaquim Road, near St.Joaquims Church, Borda, Margao, Goa 403601, India",https://www.google.co.kr/maps/place/Norberts+Fitness+Studio/data=!4m5!3m4!1s0x3bbfb3de87aadae9:0x592e4d46d2bdfd46!8m2!3d15.2827205!4d73.9670637?authuser=0&hl=en&rclk=1,15.2827205,73.9670637,Goa
Fitness Zone,Fitness center,"Shop No.A3 & A9, Lar Asiena, Kerant, Caranzalem, Goa 403002, India",https://www.google.co.kr/maps/place/Fitness+Zone/data=!4m5!3m4!1s0x3bbfc0c6b876202f:0x2708ace0e4e07dd8!8m2!3d15.4754488!4d73.8119181?authuser=0&hl=en&rclk=1,15.4754488,73.8119181,Goa
Fitness Bar,Gym,"2nd Floor, Esmeralda Casa Da Povo, 40300, St Inez Rd, Santa Inez, Panaji, Goa 403001, India",https://www.google.co.kr/maps/place/Fitness+Bar/data=!4m5!3m4!1s0x3bbfc0ed0d868bc7:0x436e7ecd48abd626!8m2!3d15.4824351!4d73.8200217?authuser=0&hl=en&rclk=1,15.4824351,73.8200217,Goa
MUSCLE N BEACH GYM,Gym,"Baga Beach, next to Bacardi Shack, Baga, Goa 403516, India",https://www.google.co.kr/maps/place/MUSCLE+N+BEACH+GYM/data=!4m5!3m4!1s0x3bbfea1cb65c057f:0xf58b7058a0c02dd4!8m2!3d15.5579731!4d73.7515208?authuser=0&hl=en&rclk=1,15.5579731,73.7515208,Goa
Nobert's Fitness Studio - 24x7,Gym,"Panjim Convention Centre, near Hotel Four Pilars Mala, Neugi Nagar, Goa 403001, India",https://www.google.co.kr/maps/place/Nobert's+Fitness+Studio+-+24x7/data=!4m5!3m4!1s0x3bbfc1a8634ce769:0xee5bfd448548eb85!8m2!3d15.4876114!4d73.8322579?authuser=0&hl=en&rclk=1,15.4876114,73.8322579,Goa
Norbert's Fitness Studio,Gym,"Varca - Margao Rd, Benaulim, Goa 403716, India",https://www.google.co.kr/maps/place/Norbert's+Fitness+Studio/data=!4m5!3m4!1s0x3bbfb38c56b77545:0xbf2c64eca3c76f41!8m2!3d15.2647028!4d73.9505417?authuser=0&hl=en&rclk=1,15.2647028,73.9505417,Goa
Fat Vs Fitness,Gym,"road, Arambol Beach, Arambol, Goa 403519, India",https://www.google.co.kr/maps/place/Fat+Vs+Fitness/data=!4m5!3m4!1s0x3bbfee50412a84bd:0x723cdcdcd2aca6a1!8m2!3d15.6875567!4d73.7106489?authuser=0&hl=en&rclk=1,15.6875567,73.7106489,Goa
Norberts Fitness Studio,Gym,"Sapana Town, Bethoda, Road, Ponda, Goa 403401, India",https://www.google.co.kr/maps/place/Norberts+Fitness+Studio/data=!4m5!3m4!1s0x3bbfbb50c7edb3a5:0x19c823800140d9bd!8m2!3d15.3986946!4d74.0213889?authuser=0&hl=en&rclk=1,15.3986946,74.0213889,Goa
"Norbert's Fitness Studio, Mapusa-Goa",Fitness center,"Fortune Square, Morod, Mapusa, Goa 403507, India","https://www.google.co.kr/maps/place/Norbert's+Fitness+Studio,+Mapusa-Goa/data=!4m5!3m4!1s0x3bbfeae5daef11a9:0x505d2ceda54ce08f!8m2!3d15.585136!4d73.811886?authuser=0&hl=en&rclk=1",15.585136,73.811886,Goa
Power Gym Goa,Fitness center,"near Ideal High School Junction, Caranzalem, Taleigao, Goa 403002, India",https://www.google.co.kr/maps/place/Power+Gym+Goa/data=!4m5!3m4!1s0x3bbfc0bf2c837c99:0xebef4c806f9fc464!8m2!3d15.475999!4d73.820932?authuser=0&hl=en&rclk=1,15.475999,73.820932,Goa
Norbert's Fitness Studio,Gym,"Omkar Building, Near KTC Bus Stand, Nagorcem, Canacona, Goa 403702, India",https://www.google.co.kr/maps/place/Norbert's+Fitness+Studio/data=!4m5!3m4!1s0x3bbe5b4abf0f7d1b:0x40d95fcdbd06e24e!8m2!3d15.0085605!4d74.0425798?authuser=0&hl=en&rclk=1,15.0085605,74.0425798,Goa
Norbert's Fitness Studio,Gym,"Ameya Building, Next to Allahabad Bank, Opp St. inez Church, St Inez Rd, Santa Inez, Panaji, Goa 403001, India",https://www.google.co.kr/maps/place/Norbert's+Fitness+Studio/data=!4m5!3m4!1s0x3bbfc092c2b0fb83:0xbe6c04107a0497c0!8m2!3d15.490933!4d73.8198718?authuser=0&hl=en&rclk=1,15.490933,73.8198718,Goa
Gym & Tonic,Gym,"2nd floor, Satt Adhar Basilio‚Äôs 7 Heights, Basilio‚Äôs Complex, St Inez Rd, Near Basilios Gym, Panaji, Goa 403001, India",https://www.google.co.kr/maps/place/Gym+%26+Tonic/data=!4m5!3m4!1s0x3bbfc0ec8d9919bd:0x53f70d1962247853!8m2!3d15.4885427!4d73.8187168?authuser=0&hl=en&rclk=1,15.4885427,73.8187168,Goa
Beatdrop. Entertainment and fitness,Fitness center,"Shantiraj, G6 Vasant Nagar, Gogol, Margao, Goa 403602, India",https://www.google.co.kr/maps/place/Beatdrop.+Entertainment+and+fitness/data=!4m5!3m4!1s0x3bbfb3cfb130495d:0x4f82b6ff20ec7a4d!8m2!3d15.2855548!4d73.9928773?authuser=0&hl=en&rclk=1,15.2855548,73.9928773,Goa
Fitness Goa,Gym,"746/A, Morjim Resort North Goa, 739, Morjim, Goa 403512, India",https://www.google.co.kr/maps/place/Fitness+Goa/data=!4m5!3m4!1s0x3bbfeeca01d8a819:0xea1eac6608571fc5!8m2!3d15.639015!4d73.7239983?authuser=0&hl=en&rclk=1,15.639015,73.7239983,Goa
Carambolim Fitness Center,Gym,"FWPJ+MWH, Carambolim, Corlim, Goa 403110, India",https://www.google.co.kr/maps/place/Carambolim+Fitness+Center/data=!4m5!3m4!1s0x3bbfbea106112a59:0xb09fa22c89b525cb!8m2!3d15.486695!4d73.932366?authuser=0&hl=en&rclk=1,15.486695,73.932366,Goa
Impact Gym & Fitness || Aerobics | Zumba,Gym,"H.No-1526, near Vinita Garden Bar & Restaurant Calangute - Siolim Rd, Bhhtin Vaddo, Anjuna, Goa 403509, India",https://www.google.co.kr/maps/place/Impact+Gym+%26+Fitness+%7C%7C+Aerobics+%7C+Zumba/data=!4m5!3m4!1s0x3bbfeb37f6606c27:0x9b6c7b57b3b7b7b9!8m2!3d15.5941435!4d73.7596921?authuser=0&hl=en&rclk=1,15.5941435,73.7596921,Goa
Tripod Gym,Gym,"Vodlem Bhat, Ritu Apartments, Shop no. 1/2, Panaji, Goa 403002, India",https://www.google.co.kr/maps/place/Tripod+Gym/data=!4m5!3m4!1s0x3bbfc0bc285de6ad:0x34f59ce5685abd75!8m2!3d15.478298!4d73.8241828?authuser=0&hl=en&rclk=1,15.478298,73.8241828,Goa
The Gym-Fitness Forever,Gym,"Vidya nagar, Betim‚ÄìPenha de Franca‚ÄìPomburpa‚ÄìQuitla-Aldona Rd, behind vidya probhodini high school, Porvorim, Goa 403501, India",https://www.google.co.kr/maps/place/The+Gym-Fitness+Forever/data=!4m5!3m4!1s0x3bbfc072a465a77f:0x8251d49ea9883c6e!8m2!3d15.5267016!4d73.830657?authuser=0&hl=en&rclk=1,15.5267016,73.830657,Goa
Go Muscular Gym and Fitness Centre,Gym,"Bhaili Peth, Borden, Bicholim, Goa 403504, India",https://www.google.co.kr/maps/place/Go+Muscular+Gym+and+Fitness+Centre/data=!4m5!3m4!1s0x3bbf967014c76b21:0x998c7b538250f33d!8m2!3d15.5919371!4d73.9464675?authuser=0&hl=en&rclk=1,15.5919371,73.9464675,Goa
SPEED FITNESS,Gym,"Porba Vaddo, Calangute, Goa 403516, India",https://www.google.co.kr/maps/place/SPEED+FITNESS/data=!4m5!3m4!1s0x3bbfea0b5c4f1acf:0x76d4230ac87cb621!8m2!3d15.5511019!4d73.7700699?authuser=0&hl=en&rclk=1,15.5511019,73.7700699,Goa
Power Line Gym,Gym,"Karaswada, Mapusa, Goa 403507, India",https://www.google.co.kr/maps/place/Power+Line+Gym/data=!4m5!3m4!1s0x3bbfeb3b85e1bd39:0x87bf5397bdfa1b56!8m2!3d15.6106754!4d73.824346?authuser=0&hl=en&rclk=1,15.6106754,73.824346,Goa
Muscle & Fitness,Gym,"FWWM+H23, Carambolim, Corlim, Goa 403110, India",https://www.google.co.kr/maps/place/Muscle+%26+Fitness/data=!4m5!3m4!1s0x3bbfbe9c31a38f2f:0x2720e51fcb340d29!8m2!3d15.4963812!4d73.9325623?authuser=0&hl=en&rclk=1,15.4963812,73.9325623,Goa
Norberts Fitness Studio,Gym,"NH366, above Maruti Suzuki Showroom, Alto Chicalim, Vasco da Gama, Goa 403802, India",https://www.google.co.kr/maps/place/Norberts+Fitness+Studio/data=!4m5!3m4!1s0x3bbfc7cdf4e2f32f:0x3f967b4e566bb79f!8m2!3d15.3979786!4d73.8381207?authuser=0&hl=en&rclk=1,15.3979786,73.8381207,Goa
Calburn Fitness Solutions Personal Training Studio,Gym,"Majestic Palm, Opp Joecons Beach Resort,, Calvaddo, Benaulim, Goa 403716, India",https://www.google.co.kr/maps/place/Calburn+Fitness+Solutions+Personal+Training+Studio/data=!4m5!3m4!1s0x3bbfb47963d2cf6b:0x638d5e77ec9542e3!8m2!3d15.2473175!4d73.9303333?authuser=0&hl=en&rclk=1,15.2473175,73.9303333,Goa
Fitness Point Gym,Gym,"S2, Hum Twin Tower, Upper Bazar Rd, opposite Union Bank, Ponda, Goa 403401, India",https://www.google.co.kr/maps/place/Fitness+Point+Gym/data=!4m5!3m4!1s0x3bbfbb07865ce4a5:0xd354658bf6b476e5!8m2!3d15.4019274!4d74.0066811?authuser=0&hl=en&rclk=1,15.4019274,74.0066811,Goa
Geeta fitness studio,Gym,"9286+2X6, Borim, Goa 403401, India",https://www.google.co.kr/maps/place/Geeta+fitness+studio/data=!4m5!3m4!1s0x3bbfb14368128e9f:0x37e24176ba85ee25!8m2!3d15.3650456!4d74.0123851?authuser=0&hl=en&rclk=1,15.3650456,74.0123851,Goa
Neulife-Fitness,Gym,"Verem - Nerul Rd, Nerul, Goa 403109, India",https://www.google.co.kr/maps/place/Neulife-Fitness/data=!4m5!3m4!1s0x3bbfc0549b098613:0xb288211d8811d5b5!8m2!3d15.5076736!4d73.7968826?authuser=0&hl=en&rclk=1,15.5076736,73.7968826,Goa
Norbert's Fitness Studio,Gym,"NH366, above Maruti Suzuki Showroom, Alto Chicalim, Vasco da Gama, Goa 403711, India",https://www.google.co.kr/maps/place/Norbert's+Fitness+Studio/data=!4m5!3m4!1s0x3bbfc7971b30e993:0x895a9deb1a046a40!8m2!3d15.397898!4d73.83801?authuser=0&hl=en&rclk=1,15.397898,73.83801,Goa
Fitness Factory,Gym,"Ground Floor, LaxmiLeela Hall, Valshi, near Housing Board, Bicholim, Goa 403504, India",https://www.google.co.kr/maps/place/Fitness+Factory/data=!4m5!3m4!1s0x3bbf956b474aba11:0xba08e1acd4a71e1a!8m2!3d15.6063566!4d73.9337114?authuser=0&hl=en&rclk=1,15.6063566,73.9337114,Goa
Norberts Fitness Studio,Fitness center,"MDR 10, Candolim, Goa 403515, India",https://www.google.co.kr/maps/place/Norberts+Fitness+Studio/data=!4m5!3m4!1s0x3bbfc194b6024c4f:0x54ccd7f0b61718e7!8m2!3d15.52255!4d73.766775?authuser=0&hl=en&rclk=1,15.52255,73.766775,Goa
Chiranjeev Fitness,Gym,"Ponda ‚Äì Durbhat, Sadar, Khadpabandh, Ponda, Goa 403401, India",https://www.google.co.kr/maps/place/Chiranjeev+Fitness/data=!4m5!3m4!1s0x3bbfba942a788631:0x791138bb1d5548d0!8m2!3d15.3984703!4d74.0033537?authuser=0&hl=en&rclk=1,15.3984703,74.0033537,Goa
Science Fitness Goa,Gym,"Gaonkar Wado, Bambolim Curca, Panaji, Goa 403108, India",https://www.google.co.kr/maps/place/Science+Fitness+Goa/data=!4m5!3m4!1s0x3bbfb9e9e64479a7:0xffe7cf930a57d1ed!8m2!3d15.4556958!4d73.8698211?authuser=0&hl=en&rclk=1,15.4556958,73.8698211,Goa
Norberts Fitness Studio,Gym,"GRVC+4JQ, Jupiter Colony, Porvorim, Aradi Socorro, Goa 403501, India",https://www.google.co.kr/maps/place/Norberts+Fitness+Studio/data=!4m5!3m4!1s0x3bbfc16b68e94ca5:0xcc8b762cd84884e!8m2!3d15.5428381!4d73.8216035?authuser=0&hl=en&rclk=1,15.5428381,73.8216035,Goa
Studio 101 Goa,Gym,"101, Sai Plazam, Opposite Gomantak Times Bhavan, St. Inez, Panaji, Goa 403001, India",https://www.google.co.kr/maps/place/Studio+101+Goa/data=!4m5!3m4!1s0x3bbfc092871c0941:0x20324cf4d1b6513e!8m2!3d15.4924216!4d73.8211512?authuser=0&hl=en&rclk=1,15.4924216,73.8211512,Goa
Pro-Fitness Goa,Gym,"Cavelossim, Goa 403731, India",https://www.google.co.kr/maps/place/Pro-Fitness+Goa/data=!4m5!3m4!1s0x3bbe4cb0014c5281:0x3efb01da4d553b8a!8m2!3d15.1846871!4d73.9480915?authuser=0&hl=en&rclk=1,15.1846871,73.9480915,Goa
No Pain No Gain Gym,Gym,"8W29+HV3, Betalbatim, Goa 403708, India",https://www.google.co.kr/maps/place/No+Pain+No+Gain+Gym/data=!4m5!3m4!1s0x3bbfb6bbe03c0313:0xb761ee1c6da67ade!8m2!3d15.3013982!4d73.919673?authuser=0&hl=en&rclk=1,15.3013982,73.919673,Goa
Norberts Fitness Studio,Gym,"Doctor East Borges Road Ocean Park Residency, Dona Paula, Goa 403004, India",https://www.google.co.kr/maps/place/Norberts+Fitness+Studio/data=!4m5!3m4!1s0x3bbfc0cd3a92b5bf:0x84ee1998d5508390!8m2!3d15.4581029!4d73.8092239?authuser=0&hl=en&rclk=1,15.4581029,73.8092239,Goa
The Kings GYM,Gymnastics center,"7XC8+9J5, Malbhat, Margao, Goa 403601, India",https://www.google.co.kr/maps/place/The+Kings+GYM/data=!4m5!3m4!1s0x3bbfb3c41e3aac55:0x129d05b3fb66730e!8m2!3d15.2708951!4d73.9666091?authuser=0&hl=en&rclk=1,15.2708951,73.9666091,Goa
Royal Gym,Gym,"Margao,, Ambaji, Margao, Goa 403602, India",https://www.google.co.kr/maps/place/Royal+Gym/data=!4m5!3m4!1s0x3bbfb15d11591fc5:0xd78a0d5cef03007c!8m2!3d15.2967417!4d73.9576455?authuser=0&hl=en&rclk=1,15.2967417,73.9576455,Goa
MUSCLE UP,Gymnasium Cz,"HP PETROL PUMP, O-51/A, ABOVE STATE BANK OF INDIA, beside OLD GOA, Goa Velha, Goa 403402, India",https://www.google.co.kr/maps/place/MUSCLE+UP/data=!4m5!3m4!1s0x3bbfbfdc9538c243:0x750b64b6341a89cf!8m2!3d15.5006635!4d73.9162014?authuser=0&hl=en&rclk=1,15.5006635,73.9162014,Goa
360 Fitness Academy Goa,Fitness center,"3/88C, Mudda Vaddo, Saligao, Goa 403511, India",https://www.google.co.kr/maps/place/360+Fitness+Academy+Goa/data=!4m5!3m4!1s0x3bbfeb8fbeddbf73:0xafbaafe4960ba181!8m2!3d15.5523296!4d73.7938944?authuser=0&hl=en&rclk=1,15.5523296,73.7938944,Goa
St Jude Pro Fitness,Gym,"opp. Football Ground, Pintos Vaddo, Candolim, Goa 403515, India",https://www.google.co.kr/maps/place/St+Jude+Pro+Fitness/data=!4m5!3m4!1s0x3bbfc1fc6cc597bd:0xd12f8b46cfef14c!8m2!3d15.5211707!4d73.7673756?authuser=0&hl=en&rclk=1,15.5211707,73.7673756,Goa
FITNESS FREAKS GYM,Gym,"1st Floor, Navnath app vithoba temple, Upper Bazar Rd, Ponda, Goa 403401, India",https://www.google.co.kr/maps/place/FITNESS+FREAKS+GYM/data=!4m5!3m4!1s0x3bbfbb55860efec1:0xf87e938acdb32490!8m2!3d15.4019387!4d74.0117279?authuser=0&hl=en&rclk=1,15.4019387,74.0117279,Goa
Martron Fitness Center,Gym,"Panchayat Road , Near Royale Assagao, Socol vaddo,l, Assagao, Goa 403507, India",https://www.google.co.kr/maps/place/Martron+Fitness+Center/data=!4m5!3m4!1s0x3bbfebb65ecafbd7:0x687028972d2d4247!8m2!3d15.599126!4d73.773904?authuser=0&hl=en&rclk=1,15.599126,73.773904,Goa
StudioFit,Gym,"149/A, behind sunsu bar and restuarant, Alto Torda, Alto Porvorim, Baradez, Porvorim, Goa 403521, India",https://www.google.co.kr/maps/place/StudioFit/data=!4m5!3m4!1s0x3bbfc00c9ead9885:0x4b1f120d4c50caaa!8m2!3d15.5292257!4d73.8355612?authuser=0&hl=en&rclk=1,15.5292257,73.8355612,Goa
Liveinlean Health & Fitness,Gym,"Shop No. G1, Nagesh Cross Roads Building Arpora Junction, Arpora, Arpora, Goa 403516, India",https://www.google.co.kr/maps/place/Liveinlean+Health+%26+Fitness/data=!4m5!3m4!1s0x3bbfea16b09e6801:0x5d1230e2ad551330!8m2!3d15.5632177!4d73.7644428?authuser=0&hl=en&rclk=1,15.5632177,73.7644428,Goa
Sawant Fitness Gym,Gym,"Mangaddo 403110, Gandaulim, Goa, India",https://www.google.co.kr/maps/place/Sawant+Fitness+Gym/data=!4m5!3m4!1s0x3bbfbc20b3e83b0d:0xf2f5a9b24cc43693!8m2!3d15.4955507!4d73.9369643?authuser=0&hl=en&rclk=1,15.4955507,73.9369643,Goa
Chowgule Gym And Fitness Centre,Gym,"Cupangale Society, Margao, Goa 403601, India",https://www.google.co.kr/maps/place/Chowgule+Gym+And+Fitness+Centre/data=!4m5!3m4!1s0x3bbfb17fb1bca31b:0xd2166f145cb49914!8m2!3d15.2908972!4d73.9805442?authuser=0&hl=en&rclk=1,15.2908972,73.9805442,Goa
Fitness Together - IFSI Personal Training Academy,Fitness center,"S-8, 2nd floor, Satt Adhar Basilio‚Äôs 7 Heights, Basilio‚Äôs Complex, Santa Inez, Panaji, Goa 403001, India",https://www.google.co.kr/maps/place/Fitness+Together+-+IFSI+Personal+Training+Academy/data=!4m5!3m4!1s0x3bbfc13cabaaf96d:0x5db20fa804ef4100!8m2!3d15.4886214!4d73.8185577?authuser=0&hl=en&rclk=1,15.4886214,73.8185577,Goa
Kirti's Fitness Point,Gym,"Borda, Margao, Goa 403601, India",https://www.google.co.kr/maps/place/Kirti's+Fitness+Point/data=!4m5!3m4!1s0x3bbfb3d96e6cb619:0x795b1610f7296e00!8m2!3d15.2832692!4d73.9674819?authuser=0&hl=en&rclk=1,15.2832692,73.9674819,Goa
Raj's Slim & Trim Fitness Centre,Fitness center,"Aguada - Siolim Rd, Football Ground, Candolim, Goa 403515, India",https://www.google.co.kr/maps/place/Raj's+Slim+%26+Trim+Fitness+Centre/data=!4m5!3m4!1s0x3bbfc194e941c09b:0x3778b1d3e139d12b!8m2!3d15.5206186!4d73.7674122?authuser=0&hl=en&rclk=1,15.5206186,73.7674122,Goa
HANDSTAND,Gym,"Mundvel, Vasco da Gama, Goa 403802, India",https://www.google.co.kr/maps/place/HANDSTAND/data=!4m5!3m4!1s0x3bbfc797cb3c6445:0x10ae3ecee4298c0e!8m2!3d15.3991688!4d73.8196076?authuser=0&hl=en&rclk=1,15.3991688,73.8196076,Goa
Growth Gym,Fitness center,"near Sesa Colony, Gokulwadi, Desai Nagar, Sanquelim, Goa 403505, India",https://www.google.co.kr/maps/place/Growth+Gym/data=!4m5!3m4!1s0x3bbfbd584ae37c07:0x2bb76ce5674b26cb!8m2!3d15.5615566!4d74.0167255?authuser=0&hl=en&rclk=1,15.5615566,74.0167255,Goa
Curl Fitness,Gym,"JRFG+PV7, Mini Satellite Twp, Colvale, Goa 403517, India",https://www.google.co.kr/maps/place/Curl+Fitness/data=!4m5!3m4!1s0x3bbfeb85e7588c57:0x4d6facf6426153f8!8m2!3d15.6242935!4d73.8271695?authuser=0&hl=en&rclk=1,15.6242935,73.8271695,Goa
Absolute Fitness Gym,Gym,"FVQ3+F63, Merces, Goa 403006, India",https://www.google.co.kr/maps/place/Absolute+Fitness+Gym/data=!4m5!3m4!1s0x3bbfbf661a38ba3b:0x13f3eb9e4b1dee34!8m2!3d15.4886326!4d73.8530514?authuser=0&hl=en&rclk=1,15.4886326,73.8530514,Goa
Platinum Gym,Gym,"7XQ9+VVP, Murida, Navelim, New Zariwaddo, Borda, Margao, Goa 403602, India",https://www.google.co.kr/maps/place/Platinum+Gym/data=!4m5!3m4!1s0x3bbfb162ea61de6f:0x114b498eba4fd903!8m2!3d15.2897025!4d73.9697044?authuser=0&hl=en&rclk=1,15.2897025,73.9697044,Goa
SAI GYM AND FITNESS CENTRE,Gym,"HVWQ+3JF, Corjuem, Aldona, Goa 403508, India",https://www.google.co.kr/maps/place/SAI+GYM+AND+FITNESS+CENTRE/data=!4m5!3m4!1s0x3bbf95aa08dbcaa5:0xa3426db6426bcad6!8m2!3d15.5951835!4d73.8890333?authuser=0&hl=en&rclk=1,15.5951835,73.8890333,Goa
Ocean Fitness,Gym,"Queency Crown Building, Villa Nova Colva, Margao, Goa 403708, India",https://www.google.co.kr/maps/place/Ocean+Fitness/data=!4m5!3m4!1s0x3bbfb22c7c3b9021:0x26da4361ff2be8cf!8m2!3d15.2832187!4d73.986191?authuser=0&hl=en&rclk=1,15.2832187,73.986191,Goa
Unique Fitness Gym,Gym,"Daud Residency, Aquem Alto, Margao, Goa 403601, India",https://www.google.co.kr/maps/place/Unique+Fitness+Gym/data=!4m5!3m4!1s0x3bbfb3ce3acfd955:0x9a793b7e29b23acc!8m2!3d15.2763961!4d73.9750584?authuser=0&hl=en&rclk=1,15.2763961,73.9750584,Goa
Pp dhond fitness world,Gym,"Sinari Appartment Patto Ribander, Goa 403006, India",https://www.google.co.kr/maps/place/Pp+dhond+fitness+world/data=!4m5!3m4!1s0x3bbfbf478529b507:0x5613451fb5b981b8!8m2!3d15.498649!4d73.862593?authuser=0&hl=en&rclk=1,15.498649,73.862593,Goa
Gym,Gym,"9VRG+V7F, Pilani, Sancoale, Goa 403710, India",https://www.google.co.kr/maps/place/Gym/data=!4m5!3m4!1s0x3bbfb8384e86e753:0x8edd2e333c8ff717!8m2!3d15.3921897!4d73.8756782?authuser=0&hl=en&rclk=1,15.3921897,73.8756782,Goa
GLADIATOR FITNESS,Gym,"Olvaddo, Carmona-cavelosim, road, Carmona, Goa 403717, India",https://www.google.co.kr/maps/place/GLADIATOR+FITNESS/data=!4m5!3m4!1s0x3bbfb3a3e642f3bd:0xe1141887c668a8e2!8m2!3d15.210192!4d73.9505056?authuser=0&hl=en&rclk=1,15.210192,73.9505056,Goa
The Core Fitness,Gym,"Lake, Vaddem, Vasco da Gama, Goa 403802, India",https://www.google.co.kr/maps/place/The+Core+Fitness/data=!4m5!3m4!1s0x3bbfc7e978301295:0x8e42934417a59d36!8m2!3d15.3998202!4d73.828178?authuser=0&hl=en&rclk=1,15.3998202,73.828178,Goa
Fitness House Gym,Gym,"Ilhas, Patto, Ribandar, Goa 403006, India",https://www.google.co.kr/maps/place/Fitness+House+Gym/data=!4m5!3m4!1s0x3bbfbf74908a939d:0xafb615b5fa596274!8m2!3d15.502537!4d73.8634134?authuser=0&hl=en&rclk=1,15.502537,73.8634134,Goa
Ghadi Fitness,Gymnastics center,"Muddavaddi, Saligao, Goa 403511, India",https://www.google.co.kr/maps/place/Ghadi+Fitness/data=!4m5!3m4!1s0x3bbfc1d57af29737:0x2d2c59097d8dffc5!8m2!3d15.5480743!4d73.7914474?authuser=0&hl=en&rclk=1,15.5480743,73.7914474,Goa
Nuvem Gym,Gym,"Majorda-Nuvem Rd, Nuvem, Goa 403708, India",https://www.google.co.kr/maps/place/Nuvem+Gym/data=!4m5!3m4!1s0x3bbfb1484a845d39:0x965d8e72737fcae2!8m2!3d15.3075527!4d73.9449513?authuser=0&hl=en&rclk=1,15.3075527,73.9449513,Goa
Sai Fitness Studio,Gym,"Merces, Bambolim, Goa 403006, India",https://www.google.co.kr/maps/place/Sai+Fitness+Studio/data=!4m5!3m4!1s0x3bbfbff1902c3625:0x3d22222009ec49dd!8m2!3d15.4791724!4d73.8563105?authuser=0&hl=en&rclk=1,15.4791724,73.8563105,Goa
DNA FITNESS GYM,Gym,"JR33+WQG, Shree Ganeshpuri, Mapusa, Goa 403519, India",https://www.google.co.kr/maps/place/DNA+FITNESS+GYM/data=!4m5!3m4!1s0x3bbfeb0564c558ed:0x872a7b5a10e5e62a!8m2!3d15.6048215!4d73.8044569?authuser=0&hl=en&rclk=1,15.6048215,73.8044569,Goa
Infinity Gym,Gymnasium Cz,"Vidya Nagar, Margao, Goa 403601, India",https://www.google.co.kr/maps/place/Infinity+Gym/data=!4m5!3m4!1s0x3bbfb3d269d76ae5:0x17339bf88496a06d!8m2!3d15.2788448!4d73.9790415?authuser=0&hl=en&rclk=1,15.2788448,73.9790415,Goa
Health Gym,Gym,"Dr Braganza Pereira Rd, Panaji, Goa 403001, India",https://www.google.co.kr/maps/place/Health+Gym/data=!4m5!3m4!1s0x3bbfc08d4a10ad23:0xcdbabc4aa6c3c8b6!8m2!3d15.4940848!4d73.8186997?authuser=0&hl=en&rclk=1,15.4940848,73.8186997,Goa
Absolute Fitness Gym,Gym,"Retreat, Bal Bharati, Vidya Mandir, near Milroc, Ribandar, Goa 403006, India",https://www.google.co.kr/maps/place/Absolute+Fitness+Gym/data=!4m5!3m4!1s0x3bbfbf77a7de5f71:0xebeeea78a643e795!8m2!3d15.5014884!4d73.864676?authuser=0&hl=en&rclk=1,15.5014884,73.864676,Goa
BODY FUEL,Gymnastics center,"7XQJ+CGC, Gogol, Margao, Goa 403601, India",https://www.google.co.kr/maps/place/BODY+FUEL/data=!4m5!3m4!1s0x3bbfb18009e87a41:0x653b58f21ca88c5!8m2!3d15.2885722!4d73.9812557?authuser=0&hl=en&rclk=1,15.2885722,73.9812557,Goa
Geeta fitness studio,Gym,"Gram panchayat, Borim, Goa 403401, India",https://www.google.co.kr/maps/place/Geeta+fitness+studio/data=!4m5!3m4!1s0x3bbfb1a1c2b5d925:0xc3a5b485b47954ce!8m2!3d15.3669169!4d74.0041598?authuser=0&hl=en&rclk=1,15.3669169,74.0041598,Goa
Caro Fitness Studio,Fitness center,"4th Floor, Casa de Caro, Caro Residential Complex, Martires Dias Rd, Malbhat, Margao, Goa 403601, India",https://www.google.co.kr/maps/place/Caro+Fitness+Studio/data=!4m5!3m4!1s0x3bbfb328ded50c5b:0xfe529d5482c21006!8m2!3d15.2715586!4d73.9641817?authuser=0&hl=en&rclk=1,15.2715586,73.9641817,Goa
Fitness Pump Gym (GUIRIM),Fitness center,"Near Guirim cross ,St Anthoy vaddo Guirim, Goa, 403507, India",https://www.google.co.kr/maps/place/Fitness+Pump+Gym+(GUIRIM)/data=!4m5!3m4!1s0x3bbfebc406590061:0x8afc56bf4fd983c9!8m2!3d15.5678764!4d73.8088366?authuser=0&hl=en&rclk=1,15.5678764,73.8088366,Goa
YOLO fitness,Fitness center,"Unnamed Road, Bainguinim, Goa 403110, India",https://www.google.co.kr/maps/place/YOLO+fitness/data=!4m5!3m4!1s0x3bbfbf37eab57d97:0x635a55ffac0ffd5a!8m2!3d15.4890597!4d73.9002818?authuser=0&hl=en&rclk=1,15.4890597,73.9002818,Goa
Saival fitness,Gymnasium Cz,"82GF+HHG, Shiroda, Goa 403103, India",https://www.google.co.kr/maps/place/Saival+fitness/data=!4m5!3m4!1s0x3bbfb1d0ab81e097:0x32c9d5215cdd0d78!8m2!3d15.3264397!4d74.0239439?authuser=0&hl=en&rclk=1,15.3264397,74.0239439,Goa
Seven Star Fitness,Gymnasium Cz,"Prabhu Nagar, Ponda, Goa 403401, India",https://www.google.co.kr/maps/place/Seven+Star+Fitness/data=!4m5!3m4!1s0x3bbfbb6390d44801:0x7eb8b02ddfceed09!8m2!3d15.3974721!4d74.0244979?authuser=0&hl=en&rclk=1,15.3974721,74.0244979,Goa
Flex fitness Goa,Gymnasium Cz,"St.Joaquim rd, Borda, Margao, Goa 403602, India",https://www.google.co.kr/maps/place/Flex+fitness+Goa/data=!4m5!3m4!1s0x3bbfb3d9c8b83003:0xeeb231555a56e3a9!8m2!3d15.2850004!4d73.9698714?authuser=0&hl=en&rclk=1,15.2850004,73.9698714,Goa
Johnson's Fitness Gym,Gym,"Raia - Santimol Rd, Raia, Goa 403720, India",https://www.google.co.kr/maps/place/Johnson's+Fitness+Gym/data=!4m5!3m4!1s0x3bbfb184e98974f9:0x2bec90d4960cf766!8m2!3d15.3019005!4d73.9922906?authuser=0&hl=en&rclk=1,15.3019005,73.9922906,Goa
BodyFit GYM,Gymnastics center,"Suyog Residency, St Joaquim Road, Borda, Margao, Goa 403602, India",https://www.google.co.kr/maps/place/BodyFit+GYM/data=!4m5!3m4!1s0x3bbfb3d566cacc4b:0xf809090667068d35!8m2!3d15.2885907!4d73.9812667?authuser=0&hl=en&rclk=1,15.2885907,73.9812667,Goa
Sai Power Gym ~daren~,Gym,"Opp Municipality Market, Curchorem-Goa, Curchorem to Sanvordem road, Vodlemol Cacora, Goa 403706, India",https://www.google.co.kr/maps/place/Sai+Power+Gym+~daren~/data=!4m5!3m4!1s0x3bbfac642f4b3781:0x12429401f7e7c9ad!8m2!3d15.2604316!4d74.106613?authuser=0&hl=en&rclk=1,15.2604316,74.106613,Goa
Ultimate Fitness Gymnasium,Gym,"First floor, Above Digital world, Nova Cidade Complex, near Domino's Pizza, Alto Porvorim, Goa 403521, India",https://www.google.co.kr/maps/place/Ultimate+Fitness+Gymnasium/data=!4m5!3m4!1s0x3bbfc06cd2bce7e1:0x536065ac9cb3793b!8m2!3d15.5273451!4d73.8264336?authuser=0&hl=en&rclk=1,15.5273451,73.8264336,Goa
Edith women's gym,Fitness center,"B - SH 23, L&L Correia‚Äôs pride, near KTC bus stand, Margao, Goa 403601, India",https://www.google.co.kr/maps/place/Edith+women's+gym/data=!4m5!3m4!1s0x3bbfb1ffca6db695:0x4b833883b7a1606c!8m2!3d15.2899748!4d73.9552218?authuser=0&hl=en&rclk=1,15.2899748,73.9552218,Goa
SHAPE SHIFTERS GYM,Gym,"Xenia Building, OFF, Kadamba Depot Rd, OPP BASKETBALL COURT, Church Street, Defence Colony, Porvorim, Aradi Socorro, Goa 403521, India",https://www.google.co.kr/maps/place/SHAPE+SHIFTERS+GYM/data=!4m5!3m4!1s0x3bbfc1abc6231c47:0x693ef66faa74b022!8m2!3d15.53659!4d73.825618?authuser=0&hl=en&rclk=1,15.53659,73.825618,Goa
shiroda gym,Gym,"82G9+3F2, Karai, Shiroda, Goa 403103, India",https://www.google.co.kr/maps/place/shiroda+gym/data=!4m5!3m4!1s0x3bbfb1daadfd035f:0x78b77919dd4b715b!8m2!3d15.3251475!4d74.0186512?authuser=0&hl=en&rclk=1,15.3251475,74.0186512,Goa
Siolim Fitness Gym,Gym,"Kudal, Siolim, Goa 403517, India",https://www.google.co.kr/maps/place/Siolim+Fitness+Gym/data=!4m5!3m4!1s0x3bbfebf73a00d259:0x8266cce3f62dace2!8m2!3d15.631199!4d73.761414?authuser=0&hl=en&rclk=1,15.631199,73.761414,Goa
Superfit - Goa by Ricardo,Gym,"Hadfade Junction, Nagoa, Saligao, Goa 403511, India",https://www.google.co.kr/maps/place/Superfit+-+Goa+by+Ricardo/data=!4m5!3m4!1s0x3bbfeb8f9f522311:0x8d673804df959!8m2!3d15.5577457!4d73.7764083?authuser=0&hl=en&rclk=1,15.5577457,73.7764083,Goa
Body sculpture Gym,Boxing gym,"GRFP+M77, Alto Porvorim, Penha de Fran√ßa, Goa 403101, India",https://www.google.co.kr/maps/place/Body+sculpture+Gym/data=!4m5!3m4!1s0x3bbfc14184ae5a7d:0x5f448acefc9364ae!8m2!3d15.5241654!4d73.8356771?authuser=0&hl=en&rclk=1,15.5241654,73.8356771,Goa
Fitness World,Fitness center,"Poriat Football Ground, Madda Vaddo, Calangute, Goa 403516, India",https://www.google.co.kr/maps/place/Fitness+World/data=!4m5!3m4!1s0x3bbfc1e316e95abb:0x331caa50c9311f65!8m2!3d15.541442!4d73.76128?authuser=0&hl=en&rclk=1,15.541442,73.76128,Goa
Chowgule's Crocs Arena,Gym,"7XRJ+V64, Cupangale Society, Margao, Goa 403601, India",https://www.google.co.kr/maps/place/Chowgule's+Crocs+Arena/data=!4m5!3m4!1s0x3bbfb17f042e4511:0xd1f65759ab3d9a52!8m2!3d15.2921294!4d73.9805844?authuser=0&hl=en&rclk=1,15.2921294,73.9805844,Goa
Brandon's Fitness Centre,Fitness center,"near PWD Office, Fatorda, Margao, Goa 403602, India",https://www.google.co.kr/maps/place/Brandon's+Fitness+Centre/data=!4m5!3m4!1s0x3bbfb18f0279f551:0x662abb3228008c7f!8m2!3d15.292035!4d73.9652937?authuser=0&hl=en&rclk=1,15.292035,73.9652937,Goa
BN Fitness Gym,Gym,"Quepem - Curchorem Rd, Quepem, Goa 403705, India",https://www.google.co.kr/maps/place/BN+Fitness+Gym/data=!4m5!3m4!1s0x3bbfad4b8f3fa3fb:0xcf70390da8dcfac!8m2!3d15.216555!4d74.076572?authuser=0&hl=en&rclk=1,15.216555,74.076572,Goa
Xeldem gym,Gym,"63FM+FG6, Tilamola, Xeldem, Goa 403705, India",https://www.google.co.kr/maps/place/Xeldem+gym/data=!4m5!3m4!1s0x3bbfad3149d6852d:0xce853821fe4b92d3!8m2!3d15.2236695!4d74.0837808?authuser=0&hl=en&rclk=1,15.2236695,74.0837808,Goa
Powerpack Fitness Center,Gym,"Opposite Quality Winding, near Sai Service, Curti, Ponda, Goa 403401, India",https://www.google.co.kr/maps/place/Powerpack+Fitness+Center/data=!4m5!3m4!1s0x3bbfbb4c470f6b03:0xe7a97f9e057f44b2!8m2!3d15.4153382!4d74.0110238?authuser=0&hl=en&rclk=1,15.4153382,74.0110238,Goa
Calburn Fitness Solutions,Fitness center,"The International Centre Goa, Goa University Road, Dona Paula, Goa 403206, India",https://www.google.co.kr/maps/place/Calburn+Fitness+Solutions/data=!4m5!3m4!1s0x3bbfc74acbad2b17:0xac5bde92bfe4847b!8m2!3d15.45851!4d73.82117?authuser=0&hl=en&rclk=1,15.45851,73.82117,Goa
Sawant Fitness Gym,Gym,"Kundaim, Carambolim, Corlim, Goa 403115, India",https://www.google.co.kr/maps/place/Sawant+Fitness+Gym/data=!4m5!3m4!1s0x3bbfbb22cad9a8b7:0x39d5139b515ebfed!8m2!3d15.4607811!4d73.9597162?authuser=0&hl=en&rclk=1,15.4607811,73.9597162,Goa
Amonkar Fitness Gym,Gym,"Navelim, Goa 403707, India",https://www.google.co.kr/maps/place/Amonkar+Fitness+Gym/data=!4m5!3m4!1s0x3bbfb31259b3d20f:0x1a2b48f1ad1decb!8m2!3d15.2566074!4d73.9738152?authuser=0&hl=en&rclk=1,15.2566074,73.9738152,Goa
Body Station unisex gym,Gym,"near wheel point, BANSAI, Kakoda, Vodlemol Cacora, Goa 403706, India",https://www.google.co.kr/maps/place/Body+Station+unisex+gym/data=!4m5!3m4!1s0x3bbfad3bb8402255:0x610a52d9cc985b23!8m2!3d15.2560848!4d74.1025765?authuser=0&hl=en&rclk=1,15.2560848,74.1025765,Goa
Curtorim Gym,Gym,"72QF+FJW, Curtorim, Goa 403709, India",https://www.google.co.kr/maps/place/Curtorim+Gym/data=!4m5!3m4!1s0x3bbfb203d62e1923:0x43e83640ff69c8cf!8m2!3d15.2887284!4d74.0240926?authuser=0&hl=en&rclk=1,15.2887284,74.0240926,Goa
R Fitness Studio,Gym,"R Fitness Studio, Muslimwada, Bicholim, Goa 403504, India",https://www.google.co.kr/maps/place/R+Fitness+Studio/data=!4m5!3m4!1s0x3bbf966c03d00b3d:0x84fb88777c1adf9d!8m2!3d15.5880465!4d73.9549107?authuser=0&hl=en&rclk=1,15.5880465,73.9549107,Goa
Meraki Fitness,Gym,"Pinto's Vaddo- near Mandailo khuris, opp. Novotel Resort and Spa, Candolim, 403515, India",https://www.google.co.kr/maps/place/Meraki+Fitness/data=!4m5!3m4!1s0x3bbfc197bfaf04e5:0xd500cc985086e369!8m2!3d15.5200612!4d73.7688259?authuser=0&hl=en&rclk=1,15.5200612,73.7688259,Goa
Om Hatha Yoga Goa,Gym,"CSM Road Khobra Vaddo, Calangute, Goa, India",https://www.google.co.kr/maps/place/Om+Hatha+Yoga+Goa/data=!4m5!3m4!1s0x3bbfea04c10d7e2f:0xd8808463689f7643!8m2!3d15.5549557!4d73.7554056?authuser=0&hl=en&rclk=1,15.5549557,73.7554056,Goa
Anup and Sheral Fitness Studio,Gym,"Canca, Sateri Nagar Colony, Verla Canca, Goa 403507, India",https://www.google.co.kr/maps/place/Anup+and+Sheral+Fitness+Studio/data=!4m5!3m4!1s0x3bbfeb986321b231:0x19c1083801c0348d!8m2!3d15.5811354!4d73.7975753?authuser=0&hl=en&rclk=1,15.5811354,73.7975753,Goa
Fat 2 Fit Gym,Gym,"7W3J+JXQ, Benaulim, Goa 403716, India",https://www.google.co.kr/maps/place/Fat+2+Fit+Gym/data=!4m5!3m4!1s0x3bbfb5f2d0f05787:0xb1102cd3b741f7c1!8m2!3d15.2540906!4d73.932475?authuser=0&hl=en&rclk=1,15.2540906,73.932475,Goa
Noberts Fitness Studio Ponda,Gym,"Sapna Residency, Prabhu Nagar, Ponda, Goa 403401, India",https://www.google.co.kr/maps/place/Noberts+Fitness+Studio+Ponda/data=!4m5!3m4!1s0x3bbfbb3291494f75:0x953106e4f1ade6e3!8m2!3d15.3985841!4d74.0219092?authuser=0&hl=en&rclk=1,15.3985841,74.0219092,Goa
Aim Fitness Studio,Fitness center,"Ambaji, Margao, Goa 403602, India",https://www.google.co.kr/maps/place/Aim+Fitness+Studio/data=!4m5!3m4!1s0x3bbfb14022fa1fa5:0x70b33abf82bce506!8m2!3d15.2982015!4d73.96046?authuser=0&hl=en&rclk=1,15.2982015,73.96046,Goa
Samrat Enterprise Goa,Gym,"9WHF+MQM, Quelossim, Goa 403710, India",https://www.google.co.kr/maps/place/Samrat+Enterprise+Goa/data=!4m5!3m4!1s0x3bbfb99de4664635:0xaeff5c7b73cce72c!8m2!3d15.3792124!4d73.924417?authuser=0&hl=en&rclk=1,15.3792124,73.924417,Goa
Government Gym,Gym,"7474+79F, BEPQUEGAL, Vodlemol Cacora, Goa 403706, India",https://www.google.co.kr/maps/place/Government+Gym/data=!4m5!3m4!1s0x3bbfac660ece38cd:0x6a3b24f262d23e23!8m2!3d15.2631758!4d74.1059373?authuser=0&hl=en&rclk=1,15.2631758,74.1059373,Goa
Sumit Naik gym powerpack fitness center,Gym,"Near SAI Service, Electricity Dept Staff Residential Colony, Ponda, Goa 403401, India",https://www.google.co.kr/maps/place/Sumit+Naik+gym+powerpack+fitness+center/data=!4m5!3m4!1s0x3bbfbb7fe5aca015:0xc1bbf67ee6c78e3b!8m2!3d15.4150371!4d74.0110765?authuser=0&hl=en&rclk=1,15.4150371,74.0110765,Goa
Rafik Fitness,Gym,"Colva - Benaulim Rd, Benaulim, Goa 403708, India",https://www.google.co.kr/maps/place/Rafik+Fitness/data=!4m5!3m4!1s0x3bbfb5a1b30d317d:0xa5af0a56bedf93bb!8m2!3d15.2732536!4d73.9272243?authuser=0&hl=en&rclk=1,15.2732536,73.9272243,Goa
Fit for Life,Physical fitness program,"Arlem, Margao, Goa 403602, India",https://www.google.co.kr/maps/place/Fit+for+Life/data=!4m5!3m4!1s0x3bbfb1e9fd42a6ab:0xc7c18e450c95ec90!8m2!3d15.297687!4d73.9711222?authuser=0&hl=en&rclk=1,15.297687,73.9711222,Goa
V Fitness,Gym,"House No. 443, Deulwada, Marcel, Orgao, Goa 403107, India",https://www.google.co.kr/maps/place/V+Fitness/data=!4m5!3m4!1s0x3bbfbdb4d09b7c95:0xceba5db1221b2f3c!8m2!3d15.5155121!4d73.9629288?authuser=0&hl=en&rclk=1,15.5155121,73.9629288,Goa
Nelson Paes Fitness,Fitness center,"kamat holiday homes, Gauravaddo, Calangute, Goa 403516, India",https://www.google.co.kr/maps/place/Nelson+Paes+Fitness/data=!4m5!3m4!1s0x3bbfea3effffffbf:0xa2c2745b818227fb!8m2!3d15.5343538!4d73.76477?authuser=0&hl=en&rclk=1,15.5343538,73.76477,Goa
Fitness Planet Gym,Gym,"Pratap Nagar, Sakhali housing board Colony, Sanquelim, Goa 403505, India",https://www.google.co.kr/maps/place/Fitness+Planet+Gym/data=!4m5!3m4!1s0x3bbfbd3d8aa33c35:0xfc7de667211a2d97!8m2!3d15.5572014!4d74.0276638?authuser=0&hl=en&rclk=1,15.5572014,74.0276638,Goa
Maximum Muscle,Gym,"7XR8+848, Fatorda, Margao, Goa 403602, India",https://www.google.co.kr/maps/place/Maximum+Muscle/data=!4m5!3m4!1s0x3bbfb1617fd3183f:0xe6e8f2a6f8eccc27!8m2!3d15.2907955!4d73.9653396?authuser=0&hl=en&rclk=1,15.2907955,73.9653396,Goa
GYMNESIA,Gym,"1st floor,KASHINATH BLDG, near POLICE STATION, Quepem, Goa 403705, India",https://www.google.co.kr/maps/place/GYMNESIA/data=!4m5!3m4!1s0x3bbfad7dbc473f09:0x9aeb769cafdee0be!8m2!3d15.216376!4d74.0663151?authuser=0&hl=en&rclk=1,15.216376,74.0663151,Goa
Zumba¬Æ Fitness- FunFit by Arafath,Physical fitness program,"2nd Floor, Sumit Shivam Building, opp. Kalpana Ice Cream Parlour, Ponda, Goa 403401, India",https://www.google.co.kr/maps/place/Zumba%C2%AE+Fitness-+FunFit+by+Arafath/data=!4m5!3m4!1s0x3bbfba95e9769efd:0x2d3e66947a0a4ea0!8m2!3d15.3996057!4d74.0052401?authuser=0&hl=en&rclk=1,15.3996057,74.0052401,Goa
Muscle Tech,Gym,"7X75+WV8, Shirvodem, Goa 403707, India",https://www.google.co.kr/maps/place/Muscle+Tech/data=!4m5!3m4!1s0x3bbfb3c000f706e7:0x638bc44461b27e51!8m2!3d15.2647928!4d73.95969?authuser=0&hl=en&rclk=1,15.2647928,73.95969,Goa
"üßòüèª‚Äç‚ôÇÔ∏è""VIRAJ GYM""üèãüèª‚Äç‚ôÇÔ∏è",Gym,"Goljuem, Corjuem, Aldona, Goa 403508, India",https://www.google.co.kr/maps/place/%F0%9F%A7%98%F0%9F%8F%BB%E2%80%8D%E2%99%82%EF%B8%8F%22VIRAJ+GYM%22%F0%9F%8F%8B%F0%9F%8F%BB%E2%80%8D%E2%99%82%EF%B8%8F/data=!4m5!3m4!1s0x3bbf95d002f194e9:0x3e24b78c5f4ba527!8m2!3d15.5782056!4d73.8823479?authuser=0&hl=en&rclk=1,15.5782056,73.8823479,Goa
fat to fit gym,Gym,"7W3M+M5W, Benaulim, Goa 403716, India",https://www.google.co.kr/maps/place/fat+to+fit+gym/data=!4m5!3m4!1s0x3bbfb5b5401ce0ef:0x860e8c4c71c83537!8m2!3d15.2542403!4d73.9329668?authuser=0&hl=en&rclk=1,15.2542403,73.9329668,Goa
Meraki Fitness,Gym,"Gaura waddo next to St Anthony chapel Opp to Newton's Super market, next to Pizza hut, Calangute, Goa 403516, India",https://www.google.co.kr/maps/place/Meraki+Fitness/data=!4m5!3m4!1s0x3bbfc10cce9b778f:0x6f70a788c2e9da0d!8m2!3d15.5358314!4d73.7644238?authuser=0&hl=en&rclk=1,15.5358314,73.7644238,Goa
Power gym,Gym,"Igramall, Quepem, Goa 403705, India",https://www.google.co.kr/maps/place/Power+gym/data=!4m5!3m4!1s0x3bbfad86b62dadbd:0x912d5a8ad12d6bad!8m2!3d15.2072605!4d74.0679416?authuser=0&hl=en&rclk=1,15.2072605,74.0679416,Goa
Zumba¬Æ Fitness- by ZIN Sumit Rajput,Fitness center,"I Learn Preschool, Silva Nagar, Ponda, Goa 403401, India",https://www.google.co.kr/maps/place/Zumba%C2%AE+Fitness-+by+ZIN+Sumit+Rajput/data=!4m5!3m4!1s0x3bbfbb4793104e13:0x34dcb2d01406b2ab!8m2!3d15.4010925!4d74.0172899?authuser=0&hl=en&rclk=1,15.4010925,74.0172899,Goa
Zumba¬Æ Fitness Class,Fitness center,"Club, Igorjebhatt, Chandor, Goa 403714, India",https://www.google.co.kr/maps/place/Zumba%C2%AE+Fitness+Class/data=!4m5!3m4!1s0x3bbfad92b67a40a9:0x9f84aa3170338dcb!8m2!3d15.2596557!4d74.0473366?authuser=0&hl=en&rclk=1,15.2596557,74.0473366,Goa
Amonkar Fitness Gym,Gym,"Dongorim Road, Navelim, Goa 403707, India",https://www.google.co.kr/maps/place/Amonkar+Fitness+Gym/data=!4m5!3m4!1s0x3bbfb382e36357bb:0x250ca91a77a28372!8m2!3d15.2563164!4d73.9695278?authuser=0&hl=en&rclk=1,15.2563164,73.9695278,Goa
The Royal Rajput Gym,Gym,"Agonda, Goa 403702, India",https://www.google.co.kr/maps/place/The+Royal+Rajput+Gym/data=!4m5!3m4!1s0x3bbe4fd6be4963ef:0x613d9b607fd2620e!8m2!3d15.0356311!4d74.0009594?authuser=0&hl=en&rclk=1,15.0356311,74.0009594,Goa
Jungle Gym Hindgram,Fitness center,"H no. 226, Madhalawada, Arambol, Goa 403524, India",https://www.google.co.kr/maps/place/Jungle+Gym+Hindgram/data=!4m5!3m4!1s0x3bbfefc57206ef7d:0x2f152b059e820e50!8m2!3d15.68569!4d73.712505?authuser=0&hl=en&rclk=1,15.68569,73.712505,Goa
Muscle mania gym,Gym,"Housing Board, Navelim, New Zariwaddo, Rumdamol, Davorlim, Goa 403601, India",https://www.google.co.kr/maps/place/Muscle+mania+gym/data=!4m5!3m4!1s0x3bbfb348fde8ce43:0x99f8daad6e76e478!8m2!3d15.2774139!4d73.9844133?authuser=0&hl=en&rclk=1,15.2774139,73.9844133,Goa
CLISZMA‚ÄôS FITNESS SQUAD by Cliszma,Fitness center,"Caro Fitness Studio, Malbhat, Margao, Goa 403601, India",https://www.google.co.kr/maps/place/CLISZMA%E2%80%99S+FITNESS+SQUAD+by+Cliszma/data=!4m5!3m4!1s0x3bbfb36af76b4301:0xffc2bef20bccb2e2!8m2!3d15.2715586!4d73.9641817?authuser=0&hl=en&rclk=1,15.2715586,73.9641817,Goa
Zumba¬Æ fitness Classes by ZIN Sumit Rajput,Fitness center,"2nd Floor, Sumit Shivam Building, opp. Kalpana Ice Cream Parlour, Ponda, Goa 403401, India",https://www.google.co.kr/maps/place/Zumba%C2%AE+fitness+Classes+by+ZIN+Sumit+Rajput/data=!4m5!3m4!1s0x3bbfbbc1ea5a00c1:0x70fa4fba12bace81!8m2!3d15.3996654!4d74.0052598?authuser=0&hl=en&rclk=1,15.3996654,74.0052598,Goa
MINAS FITNESS ACADEMY,Fitness center,"Sanjeevan nageshi, Donshiwado, Ponda, Goa 403401, India",https://www.google.co.kr/maps/place/MINAS+FITNESS+ACADEMY/data=!4m5!3m4!1s0x3bbfbbac56d8c949:0x8a63c71bf7245138!8m2!3d15.404237!4d73.9851034?authuser=0&hl=en&rclk=1,15.404237,73.9851034,Goa
Sunil's Fitness Wave at Miramar Beach,Physical fitness program,"Beach, Miramar, Panaji, Goa 403001, India",https://www.google.co.kr/maps/place/Sunil's+Fitness+Wave+at+Miramar+Beach/data=!4m5!3m4!1s0x3bbfc164009713a5:0x1344e2c67727d43a!8m2!3d15.4826538!4d73.8073513?authuser=0&hl=en&rclk=1,15.4826538,73.8073513,Goa
Fitness Culture Gym,Gym,"C-620, first floor, near Jamia co-operative bank, Madanpur Khadar Extension, Madanpur Khadar, Panaji, Goa 403110, India",https://www.google.co.kr/maps/place/Fitness+Culture+Gym/data=!4m5!3m4!1s0x3bbfc1d8e56cd9ad:0xc2427385f4aab260!8m2!3d15.4911734!4d73.8276073?authuser=0&hl=en&rclk=1,15.4911734,73.8276073,Goa
HYDRA FITNESS,Gym,"Second floor, Pundalik Arcade, Police Station road, above Apollo pharmacy, BEPQUEGAL, Vodlemol Cacora, Goa 403706, India",https://www.google.co.kr/maps/place/HYDRA+FITNESS/data=!4m5!3m4!1s0x3bbfadd7222bf855:0x76d6b04dab40c5c8!8m2!3d15.260192!4d74.1090501?authuser=0&hl=en&rclk=1,15.260192,74.1090501,Goa
G'Energy Fitness Lounge,Gym,"Varde, Varde Valaulikar Rd, Near Gaylin Restaurant, Pajifond, Margao, Goa 403601, India",https://www.google.co.kr/maps/place/G'Energy+Fitness+Lounge/data=!4m5!3m4!1s0x3bbfb31c80ddb931:0x8bc20cffbe0d0cd9!8m2!3d15.2746512!4d73.9597866?authuser=0&hl=en&rclk=1,15.2746512,73.9597866,Goa
FITNESS FACTORY GYM,Gym,"1159/4,chanin, Shiroda, Goa 403103, India",https://www.google.co.kr/maps/place/FITNESS+FACTORY+GYM/data=!4m5!3m4!1s0x3bbfaf0c2e246ac1:0x1c91a862d706d865!8m2!3d15.3217073!4d74.0323871?authuser=0&hl=en&rclk=1,15.3217073,74.0323871,Goa
Amby,Gym,"matol, Verna, Goa 403722, India",https://www.google.co.kr/maps/place/Amby/data=!4m5!3m4!1s0x3bbfb7adcc64aa6b:0xa999f3d0f028618b!8m2!3d15.3259694!4d73.9335217?authuser=0&hl=en&rclk=1,15.3259694,73.9335217,Goa
Mesomorph Gym,Gym,"HRV8+2JR, Altinho, Mapusa, Goa 403507, India",https://www.google.co.kr/maps/place/Mesomorph+Gym/data=!4m5!3m4!1s0x3bbfc1960a703493:0x96d69f75bf5b0f30!8m2!3d15.5926174!4d73.8165215?authuser=0&hl=en&rclk=1,15.5926174,73.8165215,Goa
FITNESS 4 LIFE,Fitness center,"3rd floor, Sai Wellness Center, Cedmar Apartment, 304, MG Road, Panjim, Panaji, Goa 403001, India",https://www.google.co.kr/maps/place/FITNESS+4+LIFE/data=!4m5!3m4!1s0x3bbfc1a383bf906d:0xd2087f5f89ba1716!8m2!3d15.4978301!4d73.8242851?authuser=0&hl=en&rclk=1,15.4978301,73.8242851,Goa
Viraj gym,Fitness center,"HVHM+75X, Corjuem, Aldona, Goa 403508, India",https://www.google.co.kr/maps/place/Viraj+gym/data=!4m5!3m4!1s0x3bbf95a9cf221377:0xa994ffbd622ccccf!8m2!3d15.5782446!4d73.8829725?authuser=0&hl=en&rclk=1,15.5782446,73.8829725,Goa
TFC outdoor fitness,Fitness center,"Near Sharvani Devi Temple, salago wada Advalpale, Bicholim, Goa 403503, India",https://www.google.co.kr/maps/place/TFC+outdoor+fitness/data=!4m5!3m4!1s0x3bbf95907a218e65:0x59a88c8b53107747!8m2!3d15.6384162!4d73.9023925?authuser=0&hl=en&rclk=1,15.6384162,73.9023925,Goa
"Samarth Fitness Center, Mopa",Gym,"H/N-16, Second Floor, Mauli Prasad, Paltadwada, Mopa, Goa 403512, India","https://www.google.co.kr/maps/place/Samarth+Fitness+Center,+Mopa/data=!4m5!3m4!1s0x3bbf8d77968c062f:0xcf0c1541c4dd02bc!8m2!3d15.7566499!4d73.8505989?authuser=0&hl=en&rclk=1",15.7566499,73.8505989,Goa
Fit For Life / Enrich Service Solutions,Fitness center,"House No 222, Arlem, Raia, Goa 403720, India",https://www.google.co.kr/maps/place/Fit+For+Life+%2F+Enrich+Service+Solutions/data=!4m5!3m4!1s0x3bbfb14f492dad07:0x9f88f0d69a2288f6!8m2!3d15.3027991!4d73.9776373?authuser=0&hl=en&rclk=1,15.3027991,73.9776373,Goa
H and T Fitness studio,Gym,"Sarthak garden, Dhavali, Yashwant Nagar, Queula, Goa 403401, India",https://www.google.co.kr/maps/place/H+and+T+Fitness+studio/data=!4m5!3m4!1s0x3bbfbb80cec780d9:0xd9b2aebcbd9d35de!8m2!3d15.3879961!4d73.9976378?authuser=0&hl=en&rclk=1,15.3879961,73.9976378,Goa
Power gym,Gym,"z, Benaulim, Goa 403707, India",https://www.google.co.kr/maps/place/Power+gym/data=!4m5!3m4!1s0x3bbfb3072b423c35:0xca15af14ef79e45a!8m2!3d15.2629814!4d73.9566786?authuser=0&hl=en&rclk=1,15.2629814,73.9566786,Goa
Dattakrupa Fitness Gym,Gym,"C39J+W99, Tisca, Goa 403406, India",https://www.google.co.kr/maps/place/Dattakrupa+Fitness+Gym/data=!4m5!3m4!1s0x3bbfa54be3ea4fdd:0xf015dc2f7c2c1478!8m2!3d15.4197769!4d74.0809896?authuser=0&hl=en&rclk=1,15.4197769,74.0809896,Goa
Porobfitness,Gym,"App commercial complex, Valpoi, Goa 403506, India",https://www.google.co.kr/maps/place/Porobfitness/data=!4m5!3m4!1s0x3bbfa1ff0464a3a3:0x83f2e2b0824e89b!8m2!3d15.5292617!4d74.1345856?authuser=0&hl=en&rclk=1,15.5292617,74.1345856,Goa
SAG gym,Gym,"7XQ7+V77, Fatorda, Goa 403602, India",https://www.google.co.kr/maps/place/SAG+gym/data=!4m5!3m4!1s0x3bbfb161ba9f98d9:0xb3caf511feb5befc!8m2!3d15.2896628!4d73.9631772?authuser=0&hl=en&rclk=1,15.2896628,73.9631772,Goa
Amonkar's Fitness Marcela,Gym,"Unnamed Road, Orgao, Goa 403107, India",https://www.google.co.kr/maps/place/Amonkar's+Fitness+Marcela/data=!4m5!3m4!1s0x3bbfbd514013e173:0x3a22e0df38460db!8m2!3d15.5146604!4d73.9622549?authuser=0&hl=en&rclk=1,15.5146604,73.9622549,Goa
DIRECTORATE OF SPORTS AND YOUTH AFFAIRS GYM,Gym,"8W5W+224, Nuvem, Goa 403708, India",https://www.google.co.kr/maps/place/DIRECTORATE+OF+SPORTS+AND+YOUTH+AFFAIRS+GYM/data=!4m5!3m4!1s0x3bbfb187326b9b3b:0xf442a781a8e8a99e!8m2!3d15.3075006!4d73.9450821?authuser=0&hl=en&rclk=1,15.3075006,73.9450821,Goa
Goa Pilates & Rehab Studio,Pilates studio,"403, 4th Floor, Block-A, Esmeralda Casa Do Povo Taleigao-St. Inez Bypass, Road, Taleigao, Panaji, Goa 403002, India",https://www.google.co.kr/maps/place/Goa+Pilates+%26+Rehab+Studio/data=!4m5!3m4!1s0x3bbfc1c4fd2d768d:0x2c2d66dec34e6d31!8m2!3d15.4820466!4d73.8198472?authuser=0&hl=en&rclk=1,15.4820466,73.8198472,Goa
Bodymechanics ponda,Gym,"forest department, Shanti Nagar, Ponda, Goa 403401, India",https://www.google.co.kr/maps/place/Bodymechanics+ponda/data=!4m5!3m4!1s0x3bbfbb3285e5020d:0xaaf64862d002eb1e!8m2!3d15.3966405!4d74.005879?authuser=0&hl=en&rclk=1,15.3966405,74.005879,Goa
Powerpack Gym,Gymnastics center,"Bharoniwada Naveli Sankhali, Goa, India",https://www.google.co.kr/maps/place/Powerpack+Gym/data=!4m5!3m4!1s0x3bbfbd3d2dcf270f:0xc73949a1e163406f!8m2!3d15.5298748!4d74.0088558?authuser=0&hl=en&rclk=1,15.5298748,74.0088558,Goa
Meraki Fitness,Gym,"842G+XQ3, Candolim, Goa 403706, India",https://www.google.co.kr/maps/place/Meraki+Fitness/data=!4m5!3m4!1s0x3bbfa9d442d9cf63:0x153659b6b741efdc!8m2!3d15.3023793!4d74.1269322?authuser=0&hl=en&rclk=1,15.3023793,74.1269322,Goa
Dr.P.S Ramani Gym,Gym,"Naik- Waddo Rd, Vadi, Goa 403401, India",https://www.google.co.kr/maps/place/Dr.P.S+Ramani+Gym/data=!4m5!3m4!1s0x3bbfb07e6db971a5:0x19b835ef1e9c1b8d!8m2!3d15.3752084!4d73.9846953?authuser=0&hl=en&rclk=1,15.3752084,73.9846953,Goa
SHAPER'S GYM,Gym,"CROSARY COM.ARCADE NAVELIM Shop-AG-25/26 SHOP-AG-25/26 GROUND GLOOR ROSARY COM.ARCADE NAVELIM, Navelim, Goa 403707, India",https://www.google.co.kr/maps/place/SHAPER'S+GYM/data=!4m5!3m4!1s0x3bbfb3bb1148a991:0xdfaf6ddf1678049a!8m2!3d15.2557216!4d73.96737?authuser=0&hl=en&rclk=1,15.2557216,73.96737,Goa
–ê–ª–ª–µ—è,Gym,"Kudal, Siolim, Goa 403517, India",https://www.google.co.kr/maps/place/%D0%90%D0%BB%D0%BB%D0%B5%D1%8F/data=!4m5!3m4!1s0x3bbfeb920c328d8b:0x8f8fce9201ad353a!8m2!3d15.6199839!4d73.7573503?authuser=0&hl=en&rclk=1,15.6199839,73.7573503,Goa
The Jungle Gym,Gym,"Desai Wada, near Reema General Store, Agonda, Goa 403702, India",https://www.google.co.kr/maps/place/The+Jungle+Gym/data=!4m5!3m4!1s0x3bbe4f7ec822fb11:0x5dfa51c120b05ae!8m2!3d15.0455816!4d73.98888?authuser=0&hl=en&rclk=1,15.0455816,73.98888,Goa
Body tech fitness,Gym,"Padre pio Avenue dramapur, Navelim, India",https://www.google.co.kr/maps/place/Body+tech+fitness/data=!4m5!3m4!1s0x3bbfb32f25693bbd:0xd2a0514b43c5ef44!8m2!3d15.2425817!4d73.979643?authuser=0&hl=en&rclk=1,15.2425817,73.979643,Goa
Lucky Fitness,Gym,"Narayan Nagar, Honda VP, Goa 403530, India",https://www.google.co.kr/maps/place/Lucky+Fitness/data=!4m5!3m4!1s0x3bbfa2b94a6d246b:0x9e01aaad4b19a854!8m2!3d15.5481306!4d74.0473664?authuser=0&hl=en&rclk=1,15.5481306,74.0473664,Goa
Okamb swim,Gym,"93PQ+JW8, Nirankal, Goa 403406, India",https://www.google.co.kr/maps/place/Okamb+swim/data=!4m5!3m4!1s0x3bbfafcd393b75d7:0x6e54afadb9ca54aa!8m2!3d15.3865469!4d74.0898365?authuser=0&hl=en&rclk=1,15.3865469,74.0898365,Goa
Bat Cave Utorda,Gym,"Arossim Utorda Beach Rd, Utorda, Goa 403713, India",https://www.google.co.kr/maps/place/Bat+Cave+Utorda/data=!4m5!3m4!1s0x3bbfb732f4652fd3:0x7a43648a50356b04!8m2!3d15.3254174!4d73.9105818?authuser=0&hl=en&rclk=1,15.3254174,73.9105818,Goa
Cyril Yoga Holiday Retreat Goa India.,Yoga studio,"Calangute Naikawaddo To Candolim Rd, Behind Navratna, Udupi, Calangute, Goa 403516, India",https://www.google.co.kr/maps/place/Cyril+Yoga+Holiday+Retreat+Goa+India./data=!4m5!3m4!1s0x3bbfc1e3f60637bb:0x5c7045df35878b8b!8m2!3d15.541146!4d73.7644766?authuser=0&hl=en&rclk=1,15.541146,73.7644766,Goa
Sola Luna Yoga Studio,Fitness center,"Shop no 2, CD West Winds Retreat Housing society, mazilvaddo ahead of Benaulim Panchayat, Benaulim, Goa 403716, India",https://www.google.co.kr/maps/place/Sola+Luna+Yoga+Studio/data=!4m5!3m4!1s0x3bbfb47424148a83:0x6310c424d65e98a2!8m2!3d15.257354!4d73.931927?authuser=0&hl=en&rclk=1,15.257354,73.931927,Goa
RAJESH SKATING COACH,Gym,"Unnamed Road, Nuvem, Margao, Goa 403720, India",https://www.google.co.kr/maps/place/RAJESH+SKATING+COACH/data=!4m5!3m4!1s0x3bbfb115e57a895b:0x89dbd51dde83f8c4!8m2!3d15.3065373!4d73.9888797?authuser=0&hl=en&rclk=1,15.3065373,73.9888797,Goa
Football Ground .,Gym,"63W6+JWP, Gonvol, Cotombi, Goa 403714, India",https://www.google.co.kr/maps/place/Football+Ground+./data=!4m5!3m4!1s0x3bbfad0900000001:0xafc61fd879022883!8m2!3d15.2465912!4d74.0623244?authuser=0&hl=en&rclk=1,15.2465912,74.0623244,Goa
Ocean Grove Complex,Gym,"Colva Beach Rd, Fatona, Colva, Goa 403708, India",https://www.google.co.kr/maps/place/Ocean+Grove+Complex/data=!4m5!3m4!1s0x3bbfb403f6033543:0x865ef24b951ab086!8m2!3d15.2796131!4d73.929236?authuser=0&hl=en&rclk=1,15.2796131,73.929236,Goa
"GCA Ground, Sanguem",Gym,"Unnamed Rd,, Cotarli, Goa 403704, India","https://www.google.co.kr/maps/place/GCA+Ground,+Sanguem/data=!4m5!3m4!1s0x3bbe54d208a6de65:0xbaf7d4104068c055!8m2!3d15.2060669!4d74.159531?authuser=0&hl=en&rclk=1",15.2060669,74.159531,Goa
–°–ø–æ—Ä—Ç–∏–≤–Ω–æ–µ –ü–∏—Ç–∞–Ω–∏–µ,Gym,"FRVC+2C2, Altinho, Panaji, Goa 403001, India",https://www.google.co.kr/maps/place/%D0%A1%D0%BF%D0%BE%D1%80%D1%82%D0%B8%D0%B2%D0%BD%D0%BE%D0%B5+%D0%9F%D0%B8%D1%82%D0%B0%D0%BD%D0%B8%D0%B5/data=!4m5!3m4!1s0x3bbfc09286ba6313:0x76af9cb53db10f44!8m2!3d15.492501!4d73.8210121?authuser=0&hl=en&rclk=1,15.492501,73.8210121,Goa
WORLD OF YOGA,Yoga studio,"A-10, Ocean Park, Dona Paula (Near Cidade Goa Hotel), Panaji, Goa 403004, India",https://www.google.co.kr/maps/place/WORLD+OF+YOGA/data=!4m5!3m4!1s0x3bbfc72d5a30a097:0xed99354574e482eb!8m2!3d15.4564608!4d73.80897?authuser=0&hl=en&rclk=1,15.4564608,73.80897,Goa
football ground,Gym,"726W+8PP, Villa Formosa, Guirdolim, Goa 403714, India",https://www.google.co.kr/maps/place/football+ground/data=!4m5!3m4!1s0x3bbfad90b9c41439:0xa22c670f784838a2!8m2!3d15.2608412!4d74.0468391?authuser=0&hl=en&rclk=1,15.2608412,74.0468391,Goa
Gymnastic Training Centre Yoga & Aerobics Classes,Gymnastics center,"Gujarati Samaj School, Aquem, Margao, Goa 403601, India",https://www.google.co.kr/maps/place/Gymnastic+Training+Centre+Yoga+%26+Aerobics+Classes/data=!4m5!3m4!1s0x3bbfb7881508bd27:0x2049c95f1d5e08ba!8m2!3d15.2704256!4d73.9705141?authuser=0&hl=en&rclk=1,15.2704256,73.9705141,Goa
Arogyam,Alternative medicine practitioner,"Shop No. 1 & 2, Vishwesh Apartments, Murida, Fatorda, Margao, Goa 403602, India",https://www.google.co.kr/maps/place/Arogyam/data=!4m5!3m4!1s0x3bbfb16400000001:0x87288accf1c3c4e3!8m2!3d15.2934647!4d73.9653715?authuser=0&hl=en&rclk=1,15.2934647,73.9653715,Goa
"Shiva Shakti Yoga Goa, India",Yoga retreat center,"Shiva Shakti Yoga, Patnem Beach,, 188/2, ITI Road Mastimal,, Canacona, Goa 403702, India","https://www.google.co.kr/maps/place/Shiva+Shakti+Yoga+Goa,+India/data=!4m5!3m4!1s0x3bbe4ee3f811c0b9:0x12193634559482ab!8m2!3d14.9962566!4d74.0344841?authuser=0&hl=en&rclk=1",14.9962566,74.0344841,Goa
corps of signals,Gym,"corps of signals ground, Navelim, Goa 403707, India",https://www.google.co.kr/maps/place/corps+of+signals/data=!4m5!3m4!1s0x3bbfb363c7426ae9:0x9aac62f819208183!8m2!3d15.2616025!4d73.9565551?authuser=0&hl=en&rclk=1,15.2616025,73.9565551,Goa
Karma Multipurpose Hall,Gym,"venkatesh Chambers, 3rd floor, near chatrapati shivaji circle, Vodlemol Cacora, Goa, India",https://www.google.co.kr/maps/place/Karma+Multipurpose+Hall/data=!4m5!3m4!1s0x3bbfadd5db05e325:0x170df5333a42c410!8m2!3d15.2578932!4d74.1098022?authuser=0&hl=en&rclk=1,15.2578932,74.1098022,Goa
OneLove Yoga Community Goa INDIA,Yoga studio,"Palolem, Canacona palolem beach, Goa 403702, India",https://www.google.co.kr/maps/place/OneLove+Yoga+Community+Goa+INDIA/data=!4m5!3m4!1s0x3bbe455188ee843f:0x6769b7941f3c1216!8m2!3d14.9974384!4d74.0351714?authuser=0&hl=en&rclk=1,14.9974384,74.0351714,Goa
railway protection force office madgao,Gym,"7X8C+G5C, Sanscar Society, Margao, Goa 403707, India",https://www.google.co.kr/maps/place/railway+protection+force+office+madgao/data=!4m5!3m4!1s0x3bbfb3c7efa314ab:0xa6121c9561b3d42!8m2!3d15.2663007!4d73.9704051?authuser=0&hl=en&rclk=1,15.2663007,73.9704051,Goa
Trimurti Yoga,Yoga studio,"Dumane Shrishtal, Behind Gaurish Restaurant, Agonda- Palolem Road, Canacona, Goa 403702, India",https://www.google.co.kr/maps/place/Trimurti+Yoga/data=!4m5!3m4!1s0x3bc2ea71115d6b9f:0xf97a9098beb21864!8m2!3d15.0326577!4d74.021294?authuser=0&hl=en&rclk=1,15.0326577,74.021294,Goa
Deep Breathe Yoga Studio,Yoga studio,"#18, 1st Floor, L&L pride building, above KFC Near KTC Bus Stand, Margao, Goa 403601, India",https://www.google.co.kr/maps/place/Deep+Breathe+Yoga+Studio/data=!4m5!3m4!1s0x3bbfb14068924e73:0x4a41842de5d968ec!8m2!3d15.2898308!4d73.9549543?authuser=0&hl=en&rclk=1,15.2898308,73.9549543,Goa
500 Hour Yoga Teacher Training in Goa,Yoga studio,"Kranti Beach Yoga Village, House No. 124, Patnem Beach , Canacona, Goa, 403702, India",https://www.google.co.kr/maps/place/500+Hour+Yoga+Teacher+Training+in+Goa/data=!4m5!3m4!1s0x3bbe455130ed919d:0xea5478183cdad35f!8m2!3d15.0133582!4d74.0221664?authuser=0&hl=en&rclk=1,15.0133582,74.0221664,Goa
old rice fields,Gym,"73R5+6QF, Macasana, Goa 403709, India",https://www.google.co.kr/maps/place/old+rice+fields/data=!4m5!3m4!1s0x3bbfadd93527ff01:0x3cf392ee7996ad52!8m2!3d15.2905617!4d74.0594338?authuser=0&hl=en&rclk=1,15.2905617,74.0594338,Goa
Villa Yoga,Yoga studio,"7WFF+V89, Sernabatim, Goa 403708, India",https://www.google.co.kr/maps/place/Villa+Yoga/data=!4m5!3m4!1s0x3bbfb41ab843f363:0xd72a2d232faeed40!8m2!3d15.2746729!4d73.9233702?authuser=0&hl=en&rclk=1,15.2746729,73.9233702,Goa
Yoga Teacher Training Goa - Mantra Yoga,Yoga studio,"Near Om Gravity Eco Resort, to, Palolem Road, near Gourish Bar & Restuarent, Agonda, Goa 403702, India",https://www.google.co.kr/maps/place/Yoga+Teacher+Training+Goa+-+Mantra+Yoga/data=!4m5!3m4!1s0x3bbe4f73f9a3d4c5:0xb6dd4149679efe2c!8m2!3d15.0328691!4d74.0214713?authuser=0&hl=en&rclk=1,15.0328691,74.0214713,Goa
Mukta Tantra Yoga - Ashramaa - India,Yoga studio,"near, Shanti Village Resort 101-B, Val Chapel, Agonda, Goa 403702, India",https://www.google.co.kr/maps/place/Mukta+Tantra+Yoga+-+Ashramaa+-+India/data=!4m5!3m4!1s0x3bbfee3155555555:0x6f05f8190b75239b!8m2!3d15.0342362!4d73.9912433?authuser=0&hl=en&rclk=1,15.0342362,73.9912433,Goa
Tapas Yoga India,Yoga studio,"HOUSE NO 3/C TAMBDEM, Agonda, Goa 403702, India",https://www.google.co.kr/maps/place/Tapas+Yoga+India/data=!4m5!3m4!1s0x3bbe4fb230564765:0x313f7aea99d6469!8m2!3d15.0381499!4d73.9897719?authuser=0&hl=en&rclk=1,15.0381499,73.9897719,Goa
Stretch Gym | South Goa,Gymnasium Cz,"The Queeny Hotel,, Queeny Nagar, Airport Road, Velsao Pale, Goa 403712, India",https://www.google.co.kr/maps/place/Stretch+Gym+%7C+South+Goa/data=!4m5!3m4!1s0x3bbfb778f6e72609:0x48df911ca92fa765!8m2!3d15.364895!4d73.890945?authuser=0&hl=en&rclk=1,15.364895,73.890945,Goa
Power House Gym,Gymnastics center,"1st cross D.D. Road, Near Hindalga Ganapati Temple, Hanuman Nagar, Hanuman Nagar, Belagavi, Karnataka 591108, India",https://www.google.co.kr/maps/place/Power+House+Gym/data=!4m5!3m4!1s0x3bbf63f9bea9f903:0x13249a89d731dbe8!8m2!3d15.8724134!4d74.4873793?authuser=0&hl=en&rclk=1,15.8724134,74.4873793,Goa
Nitrro Bespoke Fitness,Gym,"Skybay Hubtown, Skybay Hubtown, Breach Candy, Mumbai, Maharashtra 400026, India",https://www.google.co.kr/maps/place/Nitrro+Bespoke+Fitness/data=!4m5!3m4!1s0x3be7ce782670d0db:0x973a8e97fb07b569!8m2!3d18.9751027!4d72.8062174?authuser=0&hl=en&rclk=1,18.9751027,72.8062174,Maharashtra
3 Fitness India Gym,Gym,"L.B.S Marg, Opp. Pankeshah Dargah, next to Shalimar Hotel, Ghatkopar West, Mumbai, Maharashtra 400086, India",https://www.google.co.kr/maps/place/3+Fitness+India+Gym/data=!4m5!3m4!1s0x3be7c7675d5c71f3:0x29fc9b923de59278!8m2!3d19.0961396!4d72.9151486?authuser=0&hl=en&rclk=1,19.0961396,72.9151486,Maharashtra
Fitness Holic,Gym,"4, Swami Vivekananda Rd, Malad, Reserve Bank of India Staff Quarters, Raheja Twp, Jogeshwari West, Mumbai, Maharashtra 400102, India",https://www.google.co.kr/maps/place/Fitness+Holic/data=!4m5!3m4!1s0x3be7b62bc3c8fa7d:0x6d9d841a9eed6e9e!8m2!3d19.174844!4d72.848494?authuser=0&hl=en&rclk=1,19.174844,72.848494,Maharashtra
Fitness India Gym,Gym,"near Zenda Chowk, Dr.Ambedkar Nagar, Dharampeth, Nagpur, Maharashtra 440010, India",https://www.google.co.kr/maps/place/Fitness+India+Gym/data=!4m5!3m4!1s0x3bd4c17bee6b6617:0x1002689433e8cb8a!8m2!3d21.1413257!4d79.0626775?authuser=0&hl=en&rclk=1,21.1413257,79.0626775,Maharashtra
H FITNESS,Fitness center,"Floor 1,Bapu Bangla, above State Bank of India, Indira Nagar, Nashik, Maharashtra 422009, India",https://www.google.co.kr/maps/place/H+FITNESS/data=!4m5!3m4!1s0x3bddeb3d4085aff9:0x98860bc49803c59d!8m2!3d19.9735609!4d73.785847?authuser=0&hl=en&rclk=1,19.9735609,73.785847,Maharashtra
Global fitness & Gym,Gym,"Kedia Complex, Kirti Nagar, Akola, Maharashtra 444001, India",https://www.google.co.kr/maps/place/Global+fitness+%26+Gym/data=!4m5!3m4!1s0x3bd72fce0a734be7:0x79150713f9fe2367!8m2!3d20.6939864!4d77.0148334?authuser=0&hl=en&rclk=1,20.6939864,77.0148334,Maharashtra
Fitness India,Gym,"Siddi Vinayak Apartment, Plot No.1, Gajanan Mandir Rd, Khare Town, Dharampeth, Nagpur, Maharashtra 440010, India",https://www.google.co.kr/maps/place/Fitness+India/data=!4m5!3m4!1s0x3bd4c060453d531f:0x50cbe69fc6176d34!8m2!3d21.1413449!4d79.0624485?authuser=0&hl=en&rclk=1,21.1413449,79.0624485,Maharashtra
The Gym,Fitness center,"Ganga Home, Row House No.1/2, next to Bank of India, Viman Nagar, Pune, Maharashtra 411014, India",https://www.google.co.kr/maps/place/The+Gym/data=!4m5!3m4!1s0x3bc2c146c481ff81:0xc26293e10b8b3673!8m2!3d18.5646915!4d73.9164632?authuser=0&hl=en&rclk=1,18.5646915,73.9164632,Maharashtra
"PEPT Fitness Bootcamp, India",Fitness center,"A wing, First Floor Aditya Business Center ( Next to Jyoti Restaurant, N Main Rd, Kondhwa, Pune, Maharashtra 411048, India","https://www.google.co.kr/maps/place/PEPT+Fitness+Bootcamp,+India/data=!4m5!3m4!1s0x3bc2eb511244ed1b:0x5ae75f1a6a231311!8m2!3d18.4785044!4d73.8903496?authuser=0&hl=en&rclk=1",18.4785044,73.8903496,Maharashtra
MultiFit Baner,Gym,"Pride Gateway, 1st Floor, Sr. No. 112, Baner Rd, opp. Syngenta India Ltd, Pune, Maharashtra 411045, India",https://www.google.co.kr/maps/place/MultiFit+Baner/data=!4m5!3m4!1s0x3bc2beb56d52eae1:0xb8d2951049fa92c5!8m2!3d18.5658019!4d73.7712535?authuser=0&hl=en&rclk=1,18.5658019,73.7712535,Maharashtra
Cardio Fitness India Pvt. Ltd.,Physical fitness program,"1st Floor, Sai Krupa Building, Samir Chandavarkar Road, Dhanukar Wadi, Off M.G. Road, Kandivali West, Mumbai, Maharashtra 400067, India",https://www.google.co.kr/maps/place/Cardio+Fitness+India+Pvt.+Ltd./data=!4m5!3m4!1s0x3be7b6cff5571651:0xa7274633f7bf7b29!8m2!3d19.2078028!4d72.8382777?authuser=0&hl=en&rclk=1,19.2078028,72.8382777,Maharashtra
Power House Gym,Gym,"ward no, mai building gajanan nagar, 2, Arvi Rd, Wardha, Maharashtra 442001, India",https://www.google.co.kr/maps/place/Power+House+Gym/data=!4m5!3m4!1s0x3bd47f1d47eb8281:0x6b91c319c23b25!8m2!3d20.7587533!4d78.5994003?authuser=0&hl=en&rclk=1,20.7587533,78.5994003,Maharashtra
Life Fitness Gym,Gym,"P833+W96, Gandhinagar, Maharashtra 416119, India",https://www.google.co.kr/maps/place/Life+Fitness+Gym/data=!4m5!3m4!1s0x3bc10109d66349e1:0x83cdc54fe6c6149f!8m2!3d16.7047802!4d74.3033759?authuser=0&hl=en&rclk=1,16.7047802,74.3033759,Maharashtra
Raskar Gym,Gym,"JJFV+4CW, Renuka Nagar, Shrirampur, Maharashtra 413709, India",https://www.google.co.kr/maps/place/Raskar+Gym/data=!4m5!3m4!1s0x3bdc8a56f17bdb91:0x39ef555f2c0675d9!8m2!3d19.6228609!4d74.6435815?authuser=0&hl=en&rclk=1,19.6228609,74.6435815,Maharashtra
Fitness studio,Gym,"Laxmi Nagar, Amrutdham, near UNION BANK OF INDIA, Panchavati, Nashik, Maharashtra 422003, India",https://www.google.co.kr/maps/place/Fitness+studio/data=!4m5!3m4!1s0x3bddeb572178748b:0x46fa01be59b57e96!8m2!3d20.0183076!4d73.8284065?authuser=0&hl=en&rclk=1,20.0183076,73.8284065,Maharashtra
R FITNESS CENTRE with SWIMMING POOL,Fitness center,"Hotel Kalasagar Opp. State Bank Of India, Kasarwadi, Pimpri Colony, Pune, Maharashtra 411017, India",https://www.google.co.kr/maps/place/R+FITNESS+CENTRE+with+SWIMMING+POOL/data=!4m5!3m4!1s0x3bc2b88b53ec1cf5:0xd691c01cc261014f!8m2!3d18.6129!4d73.8184825?authuser=0&hl=en&rclk=1,18.6129,73.8184825,Maharashtra
"Bhosari, Pimpri-Chinchwad, Maharashtra 411039, India",Gym,"JRCX+P8P, Takalewada, Bhosari Gaonthan, Bhosari, Pimpri-Chinchwad, Maharashtra 411039, India","https://www.google.co.kr/maps/place/Bhosari,+Pimpri-Chinchwad,+Maharashtra+411039,+India/data=!4m5!3m4!1s0x3bc2c74acdacd14f:0x8a8242b43d2ae219!8m2!3d18.621827!4d73.8483143?authuser=0&hl=en&rclk=1",18.621827,73.8483143,Maharashtra
Fitbox India,Gym,"Bhosale Garden, near Savala Hari, behind Sahyadri hospital, Hadapsar, Pune, Maharashtra 411028, India",https://www.google.co.kr/maps/place/Fitbox+India/data=!4m5!3m4!1s0x3bc2c1403c5c7d8f:0x631454e99e99a2c7!8m2!3d18.5042098!4d73.9323871?authuser=0&hl=en&rclk=1,18.5042098,73.9323871,Maharashtra
RD fitness studio,Gym,"Laxmi Nagar, Amrutdham, near UNION BANK OF INDIA, Panchavati, Nashik, Maharashtra 422003, India",https://www.google.co.kr/maps/place/RD+fitness+studio/data=!4m5!3m4!1s0x3bddebf900716601:0xee58ceda4ecd9320!8m2!3d20.0183076!4d73.8284065?authuser=0&hl=en&rclk=1,20.0183076,73.8284065,Maharashtra
IFSI Academy,Gym,"IFSI Academy , 2nd Floor , Opp. Central Park, Apte Rd, near HDFC Bank, Deccan Gymkhana, Pune, Maharashtra 411004, India",https://www.google.co.kr/maps/place/IFSI+Academy/data=!4m5!3m4!1s0x3bc2c078fedf5411:0xf846483642394fd4!8m2!3d18.5204276!4d73.8446199?authuser=0&hl=en&rclk=1,18.5204276,73.8446199,Maharashtra
Winsome Fitness Centre,Gym,"Ambika Nagar, Behind Sudit Hotel, Jalochi, Ring Road, Baramati, Maharashtra 413102, India",https://www.google.co.kr/maps/place/Winsome+Fitness+Centre/data=!4m5!3m4!1s0x3bc3a01ee50c72c3:0x3784a1b050a6be5e!8m2!3d18.1569931!4d74.5893393?authuser=0&hl=en&rclk=1,18.1569931,74.5893393,Maharashtra
Fitness Pros India,Fitness center,"Shop no 18 shah alpine plot no, near allahabad bank branch navi, Sector 6, Mumbai, Maharashtra 410210, India",https://www.google.co.kr/maps/place/Fitness+Pros+India/data=!4m5!3m4!1s0x3be7c1d458be329f:0x9bd6d3678df0897f!8m2!3d19.0630231!4d73.0700421?authuser=0&hl=en&rclk=1,19.0630231,73.0700421,Maharashtra
Maharashtra Gym,Gymnastics center,"PCMC Link Rd, Bhat Nagar, Pimpri Colony, Pimpri-Chinchwad, Maharashtra 411017, India",https://www.google.co.kr/maps/place/Maharashtra+Gym/data=!4m5!3m4!1s0x3bc2b852f356ce55:0xe16fde6af00fbde0!8m2!3d18.6268391!4d73.7973985?authuser=0&hl=en&rclk=1,18.6268391,73.7973985,Maharashtra
Orangetheory Fitness Kemps Corner,Gym,"Unit 3A, 3rd Floor, Turquoise Building, Kemps Corner, Malabar Hill, Mumbai, Maharashtra 400036, India",https://www.google.co.kr/maps/place/Orangetheory+Fitness+Kemps+Corner/data=!4m5!3m4!1s0x3be7cf5aef72e8ef:0x9c4035cfa03ed67f!8m2!3d18.9641452!4d72.8062565?authuser=0&hl=en&rclk=1,18.9641452,72.8062565,Maharashtra
GYM PLANET,Gym,"Sms Arcade, 3rd floor, above SATISH MOTORS, near SEVEN HILLS FLY OVER, Aurangabad, Maharashtra 431001, India",https://www.google.co.kr/maps/place/GYM+PLANET/data=!4m5!3m4!1s0x3bdba29c120d78dd:0xf96aacc8bed901fe!8m2!3d19.8746779!4d75.3526501?authuser=0&hl=en&rclk=1,19.8746779,75.3526501,Maharashtra
Sheetal fitness zone,Fitness center,"RVRR+XWW, Mastgarh, Laxminarayanpura, Jalna, Maharashtra 431213, India",https://www.google.co.kr/maps/place/Sheetal+fitness+zone/data=!4m5!3m4!1s0x3bda5789ec1c43dd:0xa786feafd31d6b00!8m2!3d19.8424812!4d75.8923162?authuser=0&hl=en&rclk=1,19.8424812,75.8923162,Maharashtra
Thorat fitness works,Gym,"Ichalkaranji Sangli Road, Vrindavan Colony, Asara Nagar, Ichalkaranji, Maharashtra 416121, India",https://www.google.co.kr/maps/place/Thorat+fitness+works/data=!4m5!3m4!1s0x3bc11d86b48f4e0b:0x89a7fdaf1e79feb8!8m2!3d16.7047481!4d74.4778499?authuser=0&hl=en&rclk=1,16.7047481,74.4778499,Maharashtra
THE GOAL GYM INDIA,Gym,"Prashant Nagar, Pathardi Phata, Nashik, Maharashtra 422010, India",https://www.google.co.kr/maps/place/THE+GOAL+GYM+INDIA/data=!4m5!3m4!1s0x3bddeb6b5ef43245:0xc13860a29b8c8a72!8m2!3d19.9552548!4d73.7600472?authuser=0&hl=en&rclk=1,19.9552548,73.7600472,Maharashtra
World's Gym,Gym,"Sai Prasad, Telengpura, Indira Market Rd, behind Axis Bank, Wardha, Maharashtra 442001, India",https://www.google.co.kr/maps/place/World's+Gym/data=!4m5!3m4!1s0x3bd47f125e692899:0x6b63f99a932ba1c2!8m2!3d20.7398403!4d78.5986081?authuser=0&hl=en&rclk=1,20.7398403,78.5986081,Maharashtra
The Tribe India Fitness,Physical fitness program,"Soni House, 2nd Floor, CD Barfiwala Road, JVPD Scheme, Juhu, Mumbai, Maharashtra 400047, India",https://www.google.co.kr/maps/place/The+Tribe+India+Fitness/data=!4m5!3m4!1s0x3be7c9db4f52fe69:0x9e188c144fce4755!8m2!3d19.1162584!4d72.8348776?authuser=0&hl=en&rclk=1,19.1162584,72.8348776,Maharashtra
Hi-Tech Gym and Fitness center,Gym,"Jamkar Complex, Parbhani - Jintur Rd, Prabhavati Nagar, Parbhani, Maharashtra 431401, India",https://www.google.co.kr/maps/place/Hi-Tech+Gym+and+Fitness+center/data=!4m5!3m4!1s0x3bd01922def0560d:0xc5783f525106a052!8m2!3d19.2732542!4d76.7614468?authuser=0&hl=en&rclk=1,19.2732542,76.7614468,Maharashtra
Naigaonkar Fitness Zone,Gym,"Barshi-Osmanabad Rd, Tambari Vibhag, Osmanabad, Maharashtra 413501, India",https://www.google.co.kr/maps/place/Naigaonkar+Fitness+Zone/data=!4m5!3m4!1s0x3bc5a3d0419f857d:0x6066e0b84e51fa30!8m2!3d18.1861187!4d76.0292458?authuser=0&hl=en&rclk=1,18.1861187,76.0292458,Maharashtra
48 Fitness,Fitness center,"3rd Floor, Crystal Point Mall, Link Road, Andheri West, Mumbai, Maharashtra 400053, India",https://www.google.co.kr/maps/place/48+Fitness/data=!4m5!3m4!1s0x3be7b6219ec318db:0xf52c42f45d0dafd8!8m2!3d19.1308742!4d72.8309171?authuser=0&hl=en&rclk=1,19.1308742,72.8309171,Maharashtra
Black box fitness,Gym,"gala no 27, nav nandanvan industrial estate, off pk road,, mulund (west), near State Bank Of India, Mumbai, Maharashtra 400080, India",https://www.google.co.kr/maps/place/Black+box+fitness/data=!4m5!3m4!1s0x3be7b8585459b887:0x3d36cde568a2a5da!8m2!3d19.1691617!4d72.9432961?authuser=0&hl=en&rclk=1,19.1691617,72.9432961,Maharashtra
Indian gym,Gym,"Indian gym, Paloji Mohallah, Peth Map, Chiplun, Maharashtra 415605, India",https://www.google.co.kr/maps/place/Indian+gym/data=!4m5!3m4!1s0x3bc2087ef5eee325:0xf859a9ea8ef1fb0d!8m2!3d17.5384168!4d73.5092543?authuser=0&hl=en&rclk=1,17.5384168,73.5092543,Maharashtra
Vicky's Gym & Fitness Center,Gym,"2nd Floor SBI Bank, Vishnupuri, opp. SGGS College, Nanded, Maharashtra, India",https://www.google.co.kr/maps/place/Vicky's+Gym+%26+Fitness+Center/data=!4m5!3m4!1s0x3bce29f9ff09e5d7:0xdf9679c0980c2ba7!8m2!3d19.1130775!4d77.2921168?authuser=0&hl=en&rclk=1,19.1130775,77.2921168,Maharashtra
Skyhealth Fitness (India) Private Limited,Physical fitness program,"Sno 26 2nd Hingane Khurd, Near Ajinkya Nagar, Sinhagad Road, Hingane Khurd, Pune, Maharashtra 411038, India",https://www.google.co.kr/maps/place/Skyhealth+Fitness+(India)+Private+Limited/data=!4m5!3m4!1s0x3bc29558cd0c32df:0x58ee378410e597c8!8m2!3d18.4792128!4d73.831099?authuser=0&hl=en&rclk=1,18.4792128,73.831099,Maharashtra
India fit gym,Gym,"Near by sg traders / light office katewadi tel Baramati, dist, Katewadi, Maharashtra 413102, India",https://www.google.co.kr/maps/place/India+fit+gym/data=!4m5!3m4!1s0x3bc39f5679ce4d29:0x6c3e522dd4cbc1d8!8m2!3d18.125026!4d74.6547467?authuser=0&hl=en&rclk=1,18.125026,74.6547467,Maharashtra
IBBFF,Gym,"V9G8+RPC, Sambhaji Nagar, N 1, Cidco, Aurangabad, Maharashtra 431006, India",https://www.google.co.kr/maps/place/IBBFF/data=!4m5!3m4!1s0x3bdba311d9bc103f:0x17ef44cb2384a259!8m2!3d19.8770703!4d75.3667808?authuser=0&hl=en&rclk=1,19.8770703,75.3667808,Maharashtra
Jerai Fitness Gym,Gym,"Balkrishna Bungalow, Gate no. 2, Behind D'mart, New Link Road, Kandarpada, Dahisar West, Kandarpada Rd, Kandarpada, Dahisar West, Mumbai, Maharashtra 400068, India",https://www.google.co.kr/maps/place/Jerai+Fitness+Gym/data=!4m5!3m4!1s0x3be7b102bc336533:0x6043c771e62dcd67!8m2!3d19.25708!4d72.8503205?authuser=0&hl=en&rclk=1,19.25708,72.8503205,Maharashtra
Matoshri Gym,Gym,"Rane Nagar Rd, Near Rajiv Nagar, Kishor Nagar, Nashik, Maharashtra 422009, India",https://www.google.co.kr/maps/place/Matoshri+Gym/data=!4m5!3m4!1s0x3bddeb39c7593e71:0xb5561e790988fdc3!8m2!3d19.9666089!4d73.775301?authuser=0&hl=en&rclk=1,19.9666089,73.775301,Maharashtra
FRIENDS GYM,Gymnastics center,"30/3, Kat kat Gate, Road, Hudco, Aurangabad, Maharashtra 431001, India",https://www.google.co.kr/maps/place/FRIENDS+GYM/data=!4m5!3m4!1s0x3bdba2a56dae63c5:0xef4103674b21c1af!8m2!3d19.894763!4d75.350847?authuser=0&hl=en&rclk=1,19.894763,75.350847,Maharashtra
The Body Factory Gym,Gym,"Beed - Solapur Rd, Mahatma Gandhi Nagar, Galib Nagar, Osmanabad, Maharashtra 413501, India",https://www.google.co.kr/maps/place/The+Body+Factory+Gym/data=!4m5!3m4!1s0x3bc5a113bbe33c35:0x7c99b5ef6cc21c08!8m2!3d18.2043768!4d76.0407889?authuser=0&hl=en&rclk=1,18.2043768,76.0407889,Maharashtra
Sky Fitness Gym By Aakash Pane,Gym,"Saraswati colony near girivihar gate, Korit Rd, Nandurbar, Maharashtra 425412, India",https://www.google.co.kr/maps/place/Sky+Fitness+Gym+By+Aakash+Pane/data=!4m5!3m4!1s0x3bdf09a64c513399:0x920675e70495f3d!8m2!3d21.3789131!4d74.2423056?authuser=0&hl=en&rclk=1,21.3789131,74.2423056,Maharashtra
Marvel Fitness Gym,Gym,"Old MIDC Rd, Vishal Nagar (East), Deep Jyoti Nagar, Latur, Maharashtra 413531, India",https://www.google.co.kr/maps/place/Marvel+Fitness+Gym/data=!4m5!3m4!1s0x3bcf8354ea76333b:0x67c626df7aa705c3!8m2!3d18.4088946!4d76.5623799?authuser=0&hl=en&rclk=1,18.4088946,76.5623799,Maharashtra
Beast House The Gym,Gym,"Lukhi Empire Building dahisar,Opp to Dahisar police station Near Bank Of India dahisar, Swami Vivekananda Marg, Dahisar East, Dahisar, Maharashtra 400068, India",https://www.google.co.kr/maps/place/Beast+House+The+Gym/data=!4m5!3m4!1s0x3be7b15dbc6f5e13:0x8d2eac0a5f35b164!8m2!3d19.2530726!4d72.8652267?authuser=0&hl=en&rclk=1,19.2530726,72.8652267,Maharashtra
AMF Gyms,Fitness center,"Near Pratap Nagar smashan Bhumi, behind peace point residency, Aurangabad, Maharashtra 431005, India",https://www.google.co.kr/maps/place/AMF+Gyms/data=!4m5!3m4!1s0x3bdb99264e6c284b:0x51efa697bfa4a92!8m2!3d19.8565299!4d75.3276679?authuser=0&hl=en&rclk=1,19.8565299,75.3276679,Maharashtra
kk gym,Gym,"Kacheri Rd, Sane Nagar, Amalner, Maharashtra 425401, India",https://www.google.co.kr/maps/place/kk+gym/data=!4m5!3m4!1s0x3bd92c2b20d75225:0xf93024e56b5bca01!8m2!3d21.0459461!4d75.0580333?authuser=0&hl=en&rclk=1,21.0459461,75.0580333,Maharashtra
G9 Fitness,Gym,"Old Ct Ln, near Narsinha mandir, Sinnar, Maharashtra 422103, India",https://www.google.co.kr/maps/place/G9+Fitness/data=!4m5!3m4!1s0x3bddbb0f22ea1763:0x5e83ab4a85af21bf!8m2!3d19.843779!4d73.9985959?authuser=0&hl=en&rclk=1,19.843779,73.9985959,Maharashtra
RESET Bandra,Gym,"KC Marg, Reclamation, Bandra West, Mumbai, Maharashtra 400050, India",https://www.google.co.kr/maps/place/RESET+Bandra/data=!4m5!3m4!1s0x3be7c93932f83281:0xcb2d43163dc65ff7!8m2!3d19.0515529!4d72.8327674?authuser=0&hl=en&rclk=1,19.0515529,72.8327674,Maharashtra
Total Fitness,Gym,"1st Floor, Plot No:-5, G No:, 11, Paithan Rd, opp. Shanti Nursing home, Kanchanwadi, Aurangabad, Maharashtra 431136, India",https://www.google.co.kr/maps/place/Total+Fitness/data=!4m5!3m4!1s0x3bdb9972bfb91f97:0x68340416d7a7e23f!8m2!3d19.832775!4d75.2902729?authuser=0&hl=en&rclk=1,19.832775,75.2902729,Maharashtra
Yuvraj Fitness,Gym,"Ajabnagar, Aurangabad, Maharashtra 431001, India",https://www.google.co.kr/maps/place/Yuvraj+Fitness/data=!4m5!3m4!1s0x3bdb9991568aa4f9:0xab275c3e5099bdd0!8m2!3d19.8762677!4d75.3307786?authuser=0&hl=en&rclk=1,19.8762677,75.3307786,Maharashtra
BODYPRO GYM NANDED,Fitness center,"Ganesh Nagar Rd, Yeshwant Nagar, Nagsen Nagar, Nanded, Maharashtra 431602, India",https://www.google.co.kr/maps/place/BODYPRO+GYM+NANDED/data=!4m5!3m4!1s0x3bd1d73f95c9585d:0x9b05cc0b04799181!8m2!3d19.1709818!4d77.2958859?authuser=0&hl=en&rclk=1,19.1709818,77.2958859,Maharashtra
FITNESS POINT Aerobics Center Bhatt Colony Hingoli,Gym,"Bhatt Colony, Siddharth Nagar, Hingoli, Maharashtra 431513, India",https://www.google.co.kr/maps/place/FITNESS+POINT+Aerobics+Center+Bhatt+Colony+Hingoli/data=!4m5!3m4!1s0x3bd05254c4281711:0x3c7b7c3e338a93d!8m2!3d19.7204083!4d77.144565?authuser=0&hl=en&rclk=1,19.7204083,77.144565,Maharashtra
Body Sculptor Juhu,Gym,"Aashiyana Apartment, N S Rd Number 13, Chand Society, JVPD Scheme, Juhu, Mumbai, Maharashtra 400049, India",https://www.google.co.kr/maps/place/Body+Sculptor+Juhu/data=!4m5!3m4!1s0x3be7c9e9dc2bffff:0xfe3244b2d484d46f!8m2!3d19.1106721!4d72.8275226?authuser=0&hl=en&rclk=1,19.1106721,72.8275226,Maharashtra
KYROS FITNESS,Gym,"Diwanji mangal karyale, Sawe Wadi, Latur, Maharashtra 413531, India",https://www.google.co.kr/maps/place/KYROS+FITNESS/data=!4m5!3m4!1s0x3bcf839d6b5aaf95:0x3eb029b4a95170a9!8m2!3d18.4022844!4d76.5729441?authuser=0&hl=en&rclk=1,18.4022844,76.5729441,Maharashtra
Shera Gym,Gym,"2RJ3+C6M, Renuka Mata Nagar, Bhusawal, Maharashtra 425201, India",https://www.google.co.kr/maps/place/Shera+Gym/data=!4m5!3m4!1s0x3bd9a676e20aa9d7:0x7ea509b7dcb8a5de!8m2!3d21.0310802!4d75.8030555?authuser=0&hl=en&rclk=1,21.0310802,75.8030555,Maharashtra
Ojhar Fitness Zone,Gym,"Ojhar Fitness Zone, Bhagwati Shopping Center, near R.K. Memorial Hospital, mig, Ojhar, Maharashtra, India",https://www.google.co.kr/maps/place/Ojhar+Fitness+Zone/data=!4m5!3m4!1s0x3bddc384d66cca4b:0xefcce8a763bdac41!8m2!3d20.0975015!4d73.924543?authuser=0&hl=en&rclk=1,20.0975015,73.924543,Maharashtra
Mozzam gym,Gym,"Gandhi Market, Sawe Wadi, Latur, Maharashtra 413531, India",https://www.google.co.kr/maps/place/Mozzam+gym/data=!4m5!3m4!1s0x3bcf83fe2cb98739:0xc165520b6e5d175b!8m2!3d18.4003567!4d76.5784745?authuser=0&hl=en&rclk=1,18.4003567,76.5784745,Maharashtra
Miracle fitness point,Gym,"Baliram Patil School Rd, Hudco, Ayodhya Nagar, N 9, Cidco, Aurangabad, Maharashtra 431003, India",https://www.google.co.kr/maps/place/Miracle+fitness+point/data=!4m5!3m4!1s0x3bdba33c88cb9c75:0x73c8f079f57bb46f!8m2!3d19.8963456!4d75.3588218?authuser=0&hl=en&rclk=1,19.8963456,75.3588218,Maharashtra
Fitness 5,Gym,"Fitness-5 C/o. "" Siddhi Vinayak Health Care 148/35, Laxmi Vijay Premises, New Link Rd, Laxmi Industrial Estate, Andheri (W, Mumbai, Maharashtra 400053, India",https://www.google.co.kr/maps/place/Fitness+5/data=!4m5!3m4!1s0x3be7b7afdc752001:0x7ea52bd9b9239b6c!8m2!3d19.1358955!4d72.827638?authuser=0&hl=en&rclk=1,19.1358955,72.827638,Maharashtra
GYMPAC FITNESS SYSTEMS PRIVATE LIMITED - LIFEFITNESS INDIA(AUTHORISED PARTNER FOR LIFEFITNESS HAMMER STRENGTH GYM EQUIPMENT IN INDIA),Gym,"STAR Hub, Unit no 203 2nd Floor, Sahar Airport Rd, Andheri East, Mumbai, Maharashtra 400099, India",https://www.google.co.kr/maps/place/GYMPAC+FITNESS+SYSTEMS+PRIVATE+LIMITED+-+LIFEFITNESS+INDIA(AUTHORISED+PARTNER+FOR+LIFEFITNESS+HAMMER+STRENGTH+GYM+EQUIPMENT+IN+INDIA)/data=!4m5!3m4!1s0x3be7c84747e3272b:0x53e1a21e8a7369fd!8m2!3d19.1058919!4d72.8685755?authuser=0&hl=en&rclk=1,19.1058919,72.8685755,Maharashtra
Core Perfect Fitness,Gym,"A1, Kothari Compound, 5 Acers, Manpada, Thane West, Thane, Maharashtra 400610, India",https://www.google.co.kr/maps/place/Core+Perfect+Fitness/data=!4m5!3m4!1s0x3be7bb29a6d47f39:0xbcd2c6f2e69d3c4e!8m2!3d19.236611!4d72.9727907?authuser=0&hl=en&rclk=1,19.236611,72.9727907,Maharashtra
Manjri green fitness centre,Gym,"GX37+6H7, Hadapsar, Pune, Maharashtra 412307, India",https://www.google.co.kr/maps/place/Manjri+green+fitness+centre/data=!4m5!3m4!1s0x3bc2c2723f8bc35f:0xf5ac939b168c49d4!8m2!3d18.5030343!4d73.9639179?authuser=0&hl=en&rclk=1,18.5030343,73.9639179,Maharashtra
AB Fitness Zone,Gym,"8F4W+CPM, Manwath, Maharashtra 431505, India",https://www.google.co.kr/maps/place/AB+Fitness+Zone/data=!4m5!3m4!1s0x3bd009abffffffff:0x2789bd5607fb4bff!8m2!3d19.3060901!4d76.4967919?authuser=0&hl=en&rclk=1,19.3060901,76.4967919,Maharashtra
Vikram's House,Gym,"96P7+G3F, Dadegaon, Maharashtra 414502, India",https://www.google.co.kr/maps/place/Vikram's+House/data=!4m5!3m4!1s0x3bdb69ba5a9990fd:0x98f65403335d3e94!8m2!3d19.3863158!4d75.2126608?authuser=0&hl=en&rclk=1,19.3863158,75.2126608,Maharashtra
Indian Fitness,Gym,"Shanti Nagar Main Rd, Zoppal Pati, Shantinagar Colony, Nagpur, Maharashtra 440002, India",https://www.google.co.kr/maps/place/Indian+Fitness/data=!4m5!3m4!1s0x3bd4c737d29ab5b1:0x25e73e398dc9d493!8m2!3d21.1639951!4d79.1274542?authuser=0&hl=en&rclk=1,21.1639951,79.1274542,Maharashtra
Fitness Zone Gym For Weight Loss- Gym in Cidco Aurangabad,Gym,"134 suvidh app, 431003, N 3, Cidco, Aurangabad, Maharashtra 431009, India",https://www.google.co.kr/maps/place/Fitness+Zone+Gym+For+Weight+Loss-+Gym+in+Cidco+Aurangabad/data=!4m5!3m4!1s0x3bdba28dcbd7ad39:0x247f5ed49c460d6e!8m2!3d19.8709661!4d75.3599483?authuser=0&hl=en&rclk=1,19.8709661,75.3599483,Maharashtra
Focus Fitness,Gym,"behind post office, Borgaon, Manjidana Colony, Nagpur, Maharashtra 440013, India",https://www.google.co.kr/maps/place/Focus+Fitness/data=!4m5!3m4!1s0x3bd4c1a93a3cdcf3:0x9235fc88fced727!8m2!3d21.1798987!4d79.0549501?authuser=0&hl=en&rclk=1,21.1798987,79.0549501,Maharashtra
Body Sculptor,Gym,"202, Fortune Classic, 15th Road, Above Madhubhan Toyota, Khar (West), Mumbai, Maharashtra 400052, India",https://www.google.co.kr/maps/place/Body+Sculptor/data=!4m5!3m4!1s0x3be7c90c48a8f20b:0x11c68e1f1c75c707!8m2!3d19.072936!4d72.832107?authuser=0&hl=en&rclk=1,19.072936,72.832107,Maharashtra
Cult BKC,Fitness center,"Bandra Kurla Complex, G-1,, Ground Floor, North Avenue, Maker Maxity Bandra (East),, Mumbai, Maharashtra 400051, India",https://www.google.co.kr/maps/place/Cult+BKC/data=!4m5!3m4!1s0x3be7c920b7e86df5:0xf3daa767d5465164!8m2!3d19.054385!4d72.850132?authuser=0&hl=en&rclk=1,19.054385,72.850132,Maharashtra
Why Not Fitness,Fitness center,"Laxmi Business Park, 228-233, 2nd Floor, Laxmi Industrial Estate, New Link Rd, Andheri West, Mumbai, Maharashtra 400053, India",https://www.google.co.kr/maps/place/Why+Not+Fitness/data=!4m5!3m4!1s0x3be7b7239697a9ab:0x458b3e584dc5c649!8m2!3d19.1362551!4d72.8307665?authuser=0&hl=en&rclk=1,19.1362551,72.8307665,Maharashtra
The Lift Factory Gym,Gym,"Pendse Nagar, Dombivli East, Dombivli, Maharashtra 421201, India",https://www.google.co.kr/maps/place/The+Lift+Factory+Gym/data=!4m5!3m4!1s0x3be79529a08c39ff:0xbc63c84ffb1beccc!8m2!3d19.2188759!4d73.0947621?authuser=0&hl=en&rclk=1,19.2188759,73.0947621,Maharashtra
Sharayu Fitness,Fitness center,"Tarangan complex, Tal Haveli, Tulapur, Maharashtra 412216, India",https://www.google.co.kr/maps/place/Sharayu+Fitness/data=!4m5!3m4!1s0x3bc2c54cc574f05f:0x2fd6db11c5b1d2fd!8m2!3d18.6690792!4d73.9949339?authuser=0&hl=en&rclk=1,18.6690792,73.9949339,Maharashtra
Gurukrupa Gym,Gym,"3QVQ+852, Ahmednagar, Maharashtra 414002, India",https://www.google.co.kr/maps/place/Gurukrupa+Gym/data=!4m5!3m4!1s0x3bdcaf8106b0385f:0xeae7ab8de74ebe76!8m2!3d19.0932505!4d74.7879049?authuser=0&hl=en&rclk=1,19.0932505,74.7879049,Maharashtra
Atharva's Fitness World,Gym,"Pavan medical lane, Rathi Nagar, near Isckon Temple, Maharashtra 444603, India",https://www.google.co.kr/maps/place/Atharva's+Fitness+World/data=!4m5!3m4!1s0x3bd6a3f0240f5445:0x61f55810bc0ed05b!8m2!3d20.9532317!4d77.7660791?authuser=0&hl=en&rclk=1,20.9532317,77.7660791,Maharashtra
Barbarian Power Gym,Gym,"opp. Delhi Gate Road, Aalamgir Colony, Collector Office Campus, Aurangabad, Maharashtra 431001, India",https://www.google.co.kr/maps/place/Barbarian+Power+Gym/data=!4m5!3m4!1s0x3bdb9806535e7611:0x16fb03c1ecb2e2fe!8m2!3d19.8972809!4d75.3380273?authuser=0&hl=en&rclk=1,19.8972809,75.3380273,Maharashtra
V FITNESS,Gym,"choupad Sonavane Vada, 633, South Kasba, Budhavar Peth, Solapur, Maharashtra 413007, India",https://www.google.co.kr/maps/place/V+FITNESS/data=!4m5!3m4!1s0x3bc5db435c6e4397:0x2ec9a02107b2960e!8m2!3d17.6775296!4d75.901932?authuser=0&hl=en&rclk=1,17.6775296,75.901932,Maharashtra
MultiFit Kalyani Nagar,Gym,"Gold Adlabs Mariplex Mall, 4th Floor, Kalyani Nagar, Pune, Maharashtra 411014, India",https://www.google.co.kr/maps/place/MultiFit+Kalyani+Nagar/data=!4m5!3m4!1s0x3bc2c10dff51cd3f:0x56e2f234218b26cb!8m2!3d18.54557!4d73.9063292?authuser=0&hl=en&rclk=1,18.54557,73.9063292,Maharashtra
Malhar Fitness Gym,Gym,"JVVF+J2R, Alibag, Maharashtra 402201, India",https://www.google.co.kr/maps/place/Malhar+Fitness+Gym/data=!4m5!3m4!1s0x3be87a41a6958fbd:0xeac7eb9a44bb172!8m2!3d18.644122!4d72.8725091?authuser=0&hl=en&rclk=1,18.644122,72.8725091,Maharashtra
Fitness-Hub,Gym,"Papu Society, 724, room no-7, Press Bazar, Ulhasnagar, Maharashtra 421003, India",https://www.google.co.kr/maps/place/Fitness-Hub/data=!4m5!3m4!1s0x3be794132ea84fa7:0x47111b785bd1fbcf!8m2!3d19.227875!4d73.1670071?authuser=0&hl=en&rclk=1,19.227875,73.1670071,Maharashtra
Swaraj Fitness Center,Gym,"Kedgaon, Ahmednagar, Maharashtra 414005, India",https://www.google.co.kr/maps/place/Swaraj+Fitness+Center/data=!4m5!3m4!1s0x3bdcb0df83b834cf:0x820f44e020a3fe06!8m2!3d19.0673805!4d74.7117916?authuser=0&hl=en&rclk=1,19.0673805,74.7117916,Maharashtra
The Pilates and Altitude Training Studio,Pilates studio,"303/304 Business Plaza Gazdar Bandh Road, SB Patil Rd, Potohar Nagar, Santacruz West, Mumbai, Maharashtra 400054, India",https://www.google.co.kr/maps/place/The+Pilates+and+Altitude+Training+Studio/data=!4m5!3m4!1s0x3be7c90abdf99ce7:0x14f4c316fdbb4868!8m2!3d19.0794065!4d72.8294166?authuser=0&hl=en&rclk=1,19.0794065,72.8294166,Maharashtra
Vivek Fitness Center & Health Clinic,Gym,"Bhagyalakshmi Nagar, Parbhani, Maharashtra 431401, India",https://www.google.co.kr/maps/place/Vivek+Fitness+Center+%26+Health+Clinic/data=!4m5!3m4!1s0x3bd018482bfe1c81:0x46bf5b017f20d2a6!8m2!3d19.2515812!4d76.7888359?authuser=0&hl=en&rclk=1,19.2515812,76.7888359,Maharashtra
Rudram Fitness,Gym,"Gala no.2, ground floor, kazim manjil A prem nagar, no 7, Saki Vihar Rd, opposite L & T Gate, Tunga Village, Powai, Mumbai, Maharashtra 400072, India",https://www.google.co.kr/maps/place/Rudram+Fitness/data=!4m5!3m4!1s0x3be7c981eba3a69d:0x8833ec144d5eea4c!8m2!3d19.121104!4d72.8897911?authuser=0&hl=en&rclk=1,19.121104,72.8897911,Maharashtra
Focus Fitness,Gym,"Shrikant, Unit TK-L & TK-KA, Shrikanth Hadkar Marg, behind Vishwavihar Restaurant, Cotton Green, Mumbai, Maharashtra 400033, India",https://www.google.co.kr/maps/place/Focus+Fitness/data=!4m5!3m4!1s0x3be7cefd87a679a5:0x3926654bcba5738d!8m2!3d18.988232!4d72.8444759?authuser=0&hl=en&rclk=1,18.988232,72.8444759,Maharashtra
Talwalkars Adalat Road,Gym,"3rd Floor, Pagariya Tower, Hotel Aurangabad Ashoka Compound, Adalat Road, Jalna Road, Aurangabad, Maharashtra 431001, India",https://www.google.co.kr/maps/place/Talwalkars+Adalat+Road/data=!4m5!3m4!1s0x3bdb9868c8ed4349:0x475d3b051c462cb5!8m2!3d19.8733205!4d75.3198899?authuser=0&hl=en&rclk=1,19.8733205,75.3198899,Maharashtra
Sk fitness,Gym,"Icon Plaza, Signal 9, Datta Mandir Rd, near Shivdham Mandir, Nashik Road, Nashik, Maharashtra 422214, India",https://www.google.co.kr/maps/place/Sk+fitness/data=!4m5!3m4!1s0x3bdd95fe6f4841ad:0x4fff34bec90c978a!8m2!3d19.955252!4d73.834373?authuser=0&hl=en&rclk=1,19.955252,73.834373,Maharashtra
Aarya Fitness gym,Gym,"R8M2+P58, Kanchanwadi, Aurangabad, Maharashtra 431136, India",https://www.google.co.kr/maps/place/Aarya+Fitness+gym/data=!4m5!3m4!1s0x3bdb98e752c4211b:0x1a3413ab74260ad6!8m2!3d19.8342955!4d75.3004626?authuser=0&hl=en&rclk=1,19.8342955,75.3004626,Maharashtra
Raut Gym,Gym,"Gopikishan Nagar, Gyatri Nagar, Jalna, Maharashtra 431203, India",https://www.google.co.kr/maps/place/Raut+Gym/data=!4m5!3m4!1s0x3bda5750cc83a0b5:0x5ca8461aa4dc6647!8m2!3d19.8492855!4d75.8939114?authuser=0&hl=en&rclk=1,19.8492855,75.8939114,Maharashtra
Nitrro Bespoke Fitness,Gym,"Supreme Business Park, 10th Floor B-Wing, Hiranandani Gardens, Powai, Mumbai, Maharashtra 400076, India",https://www.google.co.kr/maps/place/Nitrro+Bespoke+Fitness/data=!4m5!3m4!1s0x3be7c73fe13d5c0b:0xa9d14159f7f0b59c!8m2!3d19.1115032!4d72.9088475?authuser=0&hl=en&rclk=1,19.1115032,72.9088475,Maharashtra
Vickys Fitness Factory,Gym,"Boisar Rd, Gothan Pura, Palghar, Maharashtra 401404, India",https://www.google.co.kr/maps/place/Vickys+Fitness+Factory/data=!4m5!3m4!1s0x3be71cfac7f091a1:0xae3a21a6ff0f6910!8m2!3d19.7077802!4d72.767314?authuser=0&hl=en&rclk=1,19.7077802,72.767314,Maharashtra
Avishkar Body Care & Gym,Gym,"RVWV+PV5, Rahman Ganj, Jalna, Maharashtra 431203, India",https://www.google.co.kr/maps/place/Avishkar+Body+Care+%26+Gym/data=!4m5!3m4!1s0x3bda5759f005ba77:0xac8bdc55572b6f84!8m2!3d19.8467601!4d75.8947483?authuser=0&hl=en&rclk=1,19.8467601,75.8947483,Maharashtra
Move with V,Fitness center,"Vision Galaxy, Above Ahmednagar Merchant Bank, Nashik - Pune Hwy, opposite Jai Hind HAll, Narayangaon, Maharashtra 410504, India",https://www.google.co.kr/maps/place/Move+with+V/data=!4m5!3m4!1s0x3bdd23130bd949c1:0x93a84c488c89c2f1!8m2!3d19.1479762!4d74.0312121?authuser=0&hl=en&rclk=1,19.1479762,74.0312121,Maharashtra
Evolution Fitness & Combat Sports Academy,Gym,"Bandra Physical Culture Association St Martin's Road, Bandra West, Mumbai, Maharashtra 400050, India",https://www.google.co.kr/maps/place/Evolution+Fitness+%26+Combat+Sports+Academy/data=!4m5!3m4!1s0x3be7c912f06d5951:0xbe7ddf2d72694342!8m2!3d19.0582805!4d72.835532?authuser=0&hl=en&rclk=1,19.0582805,72.835532,Maharashtra
Fit with Swapnali Jambe,Physical fitness program,"Professor chowk, Savedi, Ahmednagar, Maharashtra 414001, India",https://www.google.co.kr/maps/place/Fit+with+Swapnali+Jambe/data=!4m5!3m4!1s0x3bdcbb2631389cbd:0x796c4b883e79595c!8m2!3d19.1184577!4d74.7330597?authuser=0&hl=en&rclk=1,19.1184577,74.7330597,Maharashtra
Rain Fitness,Gym,"Plot no.18, rajani kamal park 1, opp. Anand aashram school, Palghar West, Palghar, Maharashtra 401404, India",https://www.google.co.kr/maps/place/Rain+Fitness/data=!4m5!3m4!1s0x3be71ddf1e393fd1:0x8804451920dcec4e!8m2!3d19.6916549!4d72.7711311?authuser=0&hl=en&rclk=1,19.6916549,72.7711311,Maharashtra
Power House Gym,Gym,"224,Kavijung nagar, Gulmohar Rd, Savedi, Ahmednagar, Maharashtra 414003, India",https://www.google.co.kr/maps/place/Power+House+Gym/data=!4m5!3m4!1s0x3bdcbb2f116407f5:0x6682d57e356e80ae!8m2!3d19.1195264!4d74.7492479?authuser=0&hl=en&rclk=1,19.1195264,74.7492479,Maharashtra
Run India Run Marathon and Fitness Training Center,Physical fitness program,"Orchard Residence Rd, Amrut Nagar, Ghatkopar West, Mumbai, Maharashtra 400086, India",https://www.google.co.kr/maps/place/Run+India+Run+Marathon+and+Fitness+Training+Center/data=!4m5!3m4!1s0x3be7c7c8a2fc516f:0x425600706f1c35f2!8m2!3d19.099828!4d72.9178285?authuser=0&hl=en&rclk=1,19.099828,72.9178285,Maharashtra
Health Gym,Gym,"B2, Katrap Rd, Belavali, Badlapur, Maharashtra 421503, India",https://www.google.co.kr/maps/place/Health+Gym/data=!4m5!3m4!1s0x3be792d6ef6c207d:0x11e4b73a64b7f403!8m2!3d19.1724867!4d73.2332876?authuser=0&hl=en&rclk=1,19.1724867,73.2332876,Maharashtra
Integrated fitness and Sports Institute - Nashik Branch,Physical fitness program,"Euphoria Fitness Club, Old Canal Link Road, Krishnaban Colony, near Govind Nagar, Nashik, Maharashtra 422005, India",https://www.google.co.kr/maps/place/Integrated+fitness+and+Sports+Institute+-+Nashik+Branch/data=!4m5!3m4!1s0x3bddeba13ba2fb07:0x693b8de6a4e11582!8m2!3d19.980746!4d73.7769336?authuser=0&hl=en&rclk=1,19.980746,73.7769336,Maharashtra
King Fitness Center,Fitness center,"Jaywanti Nagar, Ambajogai, Maharashtra 431517, India",https://www.google.co.kr/maps/place/King+Fitness+Center/data=!4m5!3m4!1s0x3bc55f18a280968d:0xb50f4cf1a8624328!8m2!3d18.7314503!4d76.3911137?authuser=0&hl=en&rclk=1,18.7314503,76.3911137,Maharashtra
True Fitness,Gym,"1st floor, Atul Blue Fortuna Tower, near Tanvi Supermarket, Marol, Andheri East, Mumbai, Maharashtra 400059, India",https://www.google.co.kr/maps/place/True+Fitness/data=!4m5!3m4!1s0x3be7c810ffe0c545:0x6c692b4685151025!8m2!3d19.1173981!4d72.8842873?authuser=0&hl=en&rclk=1,19.1173981,72.8842873,Maharashtra
"Zakir Hussain Gym, Bhusawal",Gym,"Millat Nagar, Bhusawal, Maharashtra 425201, India","https://www.google.co.kr/maps/place/Zakir+Hussain+Gym,+Bhusawal/data=!4m5!3m4!1s0x3bd9a6139e5c297f:0xb6c545543f68c74a!8m2!3d21.0419382!4d75.790702?authuser=0&hl=en&rclk=1",21.0419382,75.790702,Maharashtra
Evolution Gym ‚Äì Men & Women Fitness,Gym,"Infront of Vani Nagar, Pipeline Road,, Ahmednagar, Maharashtra 414003, India",https://www.google.co.kr/maps/place/Evolution+Gym+%E2%80%93+Men+%26+Women+Fitness/data=!4m5!3m4!1s0x3bdcba89a6a6dd73:0xed1772533940caae!8m2!3d19.1290319!4d74.7362806?authuser=0&hl=en&rclk=1,19.1290319,74.7362806,Maharashtra
Run India Run Marathon and Fitness Training Center,Physical fitness program,"4R3F+GRF, Juhu Tara, Juhu, Mumbai, Maharashtra 400047, India",https://www.google.co.kr/maps/place/Run+India+Run+Marathon+and+Fitness+Training+Center/data=!4m5!3m4!1s0x3be7c9eb25e8662f:0xff9ec78780d100ec!8m2!3d19.1038007!4d72.8245403?authuser=0&hl=en&rclk=1,19.1038007,72.8245403,Maharashtra
Heartbeat Gym,Gym,"Canal Rd, Ashtvinayak Nagar, Taroda Kh., Maharashtra 431605, India",https://www.google.co.kr/maps/place/Heartbeat+Gym/data=!4m5!3m4!1s0x3bd1d69c1b7cd841:0xc4645dcd76f1e7d6!8m2!3d19.1883461!4d77.2913772?authuser=0&hl=en&rclk=1,19.1883461,77.2913772,Maharashtra
Keep Fit Gym,Fitness center,"Near Vittal Mandir Dasera Maidan Malegoan Road, Agrawal Nagar, Dhule, Maharashtra 424001, India",https://www.google.co.kr/maps/place/Keep+Fit+Gym/data=!4m5!3m4!1s0x3bdec5fc4f3e1493:0xe221a2b5c91607fb!8m2!3d20.8832146!4d74.7727603?authuser=0&hl=en&rclk=1,20.8832146,74.7727603,Maharashtra
Divekar Akhada (Adarsh Gym),Gym,"P299+86V, Jatharpeth, Akola, Maharashtra 444005, India",https://www.google.co.kr/maps/place/Divekar+Akhada+(Adarsh+Gym)/data=!4m5!3m4!1s0x3bd72e226f2dbd3f:0x83620eac4b383122!8m2!3d20.7183651!4d77.0180556?authuser=0&hl=en&rclk=1,20.7183651,77.0180556,Maharashtra
Talwalkars HiFi,Gym,"2nd Floor, Dr. Mhaske's Hospital Bldg,, Opp. Icici Bank, Shirdi-Manmad Road, Savedi, Ahmednagar, Maharashtra 414003, India",https://www.google.co.kr/maps/place/Talwalkars+HiFi/data=!4m5!3m4!1s0x3bdcbb02148bb4a1:0x7456513727ac743c!8m2!3d19.1214485!4d74.7275014?authuser=0&hl=en&rclk=1,19.1214485,74.7275014,Maharashtra
Super Gym,Gym,"Bus Stand Rd, near Sumit Medical, Selu, Maharashtra 431503, India",https://www.google.co.kr/maps/place/Super+Gym/data=!4m5!3m4!1s0x3bda9fb4c63754ff:0x688e4bb17e16951b!8m2!3d19.4506333!4d76.4336495?authuser=0&hl=en&rclk=1,19.4506333,76.4336495,Maharashtra
Krida Sankul Jogging Track,Gym,"krida sankul, Vishal Nagar (East), Deep Jyoti Nagar, Latur, Maharashtra 413531, India",https://www.google.co.kr/maps/place/Krida+Sankul+Jogging+Track/data=!4m5!3m4!1s0x3bcf83faaaaaaaab:0x7f1fe452bab846b2!8m2!3d18.4087934!4d76.5603828?authuser=0&hl=en&rclk=1,18.4087934,76.5603828,Maharashtra
The Jym (Fitness and Health Centre),Gym,"Ground Floor, Near Sai Baba Mandir, Close to the 12th Road Chapp, 12th Rd, Chembur, Mumbai, Maharashtra 400071, India",https://www.google.co.kr/maps/place/The+Jym+(Fitness+and+Health+Centre)/data=!4m5!3m4!1s0x3be7c61c0c228f91:0xee3905bb1fec9b56!8m2!3d19.0573397!4d72.9035756?authuser=0&hl=en&rclk=1,19.0573397,72.9035756,Maharashtra
Run India Run Marathon and Fitness Training Center,Physical fitness program,"2VC3+88V, Matunga, Mumbai, Maharashtra 400019, India",https://www.google.co.kr/maps/place/Run+India+Run+Marathon+and+Fitness+Training+Center/data=!4m5!3m4!1s0x3be7cf273e41f7a9:0xb46abf87dc4bedaf!8m2!3d19.0208662!4d72.8532984?authuser=0&hl=en&rclk=1,19.0208662,72.8532984,Maharashtra
Ganesh Mahale's GM Fitness Centre.,Gym,"Sawata Mandir Rd, Shrirampur, Maharashtra 413709, India",https://www.google.co.kr/maps/place/Ganesh+Mahale's+GM+Fitness+Centre./data=!4m5!3m4!1s0x3bdc8a4cb4b7b0b5:0xdbac1e0f37925607!8m2!3d19.6163724!4d74.656427?authuser=0&hl=en&rclk=1,19.6163724,74.656427,Maharashtra
Okinawa Fitness,Gym,"987, Jawaharlal Nehru Rd, New Nana Peth, Ganesh Peth, Pune, Maharashtra 411002, India",https://www.google.co.kr/maps/place/Okinawa+Fitness/data=!4m5!3m4!1s0x3bc2c16c6b2cb939:0x3e226230b91da69d!8m2!3d18.5128628!4d73.8686286?authuser=0&hl=en&rclk=1,18.5128628,73.8686286,Maharashtra
Aurangabad,Fitness center,"Anupam, opp. to SB College, Aurangpura, Aurangabad, Maharashtra 431001, India",https://www.google.co.kr/maps/place/Aurangabad/data=!4m5!3m4!1s0x3bdb99113b6609d5:0xb29ce3755bd8e12!8m2!3d19.8781542!4d75.3200699?authuser=0&hl=en&rclk=1,19.8781542,75.3200699,Maharashtra
Galaxy Friends Gym,Gymnastics center,"7QF5+Q3M, Inayat Nagar, Prabhavati Nagar, Parbhani, Maharashtra 431401, India",https://www.google.co.kr/maps/place/Galaxy+Friends+Gym/data=!4m5!3m4!1s0x3bd017606cd033a5:0x513ba992f266e896!8m2!3d19.2744745!4d76.7576798?authuser=0&hl=en&rclk=1,19.2744745,76.7576798,Maharashtra
FOCUS THE FITNESS,Gym,"plot no-92, Sector 8A, CBD Belapur, Navi Mumbai, Maharashtra 400614, India",https://www.google.co.kr/maps/place/FOCUS+THE+FITNESS/data=!4m5!3m4!1s0x3be7c3fe279f53ef:0x810ee248b273fe8b!8m2!3d19.034999!4d73.0421275?authuser=0&hl=en&rclk=1,19.034999,73.0421275,Maharashtra
Ahmednagar Shotokan Karate Do Branch 4,Gym,"Katore Nagar, MIDC, Ahmednagar, Maharashtra 414111, India",https://www.google.co.kr/maps/place/Ahmednagar+Shotokan+Karate+Do+Branch+4/data=!4m5!3m4!1s0x3bdcba4722ff8643:0x4277e63a8636c81d!8m2!3d19.1417604!4d74.7126726?authuser=0&hl=en&rclk=1,19.1417604,74.7126726,Maharashtra
King bouncer Shabbir,Gym,"King bouncer, Ahmednagar - Aurangabad Rd, Mukundnagar, Ahmednagar, Maharashtra 414001, India",https://www.google.co.kr/maps/place/King+bouncer+Shabbir/data=!4m5!3m4!1s0x3bdcb1ada4913b27:0xac66692e37e63afb!8m2!3d19.1068772!4d74.7540065?authuser=0&hl=en&rclk=1,19.1068772,74.7540065,Maharashtra
Nitro Sport & Fitness Center,Gym,"Swantraveer Sawarkar Taran Taloa, Behind Kanhaiyya Nagar, Kopri, Thane East, opposite Kaya, Mumbai, Maharashtra 400603, India",https://www.google.co.kr/maps/place/Nitro+Sport+%26+Fitness+Center/data=!4m5!3m4!1s0x3be7b8dc659d631f:0x1a8fd4095c166032!8m2!3d19.17841!4d72.974662?authuser=0&hl=en&rclk=1,19.17841,72.974662,Maharashtra
Trimurti Gym,Gym,"Unnamed Road, Lokmanya Nagar, Ichalkaranji, Maharashtra 416121, India",https://www.google.co.kr/maps/place/Trimurti+Gym/data=!4m5!3m4!1s0x3bc11d25bdd54269:0x83a85f665784686e!8m2!3d16.7192262!4d74.4410081?authuser=0&hl=en&rclk=1,16.7192262,74.4410081,Maharashtra
THE BODYGARAGE GYM,Gym,"Pimpale Jagatap, Maharashtra 412216, India",https://www.google.co.kr/maps/place/THE+BODYGARAGE+GYM/data=!4m5!3m4!1s0x3bc2d1b2540ef699:0x7dfb12c252a6fb97!8m2!3d18.7083074!4d74.0721906?authuser=0&hl=en&rclk=1,18.7083074,74.0721906,Maharashtra
"ABS FITNESS - CAMP, NEHRU MEMORIAL HALL. GYM in CAMP PUNE. GYMS in Camp. FITNESS CENTRE NEAR CAMP. GYM NEAR CAMP.",Gym,"Atur Foundation House, 4, Dr Baba Saheb Ambedkar Rd, Above Nehru Memorial hall, Camp, Pune, Maharashtra 411001, India","https://www.google.co.kr/maps/place/ABS+FITNESS+-+CAMP,+NEHRU+MEMORIAL+HALL.+GYM+in+CAMP+PUNE.+GYMS+in+Camp.+FITNESS+CENTRE+NEAR+CAMP.+GYM+NEAR+CAMP./data=!4m5!3m4!1s0x3bc2c1c99f746687:0x55e09af415590d28!8m2!3d18.5197542!4d73.8758368?authuser=0&hl=en&rclk=1",18.5197542,73.8758368,Maharashtra
Gymkhana,Gym,"HFQC+QRM, Datta Nagar, Loni, Maharashtra 413713, India",https://www.google.co.kr/maps/place/Gymkhana/data=!4m5!3m4!1s0x3bdcf706ec37cd63:0x80869649e6ea0ae7!8m2!3d19.5894583!4d74.4720495?authuser=0&hl=en&rclk=1,19.5894583,74.4720495,Maharashtra
Hard Knocks Gym,Gymnasium Cz,"46VM+G77, Ambika Nagar, Lasalgaon, Maharashtra 422306, India",https://www.google.co.kr/maps/place/Hard+Knocks+Gym/data=!4m5!3m4!1s0x3bdc32dcf1452fdd:0xca7a15082320d763!8m2!3d20.1437865!4d74.2331684?authuser=0&hl=en&rclk=1,20.1437865,74.2331684,Maharashtra
Nitin Kamble,Fitness center,"19A, Patbandhare Nagar, Taroda Naka, Nanded, Maharashtra 431605, India",https://www.google.co.kr/maps/place/Nitin+Kamble/data=!4m5!3m4!1s0x3bd1d79bf288641f:0x46793b51fd8cf2ec!8m2!3d19.1864805!4d77.3028275?authuser=0&hl=en&rclk=1,19.1864805,77.3028275,Maharashtra
varad peshwe,Gym,"jalam road, Amrut Nagar, Khamgaon, Maharashtra 444312, India",https://www.google.co.kr/maps/place/varad+peshwe/data=!4m5!3m4!1s0x3bd750c3faf2e8bb:0x1f8a0c16acb07c16!8m2!3d20.7225625!4d76.566741?authuser=0&hl=en&rclk=1,20.7225625,76.566741,Maharashtra
Ajay sonune,Gym,"Unnamed Road, Pimpalwadi, Maharashtra 431504, India",https://www.google.co.kr/maps/place/Ajay+sonune/data=!4m5!3m4!1s0x3bda7daeb2a47c5b:0xb291e6068ab7eff6!8m2!3d19.8544726!4d76.2960077?authuser=0&hl=en&rclk=1,19.8544726,76.2960077,Maharashtra
Maruti Steel India,Gym,"MIDC Ambad, Nashik, Maharashtra 422010, India",https://www.google.co.kr/maps/place/Maruti+Steel+India/data=!4m5!3m4!1s0x3bddeca5199111df:0xd03851f0c1f4fc42!8m2!3d19.9639604!4d73.7377959?authuser=0&hl=en&rclk=1,19.9639604,73.7377959,Maharashtra
BADMINTON CLASSES,Gym,"JMF6+6QV, Shrirampur, Maharashtra 413709, India",https://www.google.co.kr/maps/place/BADMINTON+CLASSES/data=!4m5!3m4!1s0x3bdc8a498ce76359:0x544e116f3779e357!8m2!3d19.6231175!4d74.6619074?authuser=0&hl=en&rclk=1,19.6231175,74.6619074,Maharashtra
Pehellwaan gym,Gym,"49/2, Chandan Nagar, Pune, Maharashtra 411014, India",https://www.google.co.kr/maps/place/Pehellwaan+gym/data=!4m5!3m4!1s0x3bc2c1fbc55a427d:0xb4ca71b1029fb0b7!8m2!3d18.5612378!4d73.932586?authuser=0&hl=en&rclk=1,18.5612378,73.932586,Maharashtra
"SBES Sports Complex, Badminton,Table Tennis",Gym,"SBES Area, Saraswatinagar, Aurangpura, Aurangabad, Maharashtra 431001, India","https://www.google.co.kr/maps/place/SBES+Sports+Complex,+Badminton,Table+Tennis/data=!4m5!3m4!1s0x3bdb986d212a5fa5:0xcf7ac9131330bfdd!8m2!3d19.881267!4d75.3268301?authuser=0&hl=en&rclk=1",19.881267,75.3268301,Maharashtra
Walking Plaza,Gym,"V896+XPH, Padampura, Aurangabad, Maharashtra 431002, India",https://www.google.co.kr/maps/place/Walking+Plaza/data=!4m5!3m4!1s0x3bdb99d4e445e62b:0x901d283c1ff8152f!8m2!3d19.8699325!4d75.3118526?authuser=0&hl=en&rclk=1,19.8699325,75.3118526,Maharashtra
TAJ IMC HERBAL INDIA,Gym,"Walli Chowk, Old- Town, Malkapur, Maharashtra, India",https://www.google.co.kr/maps/place/TAJ+IMC+HERBAL+INDIA/data=!4m5!3m4!1s0x3bd9e9eb06c831e3:0x5cb099f6067c7d54!8m2!3d20.8888307!4d76.1982617?authuser=0&hl=en&rclk=1,20.8888307,76.1982617,Maharashtra
"The Pilates Studio by Namrata Purohit, Aundh",Pilates studio,"S No 152/4, CTS No 352, Aundh Opposite Pandit Bheemsen Joshi Auditorium, near PMRDA Office, Bremen Chowk, Pune, Maharashtra 411067, India","https://www.google.co.kr/maps/place/The+Pilates+Studio+by+Namrata+Purohit,+Aundh/data=!4m5!3m4!1s0x3bc2bf5820c61f8b:0x46e4fbdca002181c!8m2!3d18.5636083!4d73.8123877?authuser=0&hl=en&rclk=1",18.5636083,73.8123877,Maharashtra
Viva Fitness,Gym,"286, Palm Beach Rd, Kopri Village, Kopripada, Sector 28, Vashi, Navi Mumbai, Maharashtra 400703, India",https://www.google.co.kr/maps/place/Viva+Fitness/data=!4m5!3m4!1s0x3be7c124f7b0939f:0xba61f1c23e99aea8!8m2!3d19.0887781!4d73.0089438?authuser=0&hl=en&rclk=1,19.0887781,73.0089438,Maharashtra
The Pilates Studio,Pilates studio,"Aston Building, Unit 306, 3rd Floor Sundervan Complex, Lokhandwala Road, Andheri Link Rd, Andheri (W, Mumbai, Maharashtra 400053, India",https://www.google.co.kr/maps/place/The+Pilates+Studio/data=!4m5!3m4!1s0x3be7b70a2d58a1db:0xd6730cda6304c940!8m2!3d19.1374023!4d72.8260224?authuser=0&hl=en&rclk=1,19.1374023,72.8260224,Maharashtra
The Pilates Studio by Namrata Purohit,Pilates studio,"Liberty Society, Phase II, E1, House No 2, Ground Floor, N Main Rd, next to Celio, Koregaon Park, Pune, Maharashtra 411001, India",https://www.google.co.kr/maps/place/The+Pilates+Studio+by+Namrata+Purohit/data=!4m5!3m4!1s0x3bc2c148e094e1d5:0x7df1cb74c3036f9c!8m2!3d18.5398553!4d73.8985554?authuser=0&hl=en&rclk=1,18.5398553,73.8985554,Maharashtra
Pruthvi Agri Biotech,Gym,"Dr Rajendra Prasad Rd, Bhumika, Mission Compound, Jalna, Maharashtra 431203, India",https://www.google.co.kr/maps/place/Pruthvi+Agri+Biotech/data=!4m5!3m4!1s0x3bda59e35d4c1df9:0x6ddb4ff9a959438a!8m2!3d19.846947!4d75.904972?authuser=0&hl=en&rclk=1,19.846947,75.904972,Maharashtra
Chaatak Nature Conservation Sociey,Gym,"2WMR+98X, Ordnance Factory Estate, Kahurkhede, Maharashtra 425308, India",https://www.google.co.kr/maps/place/Chaatak+Nature+Conservation+Sociey/data=!4m5!3m4!1s0x3bd9bafeaf2b7019:0x18117fb93f61fbca!8m2!3d21.0334778!4d75.9408495?authuser=0&hl=en&rclk=1,21.0334778,75.9408495,Maharashtra
The Pilates Studio,Pilates studio,"Dharam Palace, 702 Panchsheel Plaza, Behind, N S Patkar Marg, Gamdevi, Mumbai, Maharashtra 400007, India",https://www.google.co.kr/maps/place/The+Pilates+Studio/data=!4m5!3m4!1s0x3be7ce0e843fb1f7:0x89527e458f05453e!8m2!3d18.9575739!4d72.81232?authuser=0&hl=en&rclk=1,18.9575739,72.81232,Maharashtra
Aadhar Enterprises,Gym,"Aurangpura - Samarthnagar Rd, Sahjeevan Colony, Nutan Colony, Nirala Bazar, Aurangabad, Maharashtra 431001, India",https://www.google.co.kr/maps/place/Aadhar+Enterprises/data=!4m5!3m4!1s0x3bdb986b92a958f1:0x25af7a38d892eb41!8m2!3d19.8777113!4d75.3229783?authuser=0&hl=en&rclk=1,19.8777113,75.3229783,Maharashtra
Badi Masjid Aurangabad,Gym,"V8GV+F88, Kailash Nagar, Mondha, Aurangabad, Maharashtra 431001, India",https://www.google.co.kr/maps/place/Badi+Masjid+Aurangabad/data=!4m5!3m4!1s0x3bdba38d6253b52b:0x1c4c919f49e328ff!8m2!3d19.8761653!4d75.3433139?authuser=0&hl=en&rclk=1,19.8761653,75.3433139,Maharashtra
BRICK HOUSE,Gym,"GVPJ+VH3, Sangamvadi, Pune, Maharashtra 411001, India",https://www.google.co.kr/maps/place/BRICK+HOUSE/data=!4m5!3m4!1s0x3bc2c16f19ae92cf:0xff8336dec2f97ae7!8m2!3d18.5371362!4d73.8814299?authuser=0&hl=en&rclk=1,18.5371362,73.8814299,Maharashtra
Kathak Nritya Mandir,Gym,"Shreeniwas Moreshwar Colony, Akola, Maharashtra, India",https://www.google.co.kr/maps/place/Kathak+Nritya+Mandir/data=!4m5!3m4!1s0x3bd72f1a9c7c4e6f:0xe78d86beea0a8d88!8m2!3d20.7106977!4d77.0182634?authuser=0&hl=en&rclk=1,20.7106977,77.0182634,Maharashtra
Plus Fitness 24/7 Mumbai Central,Gym,"Nathani Heights A Wing, 105, Lamington Rd, Marzban Parsi Colony, Dalal Estate, Mumbai Central, Mumbai, Maharashtra 400008, India",https://www.google.co.kr/maps/place/Plus+Fitness+24%2F7+Mumbai+Central/data=!4m5!3m4!1s0x3be7cf13ef28e809:0x4f1b8debf9f62e61!8m2!3d18.9685986!4d72.8204096?authuser=0&hl=en&rclk=1,18.9685986,72.8204096,Maharashtra
