Company_Name,Category,Address,Url,Latitude,Longitude,State,Territory
Manipal Hospitals Goa,Private hospital,"Panaji, Dr E Borges Rd, Dona Paula, Goa 403004, India",https://www.google.co.kr/maps/place/Manipal+Hospitals+Goa/data=!4m5!3m4!1s0x3bbfc0cb6f59b763:0x5fef15ef316a7759!8m2!3d15.4600059!4d73.813462?authuser=0&hl=en&rclk=1,15.4600059,73.813462,Goa,West 1
Victor Hospital,General hospital,"Old Station Rd, near Carmelite Monastery, Malbhat, Margao, Goa 403601, India",https://www.google.co.kr/maps/place/Victor+Hospital/data=!4m5!3m4!1s0x3bbfb3c6c5c4520d:0xa4045e195fdd67b3!8m2!3d15.2689598!4d73.9663188?authuser=0&hl=en&rclk=1,15.2689598,73.9663188,Goa,West 1
Galaxy Hospital Mapusa Goa,Private hospital,"JR47+86M, Mapusa, Goa 403519, India",https://www.google.co.kr/maps/place/Galaxy+Hospital+Mapusa+Goa/data=!4m5!3m4!1s0x3bbfeb19fda362a9:0xded12d6f905c6f2!8m2!3d15.6058396!4d73.813057?authuser=0&hl=en&rclk=1,15.6058396,73.813057,Goa,West 1
Nagarsenkar's Classic Hospital,Hospital,"Malbhat, Margao, Goa 403601, India",https://www.google.co.kr/maps/place/Nagarsenkar's+Classic+Hospital/data=!4m5!3m4!1s0x3bbfb3c6b6f12adb:0xfa0d0e4c8d9e7ff6!8m2!3d15.269592!4d73.965776?authuser=0&hl=en&rclk=1,15.269592,73.965776,Goa,West 1
Sushrutzi Dr Dhulapkar's Hospital,Private hospital,"Ponda - Panaji Rd, behind Indian Overseas Bank, Carambolim, Corlim, Goa 403110, India",https://www.google.co.kr/maps/place/Sushrutzi+Dr+Dhulapkar's+Hospital/data=!4m5!3m4!1s0x3bbfbe9c46957c8f:0x9a3b499da4b42900!8m2!3d15.4972637!4d73.9320968?authuser=0&hl=en&rclk=1,15.4972637,73.9320968,Goa,West 1
Royal Hospital,General hospital,"Aquem ,Margao, Goa( South ), Off Power House Road, Margao, Goa 403601, India",https://www.google.co.kr/maps/place/Royal+Hospital/data=!4m5!3m4!1s0x3bbfb3c8b21a84a1:0xbcabb344e6f8eaf9!8m2!3d15.2708414!4d73.9720919?authuser=0&hl=en&rclk=1,15.2708414,73.9720919,Goa,West 1
"North Goa District Hospital, Mapusa",Government hospital,"Mapusa Jamatkhana Road, Peddem, Mapusa, Goa 403507, India","https://www.google.co.kr/maps/place/North+Goa+District+Hospital,+Mapusa/data=!4m5!3m4!1s0x3bbfeb20441cb14f:0x3780637101679c2f!8m2!3d15.5968924!4d73.8201766?authuser=0&hl=en&rclk=1",15.5968924,73.8201766,Goa,West 1
St. Anthony's Hospital,Private hospital,"Petrol Pump, Zorin, near Anjuna, Anjuna, Goa 403509, India",https://www.google.co.kr/maps/place/St.+Anthony's+Hospital/data=!4m5!3m4!1s0x3bbfebd79ccbac43:0xe29458d29f4af85b!8m2!3d15.6004349!4d73.7506254?authuser=0&hl=en&rclk=1,15.6004349,73.7506254,Goa,West 1
Bosio Hospital,Private hospital,"Football Ground, Pintos Waddo, Pilerne - Candolim Rd, opposite Montero, Candolim, Goa 403515, India",https://www.google.co.kr/maps/place/Bosio+Hospital/data=!4m5!3m4!1s0x3bbfeca855555555:0x9728e3374f476a15!8m2!3d15.5199136!4d73.7708411?authuser=0&hl=en&rclk=1,15.5199136,73.7708411,Goa,West 1
Healthway Hospital,Hospital,"Rua Armada Portuguesa, Mala, Fantainhas, Altinho, near People's High School, Panaji, Goa 403001, India",https://www.google.co.kr/maps/place/Healthway+Hospital/data=!4m5!3m4!1s0x3bbfc0854a4ea0d7:0x6b321ec0897e1f68!8m2!3d15.4941205!4d73.8310719?authuser=0&hl=en&rclk=1,15.4941205,73.8310719,Goa,West 1
Chodankar Hospital,General hospital,"Porvorim,, Penha de França, Goa, India",https://www.google.co.kr/maps/place/Chodankar+Hospital/data=!4m5!3m4!1s0x3bbfc01373a82d23:0x1a647d4fe8b20d3c!8m2!3d15.529723!4d73.825582?authuser=0&hl=en&rclk=1,15.529723,73.825582,Goa,West 1
Mathew Braganza Hospital,General hospital,"Calangute - Anjuna Rd Naikawado Gardez, Calangute, Goa 403516, India",https://www.google.co.kr/maps/place/Mathew+Braganza+Hospital/data=!4m5!3m4!1s0x3bbfc1e26e01cf93:0xda4d066c329e8aaa!8m2!3d15.5446216!4d73.7637473?authuser=0&hl=en&rclk=1,15.5446216,73.7637473,Goa,West 1
Bhagyoday Hospital,General hospital,"Dattawadi, near Ashirwad Hall, Mapusa, Goa 403507, India",https://www.google.co.kr/maps/place/Bhagyoday+Hospital/data=!4m5!3m4!1s0x3bbfeae2fae1f7d9:0xea30b5ccd86207f8!8m2!3d15.5945844!4d73.8115992?authuser=0&hl=en&rclk=1,15.5945844,73.8115992,Goa,West 1
Holy Cross General Remanso Hospital,General hospital,"Rajvaddo, Mapasa Bardeza, near Alankar Theatre, Mapusa, Goa 403507, India",https://www.google.co.kr/maps/place/Holy+Cross+General+Remanso+Hospital/data=!4m5!3m4!1s0x3bbfeae0c649fd57:0x64aa5f51c5e89f8b!8m2!3d15.5899772!4d73.8166973?authuser=0&hl=en&rclk=1,15.5899772,73.8166973,Goa,West 1
Dr. Kolwalkar's Galaxy Hospital,General hospital,"Mapusa - Duler - Camurlim Rd, Near S.P.G. Hall/Severina Gardens, Xelpem, Duler, Mapusa, Goa 403507, India",https://www.google.co.kr/maps/place/Dr.+Kolwalkar's+Galaxy+Hospital/data=!4m5!3m4!1s0x3bbfeaf00b389901:0x2b85b8c4097e287a!8m2!3d15.6059007!4d73.8132884?authuser=0&hl=en&rclk=1,15.6059007,73.8132884,Goa,West 1
A. V. Da Costa Memorial Clinic,General hospital,"Near Nehru Stadium, Fatorda, Goa 403602, India",https://www.google.co.kr/maps/place/A.+V.+Da+Costa+Memorial+Clinic/data=!4m5!3m4!1s0x3bbfb160f4ce1e57:0xd8eab723a7d359c6!8m2!3d15.2905285!4d73.9609912?authuser=0&hl=en&rclk=1,15.2905285,73.9609912,Goa,West 1
Healthway Hospital Old Goa,Hospital,"FWP6+85C, Bainguinim, Goa 403110, India",https://www.google.co.kr/maps/place/Healthway+Hospital+Old+Goa/data=!4m5!3m4!1s0x3bbfbf3ae6d3c6d1:0xe0f6c6e95d47b012!8m2!3d15.4858064!4d73.9103819?authuser=0&hl=en&rclk=1,15.4858064,73.9103819,Goa,West 1
Yashodan Hospital,Maternity hospital,"7XGH+5QH, Aquem Alto, Margao, Goa 403601, India",https://www.google.co.kr/maps/place/Yashodan+Hospital/data=!4m5!3m4!1s0x3bbfb3cda50c47e7:0x76aa11cbeb4a6a9d!8m2!3d15.2754423!4d73.9794821?authuser=0&hl=en&rclk=1,15.2754423,73.9794821,Goa,West 1
E S I Hospital,General hospital,"Near R P Stadium, Aquem, Margao, Goa, 403601, India",https://www.google.co.kr/maps/place/E+S+I+Hospital/data=!4m5!3m4!1s0x3bbfb3b35ba04b57:0xa264018761c5e951!8m2!3d15.2601!4d73.982?authuser=0&hl=en&rclk=1,15.2601,73.982,Goa,West 1
Healthway Hospitals Goa,Hospital,"Plot No 132/1 (Part), Ella Village, Kadamba Plateau, Goa Velha, Goa 403402, India",https://www.google.co.kr/maps/place/Healthway+Hospitals+Goa/data=!4m5!3m4!1s0x3bbfbec0603bc0cb:0xf20292b81bd11b89!8m2!3d15.4856164!4d73.9111814?authuser=0&hl=en&rclk=1,15.4856164,73.9111814,Goa,West 1
South Goa District Hospital,Government hospital,"NH 66, Fatorda, Margao, Goa 403602, India",https://www.google.co.kr/maps/place/South+Goa+District+Hospital/data=!4m5!3m4!1s0x3bbfb15c874a876d:0x641ad86b59b361bd!8m2!3d15.2950132!4d73.953641?authuser=0&hl=en&rclk=1,15.2950132,73.953641,Goa,West 1
Aster Hospital,Hospital,"Chapel Road, next to Holy Spirit Church, Monte Hill, Margao, Goa 403601, India",https://www.google.co.kr/maps/place/Aster+Hospital/data=!4m5!3m4!1s0x3bbfb3ddc6a66fc3:0x76fae81493bff940!8m2!3d15.2808348!4d73.9614898?authuser=0&hl=en&rclk=1,15.2808348,73.9614898,Goa,West 1
"Dr. Kedar's Maternity, Infertility & Surgical Hospital",Hospital,"Electricity Colony, Altinho, Panaji, Goa 403001, India","https://www.google.co.kr/maps/place/Dr.+Kedar's+Maternity,+Infertility+%26+Surgical+Hospital/data=!4m5!3m4!1s0x3bbfc08c3a7f0c03:0xa75f17bfa89f555e!8m2!3d15.4874659!4d73.8242621?authuser=0&hl=en&rclk=1",15.4874659,73.8242621,Goa,West 1
Vision Hospital,Hospital,"Duler Ground Rd, Karaswada, Mapusa, Goa 403507, India",https://www.google.co.kr/maps/place/Vision+Hospital/data=!4m5!3m4!1s0x3bbfeb22e915b243:0xe169c686ad111a19!8m2!3d15.6045829!4d73.8203984?authuser=0&hl=en&rclk=1,15.6045829,73.8203984,Goa,West 1
Hospicio District Hospital,Hospital,"Fr Agnel Institute Of Commerce, Road, Monte Hill, Margao, Goa 403601, India",https://www.google.co.kr/maps/place/Hospicio+District+Hospital/data=!4m5!3m4!1s0x3bbfb3e9c143a8a7:0x8bf1f135de9f2098!8m2!3d15.2787552!4d73.9606063?authuser=0&hl=en&rclk=1,15.2787552,73.9606063,Goa,West 1
RG Stone Urology & Laparoscopy Hospital,Hospital,"Plot No.217-218, PDA Colony Panjim-Mapusa Highway, Goa 403521, India",https://www.google.co.kr/maps/place/RG+Stone+Urology+%26+Laparoscopy+Hospital/data=!4m5!3m4!1s0x3bbfc06cc8a80dab:0xa72466447e5868e7!8m2!3d15.5266618!4d73.8260563?authuser=0&hl=en&rclk=1,15.5266618,73.8260563,Goa,West 1
Vintage Hospital,Hospital,"Agakhan Street, Pajifond, Margao, Goa 403601, India",https://www.google.co.kr/maps/place/Vintage+Hospital/data=!4m5!3m4!1s0x3bbfb3c307558d1d:0xac9fa9e11d64641d!8m2!3d15.2734131!4d73.9628168?authuser=0&hl=en&rclk=1,15.2734131,73.9628168,Goa,West 1
Savaikar Hospital,Private hospital,"Warkhandem, Ponda, Goa 403401, India",https://www.google.co.kr/maps/place/Savaikar+Hospital/data=!4m5!3m4!1s0x3bbfbaead6555551:0xc70de1e127d52949!8m2!3d15.4032181!4d74.0049443?authuser=0&hl=en&rclk=1,15.4032181,74.0049443,Goa,West 1
Cottage Hospital,Hospital,"Alto Chicalim, Vasco da Gama, Goa 403802, India",https://www.google.co.kr/maps/place/Cottage+Hospital/data=!4m5!3m4!1s0x3bbfc78fadbbec63:0xe686e3479c712a10!8m2!3d15.4002927!4d73.8324682?authuser=0&hl=en&rclk=1,15.4002927,73.8324682,Goa,West 1
Gracias Maternity Hospital,Hospital,"M Menezes Rd, near Police Station, Comba, Margao, Goa 403601, India",https://www.google.co.kr/maps/place/Gracias+Maternity+Hospital/data=!4m5!3m4!1s0x3bbfb3e9c143a8a7:0xf366bbcf0e22ed27!8m2!3d15.2737608!4d73.9564021?authuser=0&hl=en&rclk=1,15.2737608,73.9564021,Goa,West 1
Dr Madkaikar's CITY HOSPITAL,Hospital,"Ashirwad BLDG 1st floor, Isidorio Baptista Rd, opposite Meenaxi Hotel, Margao, Goa 403601, India",https://www.google.co.kr/maps/place/Dr+Madkaikar's+CITY+HOSPITAL/data=!4m5!3m4!1s0x3bbfb3e9c143a8a7:0x3a20ac2073d61295!8m2!3d15.2722927!4d73.9615183?authuser=0&hl=en&rclk=1,15.2722927,73.9615183,Goa,West 1
Kerkar Hospital,Hospital,"Martires Dias Rd, Near St. Sebastian Church, Aquem, Margao, Goa 403601, India",https://www.google.co.kr/maps/place/Kerkar+Hospital/data=!4m5!3m4!1s0x3bbfb3b35ba04b57:0x349642a7648221f5!8m2!3d15.2739438!4d73.9731708?authuser=0&hl=en&rclk=1,15.2739438,73.9731708,Goa,West 1
Vrundavan Hospital,Hospital,"Old Hwy, St Cruz, Goa 403202, India",https://www.google.co.kr/maps/place/Vrundavan+Hospital/data=!4m5!3m4!1s0x3bbfbf5f9efad249:0x9e6d0790ccf69599!8m2!3d15.4805753!4d73.8431561?authuser=0&hl=en&rclk=1,15.4805753,73.8431561,Goa,West 1
Urban Health Centre,Government hospital,"3, 18th June Rd, Altinho, Panaji, Goa 403001, India",https://www.google.co.kr/maps/place/Urban+Health+Centre/data=!4m5!3m4!1s0x3bbfc08e645c34e5:0xb2f44bb176e45c14!8m2!3d15.4978743!4d73.826349?authuser=0&hl=en&rclk=1,15.4978743,73.826349,Goa,West 1
INHS Jeevanti,Military hospital,"Mundvel, New Vaddem, Vasco da Gama, Goa 403802, India",https://www.google.co.kr/maps/place/INHS+Jeevanti/data=!4m5!3m4!1s0x3bbfc7987d52574d:0xfde66f62c04f9fd8!8m2!3d15.4047026!4d73.8191027?authuser=0&hl=en&rclk=1,15.4047026,73.8191027,Goa,West 1
Chikitisa Hospital,Hospital,"First Gate, Verna Industrial Estate, Verna, Goa 403722, India",https://www.google.co.kr/maps/place/Chikitisa+Hospital/data=!4m5!3m4!1s0x3bbfb0afc0c12cd7:0x53531b2d0eef7125!8m2!3d15.3762202!4d73.9271273?authuser=0&hl=en&rclk=1,15.3762202,73.9271273,Goa,West 1
"Ponda IVF Clinic, Infertility & Endoscopy Center, Kamat Nursing Home, Goa, India",Hospital,"Upper Bazaar, Shanti Nagar, Ponda, Goa 403401, India","https://www.google.co.kr/maps/place/Ponda+IVF+Clinic,+Infertility+%26+Endoscopy+Center,+Kamat+Nursing+Home,+Goa,+India/data=!4m5!3m4!1s0x3bbfbabe8dc91e49:0x12d42f0f6de51491!8m2!3d15.4001348!4d74.0098581?authuser=0&hl=en&rclk=1",15.4001348,74.0098581,Goa,West 1
Dr. Ajit Kamat Hospital,Hospital,"FRP6+WWQ, Miramar, Panaji, Goa 403001, India",https://www.google.co.kr/maps/place/Dr.+Ajit+Kamat+Hospital/data=!4m5!3m4!1s0x3bbfc0eea7da957b:0x4cd031f8289e1d83!8m2!3d15.4873263!4d73.8123657?authuser=0&hl=en&rclk=1,15.4873263,73.8123657,Goa,West 1
Dr. Antonio Pinto do Rosario Hospital,Hospital,"Dr Pinto Do Rosario Hospital, Alto Porvorim, Porvorim, Goa 403521, India",https://www.google.co.kr/maps/place/Dr.+Antonio+Pinto+do+Rosario+Hospital/data=!4m5!3m4!1s0x3bbfc07140000001:0x5fc08584dae0c582!8m2!3d15.5495144!4d73.818219?authuser=0&hl=en&rclk=1,15.5495144,73.818219,Goa,West 1
Sinai Clinic & Hospital,Hospital,"Vasant Arcade, 1st Floor, near Popular High School, Comba, Margao, Goa 403601, India",https://www.google.co.kr/maps/place/Sinai+Clinic+%26+Hospital/data=!4m5!3m4!1s0x3bbfb3e890a88651:0xc2ffa03a7735430a!8m2!3d15.274906!4d73.9553612?authuser=0&hl=en&rclk=1,15.274906,73.9553612,Goa,West 1
Sunshine Hospital,Hospital,"NH 66, Cupangale Society, Margao, Goa 403707, India",https://www.google.co.kr/maps/place/Sunshine+Hospital/data=!4m5!3m4!1s0x3bbfb3bf9439efe1:0x836b31a3d623a8c7!8m2!3d15.2904237!4d73.9773551?authuser=0&hl=en&rclk=1,15.2904237,73.9773551,Goa,West 1
Dr Rebello Hospital,Hospital,"7XQ3+7QR, Madel, Margao, Goa 403601, India",https://www.google.co.kr/maps/place/Dr+Rebello+Hospital/data=!4m5!3m4!1s0x3bbfb3e9c143a8a7:0x9ad0e5345e72ecf!8m2!3d15.2882281!4d73.9543903?authuser=0&hl=en&rclk=1,15.2882281,73.9543903,Goa,West 1
"Jesus, Mary and Joseph(JMJ) Hospital",Hospital,"Kamat Nagar, Porvorim, Sabnis Valley, Aradi Socorro, Goa 403501, India","https://www.google.co.kr/maps/place/Jesus,+Mary+and+Joseph(JMJ)+Hospital/data=!4m5!3m4!1s0x3bbfc019a1be45f1:0xe3510b6342c1fa64!8m2!3d15.5414433!4d73.8226667?authuser=0&hl=en&rclk=1",15.5414433,73.8226667,Goa,West 1
Kedar hospital,Hospital,"FRWF+Q85, Altinho, Panaji, Goa 403001, India",https://www.google.co.kr/maps/place/Kedar+hospital/data=!4m5!3m4!1s0x3bbfc1bfe738fd5b:0x81a173cd5064a1e!8m2!3d15.4968909!4d73.8233527?authuser=0&hl=en&rclk=1,15.4968909,73.8233527,Goa,West 1
Vaatsalya Hospital,Hospital,"D Mello Building, 501, Swatantra Path, Vasco da Gama, Goa 403802, India",https://www.google.co.kr/maps/place/Vaatsalya+Hospital/data=!4m5!3m4!1s0x3bbfc7ba32da34d1:0x6e4d77fd88149a67!8m2!3d15.395949!4d73.8096751?authuser=0&hl=en&rclk=1,15.395949,73.8096751,Goa,West 1
Kenkre Hospital,Hospital,"Mri Scan Centre, Bambolim, Panaji, Panaji, opposite G M C, Goa, 403001, India",https://www.google.co.kr/maps/place/Kenkre+Hospital/data=!4m5!3m4!1s0x3bbfbf5856044d4d:0xfdceb126e30e9a43!8m2!3d15.474737!4d73.844448?authuser=0&hl=en&rclk=1,15.474737,73.844448,Goa,West 1
Sankalp Nursing Home,Hospital,"Opp. St. Anthony's High School, Road, Duler Ground Rd, Karaswada, Mapusa, Goa 403507, India",https://www.google.co.kr/maps/place/Sankalp+Nursing+Home/data=!4m5!3m4!1s0x3bbfeca855555555:0xc2d82956aefc0b6a!8m2!3d15.6030484!4d73.8173828?authuser=0&hl=en&rclk=1,15.6030484,73.8173828,Goa,West 1
Ghanashyam Govind Kamat Memorial Hospital,Hospital,"A-1, Jairam Complex, Ourem Road, Neugi Nagar, Panaji, Goa 403001, India",https://www.google.co.kr/maps/place/Ghanashyam+Govind+Kamat+Memorial+Hospital/data=!4m5!3m4!1s0x3bbfc09a507d1ef9:0x779b890412403a36!8m2!3d15.490423!4d73.832375?authuser=0&hl=en&rclk=1,15.490423,73.832375,Goa,West 1
Dr. Rajadhyaksha Hospital,Hospital,"Dr Rajadhyaksha General Hospital, Dr Roque De Souza Road, Panaji, Goa, 403001, India",https://www.google.co.kr/maps/place/Dr.+Rajadhyaksha+Hospital/data=!4m5!3m4!1s0x3bbfc088bf763f2d:0xac32488e2337fef4!8m2!3d15.500422!4d73.8286179?authuser=0&hl=en&rclk=1,15.500422,73.8286179,Goa,West 1
"Sub District Hospital, Ponda",Government hospital,"Kurtarkar Nagari, Ponda, Goa 403401, India","https://www.google.co.kr/maps/place/Sub+District+Hospital,+Ponda/data=!4m5!3m4!1s0x3bbfba97f7ed1999:0x7a4cd9fb237b2745!8m2!3d15.3930424!4d74.0057194?authuser=0&hl=en&rclk=1",15.3930424,74.0057194,Goa,West 1
CHAITANYA HOSPITAL,Hospital,"bus stop, Sanquelim–velguem–Surla-Usgao Road, opposite to housing board, Rudreshwar Colony, Sanquelim, Goa 403505, India",https://www.google.co.kr/maps/place/CHAITANYA+HOSPITAL/data=!4m5!3m4!1s0x3bbfbd5176779e21:0xd72ec174fe5e845!8m2!3d15.5566039!4d74.0231484?authuser=0&hl=en&rclk=1,15.5566039,74.0231484,Goa,West 1
Sunshine Hospital,Hospital,"Margao Bypass, Cupangale Society, Margao, Goa 403601, India",https://www.google.co.kr/maps/place/Sunshine+Hospital/data=!4m5!3m4!1s0x3bbfb1f807717f41:0x2bc39a5176464cf8!8m2!3d15.2904486!4d73.9772994?authuser=0&hl=en&rclk=1,15.2904486,73.9772994,Goa,West 1
The Ankur Nursing Home,Hospital,"Duler-Marna-Siolim Rd, Near St.Xavier's College, Mapusa, Goa, 403507, India",https://www.google.co.kr/maps/place/The+Ankur+Nursing+Home/data=!4m5!3m4!1s0x3bbfeca855555555:0x7babebafce2591d7!8m2!3d15.599893!4d73.8087539?authuser=0&hl=en&rclk=1,15.599893,73.8087539,Goa,West 1
Shri Ram Hospital,Hospital,"GQV7+HR6, Arpora, Goa 403516, India",https://www.google.co.kr/maps/place/Shri+Ram+Hospital/data=!4m5!3m4!1s0x3bbfc1e23db77bc5:0x1f7e999172be23d9!8m2!3d15.5439213!4d73.7645134?authuser=0&hl=en&rclk=1,15.5439213,73.7645134,Goa,West 1
Trimurti General Hospital,Hospital,"Las Palmas Housing Estate, Margao Bypass, Margao, Goa 403601, India",https://www.google.co.kr/maps/place/Trimurti+General+Hospital/data=!4m5!3m4!1s0x3bbfb3e9c143a8a7:0x72724dc8b9767266!8m2!3d15.2866906!4d73.9773997?authuser=0&hl=en&rclk=1,15.2866906,73.9773997,Goa,West 1
Mandovi Hospital.,Hospital,"NH 17, Alto Porvorim, near Sardesai X-Ray Clinic, Porvorim, Goa 403521, India",https://www.google.co.kr/maps/place/Mandovi+Hospital./data=!4m5!3m4!1s0x3bbfc06c367d8687:0x4e305c668c691a9!8m2!3d15.5231071!4d73.8267349?authuser=0&hl=en&rclk=1,15.5231071,73.8267349,Goa,West 1
Pai Hospital,Women's health clinic,"Pai Hospital, Vaddem, Vasco da Gama, Goa 403802, India",https://www.google.co.kr/maps/place/Pai+Hospital/data=!4m5!3m4!1s0x3bbfc791fa1643e5:0xc6fbe85cb7ff3642!8m2!3d15.3974905!4d73.8294358?authuser=0&hl=en&rclk=1,15.3974905,73.8294358,Goa,West 1
Dr Menezes Nursing Home,Hospital,"Bernardo F Costa Road, Nehrunagar, Margao, Goa 403601, India",https://www.google.co.kr/maps/place/Dr+Menezes+Nursing+Home/data=!4m5!3m4!1s0x3bbfb3e9c143a8a7:0x2212a86cba0e411f!8m2!3d15.2800808!4d73.9594439?authuser=0&hl=en&rclk=1,15.2800808,73.9594439,Goa,West 1
Chest Disease & TB Hospital,Hospital,"Goa Medical College, Electricity Colony, Santa Inez, Taleigao, Goa 403001, India",https://www.google.co.kr/maps/place/Chest+Disease+%26+TB+Hospital/data=!4m5!3m4!1s0x3bbfc095c4a79f61:0x4e1d1250d83dd4ef!8m2!3d15.4839651!4d73.8227627?authuser=0&hl=en&rclk=1,15.4839651,73.8227627,Goa,West 1
Dr. Lawande's Hospital,Maternity hospital,"St Joseph Rd, Aquem Alto, Margao, Goa 403601, India",https://www.google.co.kr/maps/place/Dr.+Lawande's+Hospital/data=!4m5!3m4!1s0x3bbfb3cc16578bbf:0xe005396118236baa!8m2!3d15.2747342!4d73.9779022?authuser=0&hl=en&rclk=1,15.2747342,73.9779022,Goa,West 1
SMRC hospital,Hospital,"Regina Mundi School Rd, Chicalim, Goa 403711, India",https://www.google.co.kr/maps/place/SMRC+hospital/data=!4m5!3m4!1s0x3bbfc7ebd8370167:0x5bb1bad45836eb59!8m2!3d15.396215!4d73.8386187?authuser=0&hl=en&rclk=1,15.396215,73.8386187,Goa,West 1
"Government Hospital, Canacona",Hospital,"NH 66, Mastimol, Canacona, Goa 403702, India","https://www.google.co.kr/maps/place/Government+Hospital,+Canacona/data=!4m5!3m4!1s0x3bbe5abd083b40cb:0xdedf2dd0907fe5fe!8m2!3d15.0076036!4d74.0514296?authuser=0&hl=en&rclk=1",15.0076036,74.0514296,Goa,West 1
Military Hospital,Hospital,"1, St Inez Rd, Miramar, Panaji, Goa 403001, India",https://www.google.co.kr/maps/place/Military+Hospital/data=!4m5!3m4!1s0x3bbfc08d4c2a8f03:0x38a36792196dc137!8m2!3d15.4935352!4d73.8186866?authuser=0&hl=en&rclk=1,15.4935352,73.8186866,Goa,West 1
ESI Hospital,Hospital,"7X88+R6M, Sanscar Society, Margao, Goa 403707, India",https://www.google.co.kr/maps/place/ESI+Hospital/data=!4m5!3m4!1s0x3bbfb3c733f0f517:0xe3c99e392a2a0f47!8m2!3d15.267085!4d73.9655416?authuser=0&hl=en&rclk=1,15.267085,73.9655416,Goa,West 1
Goa Robotic Surgery Centre,Hospital,"Urban Co-op Bank, 2nd Floor, Aakash Bhavan, Above Mapusa, opp. Mathias Plaza, Panaji, Goa 403001, India",https://www.google.co.kr/maps/place/Goa+Robotic+Surgery+Centre/data=!4m5!3m4!1s0x3bbfc1f846857447:0xb624c7b13d48d455!8m2!3d15.4967374!4d73.8236188?authuser=0&hl=en&rclk=1,15.4967374,73.8236188,Goa,West 1
Prabhu Dessai Hospitals Private Limited,Hospital,"Trimurti Hospital, Agally, Gogol, Aquem, Aquem, Goa, 403601, India",https://www.google.co.kr/maps/place/Prabhu+Dessai+Hospitals+Private+Limited/data=!4m5!3m4!1s0x3bbfb3b35ba04b57:0x276aa19bba3a77da!8m2!3d15.2601!4d73.982?authuser=0&hl=en&rclk=1,15.2601,73.982,Goa,West 1
Kantak Ajit,Hospital,"Rosadel Enclave, Old Market, Near District Court, Margao, Goa, 403601, India",https://www.google.co.kr/maps/place/Kantak+Ajit/data=!4m5!3m4!1s0x3bbfb3e9c143a8a7:0xd4c0cabd54471edf!8m2!3d15.2720578!4d73.9582541?authuser=0&hl=en&rclk=1,15.2720578,73.9582541,Goa,West 1
Manoshri Children's Hospital,Children's hospital,"GRPC+XVM, Kini House, Porvorim, Alto - Povorim, Penha de França, Goa 403521, India",https://www.google.co.kr/maps/place/Manoshri+Children's+Hospital/data=!4m5!3m4!1s0x3bbfc0176e420487:0xf2a00758aa799cf5!8m2!3d15.5374659!4d73.8221729?authuser=0&hl=en&rclk=1,15.5374659,73.8221729,Goa,West 1
Hospital,Hospital,"92V2+5M4, Tiska, Khadpabandh, Ponda, Goa 403401, India",https://www.google.co.kr/maps/place/Hospital/data=!4m5!3m4!1s0x3bbfbbea2396f2f7:0xc9f31ab323f7f038!8m2!3d15.392889!4d74.0017116?authuser=0&hl=en&rclk=1,15.392889,74.0017116,Goa,West 1
Sanjeevni Hospital,Hospital,"House No 43/1, Punyace, Teoluz Garden, Alto Chicalim, Beyond Cortege Hospital, Alto Chicalim, Goa, 403802, India",https://www.google.co.kr/maps/place/Sanjeevni+Hospital/data=!4m5!3m4!1s0x3bbfc785eaaaaaab:0x66a7b30477fcb74!8m2!3d15.3939426!4d73.8068503?authuser=0&hl=en&rclk=1,15.3939426,73.8068503,Goa,West 1
Hospital Do Hoapicio,Hospital,"Rua Do Pe Miranda, New Market, New Market, Margao, Goa 403601, India",https://www.google.co.kr/maps/place/Hospital+Do+Hoapicio/data=!4m5!3m4!1s0x3bbfb3e9c143a8a7:0xde315fea9be5eef0!8m2!3d15.2720578!4d73.9582541?authuser=0&hl=en&rclk=1,15.2720578,73.9582541,Goa,West 1
Singbal Hospital,Hospital,"C222+6X6, Friends Colony, Khadpabandh, Ponda, Goa 403401, India",https://www.google.co.kr/maps/place/Singbal+Hospital/data=!4m5!3m4!1s0x3bbfba945cb445df:0x42a0848cb98e8d13!8m2!3d15.4005408!4d74.0023891?authuser=0&hl=en&rclk=1,15.4005408,74.0023891,Goa,West 1
Dr.Olavo Ribeiro Hospital,Hospital,"near Alankar Theatre, Mapusa, Goa 403507, India",https://www.google.co.kr/maps/place/Dr.Olavo+Ribeiro+Hospital/data=!4m5!3m4!1s0x3bbfeae1066d5c57:0xf334335cf0317296!8m2!3d15.5915659!4d73.814801?authuser=0&hl=en&rclk=1,15.5915659,73.814801,Goa,West 1
Kenkre hospital,Hospital,"Dattawadi, Mapusa, Goa 403507, India",https://www.google.co.kr/maps/place/Kenkre+hospital/data=!4m5!3m4!1s0x3bbfeb1d8685520b:0x6577fd3573307ab6!8m2!3d15.5946743!4d73.8101306?authuser=0&hl=en&rclk=1,15.5946743,73.8101306,Goa,West 1
Primary Hospital,Hospital,"Mazorda Calata Nuvem Mazorda, Aquem, Aquem, Goa, 403601, India",https://www.google.co.kr/maps/place/Primary+Hospital/data=!4m5!3m4!1s0x3bbfb3b35ba04b57:0x990259674b1faf73!8m2!3d15.2601!4d73.982?authuser=0&hl=en&rclk=1,15.2601,73.982,Goa,West 1
Chodanker Nursing Home,Hospital,"Alto, Porvorim, next to HDFC Bank, Bardez, Goa 403521, India",https://www.google.co.kr/maps/place/Chodanker+Nursing+Home/data=!4m5!3m4!1s0x3bbfc013748f80d9:0x403260626295012b!8m2!3d15.5297289!4d73.8256744?authuser=0&hl=en&rclk=1,15.5297289,73.8256744,Goa,West 1
MPT Hospital,Hospital,"CQ3R+58V, Headland Sada, Mormugao, Goa 403804, India",https://www.google.co.kr/maps/place/MPT+Hospital/data=!4m5!3m4!1s0x3bbfc653b4470205:0xcd1616ebdcf7f07e!8m2!3d15.4029888!4d73.7908073?authuser=0&hl=en&rclk=1,15.4029888,73.7908073,Goa,West 1
Orthopaedic Surgeon North Goa,Hospital,"Vision Hospital, Duler Ground Rd, Karaswada, Mapusa, Goa 403507, India",https://www.google.co.kr/maps/place/Orthopaedic+Surgeon+North+Goa/data=!4m5!3m4!1s0x3bbfeb1395a35049:0x27cd3f9839d9b841!8m2!3d15.6047372!4d73.8202284?authuser=0&hl=en&rclk=1,15.6047372,73.8202284,Goa,West 1
Government Health Centre,Hospital,"Goa 403512, India",https://www.google.co.kr/maps/place/Government+Health+Centre/data=!4m5!3m4!1s0x3bbfeda98b47f509:0xf7fad0664d19b06!8m2!3d15.6899983!4d73.7934499?authuser=0&hl=en&rclk=1,15.6899983,73.7934499,Goa,West 1
Dr. Correia Afonso Hospital,Hospital,"Varca - Margao Rd, Benaulim, Goa 403716, India",https://www.google.co.kr/maps/place/Dr.+Correia+Afonso+Hospital/data=!4m5!3m4!1s0x3bbfb392b844d1cf:0xc6c3ef9ab92337fb!8m2!3d15.2630539!4d73.9490842?authuser=0&hl=en&rclk=1,15.2630539,73.9490842,Goa,West 1
Kamakshi Arogyadham,Hospital,"82JC+83Q, Pannakali, Shiroda, Goa 403103, India",https://www.google.co.kr/maps/place/Kamakshi+Arogyadham/data=!4m5!3m4!1s0x3bbfb1d191d78d65:0xd81128a933508d2b!8m2!3d15.3308255!4d74.0202376?authuser=0&hl=en&rclk=1,15.3308255,74.0202376,Goa,West 1
Government Hospital,Hospital,"H248+RC9, Desai Nagar, Sanquelim, Goa 403505, India",https://www.google.co.kr/maps/place/Government+Hospital/data=!4m5!3m4!1s0x3bbfbd5a47c329a3:0xa0eb2dc3c220f7d1!8m2!3d15.5570349!4d74.016104?authuser=0&hl=en&rclk=1,15.5570349,74.016104,Goa,West 1
"TB Hospital, Margao",Hospital,"7XJ7+2PH, Monte Hill, Margao, Goa 403601, India","https://www.google.co.kr/maps/place/TB+Hospital,+Margao/data=!4m5!3m4!1s0x3bbfb3dc6f21681f:0x98fa006535b3c7b0!8m2!3d15.2800664!4d73.9643441?authuser=0&hl=en&rclk=1",15.2800664,73.9643441,Goa,West 1
Noble Hospital,Hospital,"Near St.Joaquim Chapel, Borda, Margao, Goa 403602, India",https://www.google.co.kr/maps/place/Noble+Hospital/data=!4m5!3m4!1s0x3bbfb33754386479:0x2a2a03897a057eb!8m2!3d15.2831368!4d73.9690485?authuser=0&hl=en&rclk=1,15.2831368,73.9690485,Goa,West 1
Orthopedic hospital for surgery,Hospital,"Rosedel Enclave, Old Market, next to District Court, Margao, Goa 403601, India",https://www.google.co.kr/maps/place/Orthopedic+hospital+for+surgery/data=!4m5!3m4!1s0x3bbfb3e0c6aaaaab:0x20a767b2e5a15ae2!8m2!3d15.282652!4d73.9576313?authuser=0&hl=en&rclk=1,15.282652,73.9576313,Goa,West 1
Holy Spirit Nursing Home,Hospital,"151, Grebelo Road, Old Market, Margao, Goa 403601, India",https://www.google.co.kr/maps/place/Holy+Spirit+Nursing+Home/data=!4m5!3m4!1s0x3bbfb3e9c143a8a7:0xdc4ba7a469e90ef0!8m2!3d15.2823584!4d73.9587915?authuser=0&hl=en&rclk=1,15.2823584,73.9587915,Goa,West 1
Janakibai Memorial Hospital,Hospital,"Near Sukhtankar Apartment, Shanti Nagar, Ponda, Goa 403401, India",https://www.google.co.kr/maps/place/Janakibai+Memorial+Hospital/data=!4m5!3m4!1s0x3bbfba95f0e72dff:0x7dba087b0d203c2b!8m2!3d15.3995295!4d74.006027?authuser=0&hl=en&rclk=1,15.3995295,74.006027,Goa,West 1
Infant Jesus Hospital,Hospital,"7XRG+5W3, Cupangale Society, Margao, Goa 403601, India",https://www.google.co.kr/maps/place/Infant+Jesus+Hospital/data=!4m5!3m4!1s0x3bbfb17e75d2ffaf:0xd976353ae633aa21!8m2!3d15.2903956!4d73.9772987?authuser=0&hl=en&rclk=1,15.2903956,73.9772987,Goa,West 1
Ashirwad Urology and Laparoscopy hospital,Hospital,"1st Floor Amkay Plaza opp. Vikrant Bldg, nr. Hemmady Regency, Malbhat, Margao, Goa 403601, India",https://www.google.co.kr/maps/place/Ashirwad+Urology+and+Laparoscopy+hospital/data=!4m5!3m4!1s0x3bbfb3c1579ebe27:0xae8062ac3553ca47!8m2!3d15.2706106!4d73.964545?authuser=0&hl=en&rclk=1,15.2706106,73.964545,Goa,West 1
Vaidya Hospital,Hospital,"Vaidhya Hospital Building., Caetano de Albuquerque Rd, Near Municipal Market, Panaji, Goa 403001, India",https://www.google.co.kr/maps/place/Vaidya+Hospital/data=!4m5!3m4!1s0x3bbfc125f68bad67:0x6a2f327ede5c2141!8m2!3d15.4981102!4d73.8224516?authuser=0&hl=en&rclk=1,15.4981102,73.8224516,Goa,West 1
Savaikar Hospital & Laparoscopy Centre,Hospital,"Durgabhat, Ponda, Goa 403401, India",https://www.google.co.kr/maps/place/Savaikar+Hospital+%26+Laparoscopy+Centre/data=!4m5!3m4!1s0x3bbfbab93666f649:0xd89febc869296b37!8m2!3d15.400728!4d74.012829?authuser=0&hl=en&rclk=1,15.400728,74.012829,Goa,West 1
Verna Hospital,Hospital,"8WXM+8PX, Verna, Goa 403722, India",https://www.google.co.kr/maps/place/Verna+Hospital/data=!4m5!3m4!1s0x3bbfb7349924533f:0xfb36cb5837afa653!8m2!3d15.3483643!4d73.9343748?authuser=0&hl=en&rclk=1,15.3483643,73.9343748,Goa,West 1
Janata Maternity Hospital,Hospital,"Opposite Fomento Duler, Mapusa, Bardez, Bardez, Goa, 403507, India",https://www.google.co.kr/maps/place/Janata+Maternity+Hospital/data=!4m5!3m4!1s0x3bbfeca855555555:0xd94a8466a26d35e!8m2!3d15.6444128!4d73.8330844?authuser=0&hl=en&rclk=1,15.6444128,73.8330844,Goa,West 1
IVF Angels Goa,Hospital,"Near St. Brittos High School, Dangui Colony, Mapusa, Goa 403507 Near St. Brittos High School, Mapusa, Goa 403507, India",https://www.google.co.kr/maps/place/IVF+Angels+Goa/data=!4m5!3m4!1s0x3bbfebbdf27a57d7:0x1a4d797715d88ec3!8m2!3d15.5931444!4d73.8120957?authuser=0&hl=en&rclk=1,15.5931444,73.8120957,Goa,West 1
Central Hospital,Hospital,"C38M+W4W, Tisk Usgao, Tisca, Goa 403406, India",https://www.google.co.kr/maps/place/Central+Hospital/data=!4m5!3m4!1s0x3bbfa5a69e176745:0x7cd63f06ee9001db!8m2!3d15.4173571!4d74.0828363?authuser=0&hl=en&rclk=1,15.4173571,74.0828363,Goa,West 1
NAMC GOA,Medical Center,"CR39+CG6, Vaddem, Vasco da Gama, Goa 403802, India",https://www.google.co.kr/maps/place/NAMC+GOA/data=!4m5!3m4!1s0x3bbfc79873899c33:0x8437945476e12586!8m2!3d15.4035335!4d73.8187587?authuser=0&hl=en&rclk=1,15.4035335,73.8187587,Goa,West 1
Sub Health Centre,Hospital,"sao mathias malar, Goa, India",https://www.google.co.kr/maps/place/Sub+Health+Centre/data=!4m5!3m4!1s0x3bbfbe6a0c9d5297:0x8653e6ae29b90a45!8m2!3d15.5294464!4d73.9128375?authuser=0&hl=en&rclk=1,15.5294464,73.9128375,Goa,West 1
Roque Memorial Hospital,Hospital,"9W3H+9G8, Verna, Goa 403722, India",https://www.google.co.kr/maps/place/Roque+Memorial+Hospital/data=!4m5!3m4!1s0x3bbfb7c309b53881:0xf8e8210af44732fd!8m2!3d15.353411!4d73.928814?authuser=0&hl=en&rclk=1,15.353411,73.928814,Goa,West 1
Leprosy Hospital,Hospital,"Macazana, Salcete, Curtorim, Curtorim, Goa, 403709, India",https://www.google.co.kr/maps/place/Leprosy+Hospital/data=!4m5!3m4!1s0x3bbfb203aaaaaaab:0x5b79165e5c8d9795!8m2!3d15.289023!4d74.0211989?authuser=0&hl=en&rclk=1,15.289023,74.0211989,Goa,West 1
Dr. Roque Ferreira's Memorial Hospital,Hospital,"8WXM+5QG, Verna, Goa 403722, India",https://www.google.co.kr/maps/place/Dr.+Roque+Ferreira's+Memorial+Hospital/data=!4m5!3m4!1s0x3bbfb79a79bba183:0x413702213e1e11e2!8m2!3d15.347932!4d73.9344404?authuser=0&hl=en&rclk=1,15.347932,73.9344404,Goa,West 1
Raikar Hospital,Private hospital,"Raikar Hospital HN 443/4,Deul wada, Marcel, Goa 403107, India",https://www.google.co.kr/maps/place/Raikar+Hospital/data=!4m5!3m4!1s0x3bbfbc4ad811e375:0x9dcecf6377e27027!8m2!3d15.5140662!4d73.9623761?authuser=0&hl=en&rclk=1,15.5140662,73.9623761,Goa,West 1
Dr Shirsat Hospital,Hospital,"Near Muncipality, Mahadev Chawk, Ponda, Ponda, Goa, 403401, India",https://www.google.co.kr/maps/place/Dr+Shirsat+Hospital/data=!4m5!3m4!1s0x3bbfbab93667b5d1:0xde11224ac877b6d1!8m2!3d15.4007739!4d74.0128556?authuser=0&hl=en&rclk=1,15.4007739,74.0128556,Goa,West 1
Super Speciality Block,Hospital,"Major District Road 3, St Cruz, Goa 403202, India",https://www.google.co.kr/maps/place/Super+Speciality+Block/data=!4m5!3m4!1s0x3bbfbf4ca1fc4105:0x1248e1841485eac6!8m2!3d15.4622055!4d73.8555345?authuser=0&hl=en&rclk=1,15.4622055,73.8555345,Goa,West 1
Primary Health Center,Hospital,"Candolim, Goa 403515, India",https://www.google.co.kr/maps/place/Primary+Health+Center/data=!4m5!3m4!1s0x3bbfc196f9376489:0xd2debddbba2ab2c!8m2!3d15.5149028!4d73.7681176?authuser=0&hl=en&rclk=1,15.5149028,73.7681176,Goa,West 1
"Primary Health Centre, Sanquelim",Government hospital,"Sanquelim, Goa, 403505, India","https://www.google.co.kr/maps/place/Primary+Health+Centre,+Sanquelim/data=!4m5!3m4!1s0x3bbfbd5856177d61:0x6878c86b1b7000cb!8m2!3d15.557194!4d74.0159816?authuser=0&hl=en&rclk=1",15.557194,74.0159816,Goa,West 1
Kakodkar Hospital,Hospital,"Main Road, Near Aiasha, Ponda, Ponda, Goa, 403401, India",https://www.google.co.kr/maps/place/Kakodkar+Hospital/data=!4m5!3m4!1s0x3bbfbab93667b5d1:0x277cc058fa48939a!8m2!3d15.4007739!4d74.0128556?authuser=0&hl=en&rclk=1,15.4007739,74.0128556,Goa,West 1
Nerul Hospital,Hospital,"Verem - Nerul, Nerul, Goa 403114, India",https://www.google.co.kr/maps/place/Nerul+Hospital/data=!4m5!3m4!1s0x3bbfc1af75495f93:0xf35dd050e5322558!8m2!3d15.5099842!4d73.7845337?authuser=0&hl=en&rclk=1,15.5099842,73.7845337,Goa,West 1
Sushrusha Nursing Home,Hospital,"Sushrusha Nursing Home , Warkhan, near Shri Maruti Temple, Ponda, Goa 403401, India",https://www.google.co.kr/maps/place/Sushrusha+Nursing+Home/data=!4m5!3m4!1s0x3bbfbaeb29455555:0x6515371c3cbe943b!8m2!3d15.4049611!4d74.0043849?authuser=0&hl=en&rclk=1,15.4049611,74.0043849,Goa,West 1
Mardolkar Hospital,Hospital,"Nagzarwada, Bicholim, Goa 403504, India",https://www.google.co.kr/maps/place/Mardolkar+Hospital/data=!4m5!3m4!1s0x3bbf966fd1a256b9:0x8fff8c99839e01!8m2!3d15.5910734!4d73.9479729?authuser=0&hl=en&rclk=1,15.5910734,73.9479729,Goa,West 1
Parulekar Nursing Home,Hospital,"Patrong, Baina, Vasco da Gama, Goa 403802, India",https://www.google.co.kr/maps/place/Parulekar+Nursing+Home/data=!4m5!3m4!1s0x3bbfc7b8d02e471f:0x33bedab94940babc!8m2!3d15.3921789!4d73.8119164?authuser=0&hl=en&rclk=1,15.3921789,73.8119164,Goa,West 1
Dr Dev's Children Hospital,Hospital,"Kaziwada, Ponda, Ponda, Goa 403401, India",https://www.google.co.kr/maps/place/Dr+Dev's+Children+Hospital/data=!4m5!3m4!1s0x3bbfbab93667b5d1:0x330b97c6728799af!8m2!3d15.4009198!4d74.0052416?authuser=0&hl=en&rclk=1,15.4009198,74.0052416,Goa,West 1
Ponda IVF Clinic and Endoscopy Center,Hospital,"Kamat Nursing Home, Upper Bazaar, Ponda, Goa 403401, India",https://www.google.co.kr/maps/place/Ponda+IVF+Clinic+and+Endoscopy+Center/data=!4m5!3m4!1s0x3bbfbabe62a76d7f:0x40f440444880678c!8m2!3d15.4000936!4d74.0098359?authuser=0&hl=en&rclk=1,15.4000936,74.0098359,Goa,West 1
Shri Dr Ulhas R Bhales Orthopadic Hospital,Hospital,"Dr Bhales Orthopaedic Hospital, Alto Porvorim, Bardez, Bardez, Goa, 403001, India",https://www.google.co.kr/maps/place/Shri+Dr+Ulhas+R+Bhales+Orthopadic+Hospital/data=!4m5!3m4!1s0x3bbfeca855555555:0x73cbcfdfa8a9f9d6!8m2!3d15.6444128!4d73.8330844?authuser=0&hl=en&rclk=1,15.6444128,73.8330844,Goa,West 1
Lions Domingos Felicio Fernandes Memorial Hospital,Hospital,"JQJG+M88, Oxel, Goa 403517, India",https://www.google.co.kr/maps/place/Lions+Domingos+Felicio+Fernandes+Memorial+Hospital/data=!4m5!3m4!1s0x3bbfeb8bf514cf9f:0xb4819b92da879356!8m2!3d15.6316607!4d73.7758394?authuser=0&hl=en&rclk=1,15.6316607,73.7758394,Goa,West 1
Dr Caeiro's General Hospital,Hospital,"Major District Road 21, Lamgaon, Bicholim, Goa 403504, India",https://www.google.co.kr/maps/place/Dr+Caeiro's+General+Hospital/data=!4m5!3m4!1s0x3bbf967176d2e8bb:0x87ad3799e04fa527!8m2!3d15.5882251!4d73.9444091?authuser=0&hl=en&rclk=1,15.5882251,73.9444091,Goa,West 1
Dr Bhumika Clinic,Hospital,"99, Mapusa - Duler - Camurlim Rd, Cunchelim, Mapusa, Goa 403517, India",https://www.google.co.kr/maps/place/Dr+Bhumika+Clinic/data=!4m5!3m4!1s0x3bbfeb112af2e479:0x953bbf032264df3!8m2!3d15.6088055!4d73.8123508?authuser=0&hl=en&rclk=1,15.6088055,73.8123508,Goa,West 1
Health Center,Government hospital,"MV93+543, Dhargalim VP, Goa 403513, India",https://www.google.co.kr/maps/place/Health+Center/data=!4m5!3m4!1s0x3bbf93cf05eb001b:0x70081aa78014923!8m2!3d15.6678886!4d73.852808?authuser=0&hl=en&rclk=1,15.6678886,73.852808,Goa,West 1
Health Centre,Hospital,"Unnamed Road, Aldeia de Goa, Bambolim, Goa 403201, India",https://www.google.co.kr/maps/place/Health+Centre/data=!4m5!3m4!1s0x3bbfb9ee29fafe85:0xa60c9bbfb11b1214!8m2!3d15.45503!4d73.845272?authuser=0&hl=en&rclk=1,15.45503,73.845272,Goa,West 1
"Primary Health Centre, Shiroda",Hospital,"82GC+4J8, Karai, Shiroda, Goa 403103, India","https://www.google.co.kr/maps/place/Primary+Health+Centre,+Shiroda/data=!4m5!3m4!1s0x3bbfb1da79647dc3:0x5e5751965ca8dd31!8m2!3d15.3252842!4d74.021575?authuser=0&hl=en&rclk=1",15.3252842,74.021575,Goa,West 1
Garde Clinic,Maternity hospital,"Unnamed Road, Orgao, Goa 403107, India",https://www.google.co.kr/maps/place/Garde+Clinic/data=!4m5!3m4!1s0x3bbfbd54d78ef6ff:0x24f41c5066841ea9!8m2!3d15.5151797!4d73.9608695?authuser=0&hl=en&rclk=1,15.5151797,73.9608695,Goa,West 1
Private Hospital,Hospital,"CX6Q+WG7, Donshiwado, Bandoda, Goa 403401, India",https://www.google.co.kr/maps/place/Private+Hospital/data=!4m5!3m4!1s0x3bbfbaf72d5e6a29:0x4a865d87c516b9fe!8m2!3d15.4122945!4d73.988795?authuser=0&hl=en&rclk=1,15.4122945,73.988795,Goa,West 1
"Primary Health Centre, Quepem",Hospital,"MDR 40, Quepem, Goa 403705, India","https://www.google.co.kr/maps/place/Primary+Health+Centre,+Quepem/data=!4m5!3m4!1s0x3bbfacd7f611dc1f:0x30ccc9515e1e3ff8!8m2!3d15.216448!4d74.078064?authuser=0&hl=en&rclk=1",15.216448,74.078064,Goa,West 1
Govenment Hospital I D,Hospital,"C38M+W4J, Tisk Usgao, Tisca, Goa 403406, India",https://www.google.co.kr/maps/place/Govenment+Hospital+I+D/data=!4m5!3m4!1s0x3bbfa5a69e6bcf99:0x935e3e7c90c6b2ce!8m2!3d15.4173496!4d74.0827726?authuser=0&hl=en&rclk=1,15.4173496,74.0827726,Goa,West 1
ESI,Hospital,"9VMF+HJF, Zuarinagar, Sancoale, Goa 403726, India",https://www.google.co.kr/maps/place/ESI/data=!4m5!3m4!1s0x3bbfb83b2887de71:0xeda889ef83bf67e4!8m2!3d15.3839298!4d73.87406?authuser=0&hl=en&rclk=1,15.3839298,73.87406,Goa,West 1
Зубной гоа,Hospital,"191, Duler Ground Rd, Dangui Colony, Mapusa, Goa 403507, India",https://www.google.co.kr/maps/place/%D0%97%D1%83%D0%B1%D0%BD%D0%BE%D0%B9+%D0%B3%D0%BE%D0%B0/data=!4m5!3m4!1s0x3bbfeae1c17c2901:0x118188a16084080e!8m2!3d15.5935908!4d73.8141765?authuser=0&hl=en&rclk=1,15.5935908,73.8141765,Goa,West 1
Primary Health Center,Hospital,"GRGM+HJ3, Alto Porvorim, Penha de França, Goa 403501, India",https://www.google.co.kr/maps/place/Primary+Health+Center/data=!4m5!3m4!1s0x3bbfc0731650a2e5:0x6ea825bbc98afc6!8m2!3d15.526394!4d73.834047?authuser=0&hl=en&rclk=1,15.526394,73.834047,Goa,West 1
ESI,Hospital,"9RXG+PFG, New Vaddem, Mormugao, Goa 403802, India",https://www.google.co.kr/maps/place/ESI/data=!4m5!3m4!1s0x3bbfc7911c4094f7:0x5aa32b8ac6aae71c!8m2!3d15.399301!4d73.826215?authuser=0&hl=en&rclk=1,15.399301,73.826215,Goa,West 1
"Primary Health Centre, Shiroda",Government hospital,"82GC+4RV, Shiroda, Goa 403103, India","https://www.google.co.kr/maps/place/Primary+Health+Centre,+Shiroda/data=!4m5!3m4!1s0x3bbfb1da70392b73:0xa8baa340e37972f3!8m2!3d15.3253612!4d74.0220487?authuser=0&hl=en&rclk=1",15.3253612,74.0220487,Goa,West 1
Veterinary hospital,Hospital,"225W+4QF, Chaudi, Canacona, Goa 403702, India",https://www.google.co.kr/maps/place/Veterinary+hospital/data=!4m5!3m4!1s0x3bbe5b0d46f1841b:0x5965ab58aaf800fb!8m2!3d15.0078069!4d74.0469255?authuser=0&hl=en&rclk=1,15.0078069,74.0469255,Goa,West 1
Saligao Medical Centre,Hospital,"GQXM+9JP, Muddavaddi, Saligao, Goa 403511, India",https://www.google.co.kr/maps/place/Saligao+Medical+Centre/data=!4m5!3m4!1s0x3bbfc1df8c76153f:0x5142cc120d0c93da!8m2!3d15.5484503!4d73.7840863?authuser=0&hl=en&rclk=1,15.5484503,73.7840863,Goa,West 1
Primary Health Centre,Hospital,"Culsabhatt, Chandor, Goa 403714, India",https://www.google.co.kr/maps/place/Primary+Health+Centre/data=!4m5!3m4!1s0x3bbfad854adeac57:0x1123d260c59bb3c2!8m2!3d15.2580255!4d74.0416932?authuser=0&hl=en&rclk=1,15.2580255,74.0416932,Goa,West 1
District Disability And Rehabilitation Centre,Hospital,"FV75+9PM, Bambolim, Goa 403108, India",https://www.google.co.kr/maps/place/District+Disability+And+Rehabilitation+Centre/data=!4m5!3m4!1s0x3bbfbf4c9c222cf1:0xddb2996a67d1c892!8m2!3d15.4634729!4d73.8592842?authuser=0&hl=en&rclk=1,15.4634729,73.8592842,Goa,West 1
Veterinary Hospital,Hospital,"Honda, Pissurlem, Goa, India",https://www.google.co.kr/maps/place/Veterinary+Hospital/data=!4m5!3m4!1s0x3bbfa3b874a38939:0xde76b1f74d25b1c2!8m2!3d15.5451128!4d74.0551814?authuser=0&hl=en&rclk=1,15.5451128,74.0551814,Goa,West 1
Dr. Madhav Sanzgiri | Best Urologist Near me in Goa,Urologist,"Dona Paula, Room no. 14 ,Ground floor, Manipal Hospitals, Dr E Borges Rd, Panaji, Goa 403004, India",https://www.google.co.kr/maps/place/Dr.+Madhav+Sanzgiri+%7C+Best+Urologist+Near+me+in+Goa/data=!4m5!3m4!1s0x3bbfc1e94df0a337:0x74a3d97d0e0dbfa2!8m2!3d15.4599797!4d73.8134241?authuser=0&hl=en&rclk=1,15.4599797,73.8134241,Goa,West 1
Dr Sharmad Kudchadkar. Consult urologist and Uro-Oncologist,Hospital,"First Floor, Ashirwad urology hospital Amkay plaza, Malbhat, Margao, Goa 403601, India",https://www.google.co.kr/maps/place/Dr+Sharmad+Kudchadkar.+Consult+urologist+and+Uro-Oncologist/data=!4m5!3m4!1s0x3bbfb3e8c009cc6d:0x481c632b0b7332a8!8m2!3d15.2706106!4d73.964545?authuser=0&hl=en&rclk=1,15.2706106,73.964545,Goa,West 1
ADHAR HOSPITAL,Nursing home,"Bicholim-sankhalim Road- Karapur, Karapur, Goa 403505, India",https://www.google.co.kr/maps/place/ADHAR+HOSPITAL/data=!4m5!3m4!1s0x3bbf967a732630b1:0xba0c5f8fe3b3ad51!8m2!3d15.5758071!4d73.9797106?authuser=0&hl=en&rclk=1,15.5758071,73.9797106,Goa,West 1
Marie Manor,Hospital,"7WG8+CWM, Seraulim, Goa 403708, India",https://www.google.co.kr/maps/place/Marie+Manor/data=!4m5!3m4!1s0x3bbfb41976b3fce5:0xd3365957742b23cc!8m2!3d15.2760905!4d73.9173106?authuser=0&hl=en&rclk=1,15.2760905,73.9173106,Goa,West 1
Dr Dhumaskar Mohan Dharma,Doctor,"Dhumasker General Hospital, Tivim, Bardez, Bardez, Goa, 403502, India",https://www.google.co.kr/maps/place/Dr+Dhumaskar+Mohan+Dharma/data=!4m5!3m4!1s0x3bbfeca855555555:0xfd7c99a2372c154b!8m2!3d15.6444128!4d73.8330844?authuser=0&hl=en&rclk=1,15.6444128,73.8330844,Goa,West 1
Dr Kedar Padte,Doctor,"2nd Floor, Aakash Bhavan, Above Mapusa Urban Co-op Bank, Opp. Mathias Plaza, Panaji, Goa 403001, India",https://www.google.co.kr/maps/place/Dr+Kedar+Padte/data=!4m5!3m4!1s0x3bbfc08e645c34e5:0xf44f6e4864b0c1c8!8m2!3d15.496614!4d73.8233346?authuser=0&hl=en&rclk=1,15.496614,73.8233346,Goa,West 1
PHC Pilliem Dharbandoda,Hospital,"C38M+V62, Tisk Usgao, Tisca, Goa 403406, India",https://www.google.co.kr/maps/place/PHC+Pilliem+Dharbandoda/data=!4m5!3m4!1s0x3bbfa5a4203b2a0b:0xec2ae0c187b613dd!8m2!3d15.4171324!4d74.08301?authuser=0&hl=en&rclk=1,15.4171324,74.08301,Goa,West 1
Dr. Eugene Rent,Surgical oncologist,"Dr E Borges Rd, Panaji, Goa 403004, India",https://www.google.co.kr/maps/place/Dr.+Eugene+Rent/data=!4m5!3m4!1s0x3bbfc10ef98bd5bf:0x8280657c3b542050!8m2!3d15.4570135!4d73.8088714?authuser=0&hl=en&rclk=1,15.4570135,73.8088714,Goa,West 1
Parth Labs,Hospital,"Unnamed Road, BEPQUEGAL, Kakoda, Vodlemol Cacora, Goa 403706, India",https://www.google.co.kr/maps/place/Parth+Labs/data=!4m5!3m4!1s0x3bbfad8e90aad6c1:0xdf8f1be155614d6d!8m2!3d15.2602256!4d74.1119688?authuser=0&hl=en&rclk=1,15.2602256,74.1119688,Goa,West 1
Bhandari Nursing Home,Nursing home,"Behind Pipal High School, Fantainhas, Mala, Panjim, Goa, Patto, Patto, Goa, 403001, India",https://www.google.co.kr/maps/place/Bhandari+Nursing+Home/data=!4m5!3m4!1s0x3bbfc08e645c34e5:0x59180b2837f19df4!8m2!3d15.4955876!4d73.8251581?authuser=0&hl=en&rclk=1,15.4955876,73.8251581,Goa,West 1
Polyclinic,Medical clinic,"Azad Maidan, Rua Do Ormuz, Opposite Bank Of India, Panaji, Panaji, Goa, 403001, India",https://www.google.co.kr/maps/place/Polyclinic/data=!4m5!3m4!1s0x3bbfc08e645c34e5:0xec878a6ff8e88d1e!8m2!3d15.4955876!4d73.8251581?authuser=0&hl=en&rclk=1,15.4955876,73.8251581,Goa,West 1
Bhale's Cilinic,Doctor,"Wodakade Alto, Porvorim, Porvorim, Goa, 403517, India",https://www.google.co.kr/maps/place/Bhale's+Cilinic/data=!4m5!3m4!1s0x3bbfc07140000001:0x19624e6215e608b6!8m2!3d15.5209006!4d73.8345548?authuser=0&hl=en&rclk=1,15.5209006,73.8345548,Goa,West 1
Gracias Clinic,Medical clinic,"Anandi Building, Chaudi, Canacona, Goa 403702, India",https://www.google.co.kr/maps/place/Gracias+Clinic/data=!4m5!3m4!1s0x3bbe5abc7e99416d:0x5b1612794ea1d190!8m2!3d15.0070604!4d74.0479772?authuser=0&hl=en&rclk=1,15.0070604,74.0479772,Goa,West 1
ESI Dispensary,Medical Center,"91, Industrial Estate, Bicholim, Goa 403529, India",https://www.google.co.kr/maps/place/ESI+Dispensary/data=!4m5!3m4!1s0x3bbf97b3a710da69:0x3280d5e488290c18!8m2!3d15.5826995!4d73.9555194?authuser=0&hl=en&rclk=1,15.5826995,73.9555194,Goa,West 1
Borkar Nursing Home,Nursing home,"Av. Conceição, Pajifond, Margao, Goa 403601, India",https://www.google.co.kr/maps/place/Borkar+Nursing+Home/data=!4m5!3m4!1s0x3bbfb3e70ddb45bf:0xa633b62b99a10227!8m2!3d15.2793136!4d73.9577261?authuser=0&hl=en&rclk=1,15.2793136,73.9577261,Goa,West 1
IIT Goa Medical Center Farmagudi,Medical Center,"CX9J+Q7V, Veling, Goa 403404, India",https://www.google.co.kr/maps/place/IIT+Goa+Medical+Center+Farmagudi/data=!4m5!3m4!1s0x3bbfba5678706dad:0xa81d31f7dd28f545!8m2!3d15.4194876!4d73.9806649?authuser=0&hl=en&rclk=1,15.4194876,73.9806649,Goa,West 1
Dr. Jacob George | Best Radiologist Near me in Goa,Radiologist,"Dona Paula, Room no. 3,Ground floor, Manipal Hospitals, Dr E Borges Rd, Panaji, Goa 403004, India",https://www.google.co.kr/maps/place/Dr.+Jacob+George+%7C+Best+Radiologist+Near+me+in+Goa/data=!4m5!3m4!1s0x3bbfc15e8d5f17ef:0x2f414586fae359e5!8m2!3d15.4603432!4d73.8132658?authuser=0&hl=en&rclk=1,15.4603432,73.8132658,Goa,West 1
Dr. Gunjan Baijal,Oncologist,"Dona Paula, Room no. 24,Ground floor, Manipal Hospitals, Dr E Borges Rd, Panaji, Goa 403004, India",https://www.google.co.kr/maps/place/Dr.+Gunjan+Baijal/data=!4m5!3m4!1s0x3bbfc17e789f2f3d:0x6700823f3242ecd3!8m2!3d15.46003!4d73.81322?authuser=0&hl=en&rclk=1,15.46003,73.81322,Goa,West 1
Guru Medical,Medical Center,"Near K T C Stand, Curchorem, Curchorem, Goa, 403706, India",https://www.google.co.kr/maps/place/Guru+Medical/data=!4m5!3m4!1s0x3bbfac64f093064d:0x43d5a3a1ab83caf7!8m2!3d15.2605685!4d74.1098876?authuser=0&hl=en&rclk=1,15.2605685,74.1098876,Goa,West 1
Dr. Shekhar Salkar,Oncologist,"Dona Paula, Room no. 22,Ground floor, Manipal Hospitals, Dr E Borges Rd, Panaji, Goa 403004, India",https://www.google.co.kr/maps/place/Dr.+Shekhar+Salkar/data=!4m5!3m4!1s0x3bbfc126cbc12085:0x601682502b2b717a!8m2!3d15.46015!4d73.81346?authuser=0&hl=en&rclk=1,15.46015,73.81346,Goa,West 1
Samdari,Hospital,"Shree kunthunath Goa Seva Sameeti Balotra road, Samdari, India",https://www.google.co.kr/maps/place/Samdari/data=!4m5!3m4!1s0x3bbfab0632182391:0x6d71d684a53bbb8c!8m2!3d15.2993265!4d74.123996?authuser=0&hl=en&rclk=1,15.2993265,74.123996,Goa,West 1
Dr. Bossuet Afonso,Surgeon,"Block B, F-7, 1st Floor, Campal Trade Centre, Behind Military Hospital, Campal, Panaji, Goa 403001, India",https://www.google.co.kr/maps/place/Dr.+Bossuet+Afonso/data=!4m5!3m4!1s0x3bbfc08d4579e74f:0xf4997b88e788a915!8m2!3d15.493636!4d73.81916?authuser=0&hl=en&rclk=1,15.493636,73.81916,Goa,West 1
Kudchadkar Dr Satish D,Doctor,"Shushrushalaya Hospital, P O Box 23, Savordam, Savordam, Vodlemol Cacora, Goa 403706, India",https://www.google.co.kr/maps/place/Kudchadkar+Dr+Satish+D/data=!4m5!3m4!1s0x3bbfac64f093064d:0xb79a1d6e10e29a91!8m2!3d15.2605685!4d74.1098876?authuser=0&hl=en&rclk=1,15.2605685,74.1098876,Goa,West 1
Goaclinic24x7,Medical clinic,"Mandrem Beach Rd, Junaswada, Pernem, Mandrem, Goa 403527, India",https://www.google.co.kr/maps/place/Goaclinic24x7/data=!4m5!3m4!1s0x3bbfeeefbf928b19:0x15d2f6a562aeb5a0!8m2!3d15.6651526!4d73.7140636?authuser=0&hl=en&rclk=1,15.6651526,73.7140636,Goa,West 1
Dr. Neelam Borkar obstetrician gynecologist,Women's health clinic,"E 116,, Housing Board Rd, Gogol Housing Board, Margao, Goa 403601, India",https://www.google.co.kr/maps/place/Dr.+Neelam+Borkar+obstetrician+gynecologist/data=!4m5!3m4!1s0x3bbfb22c83b30a51:0x5b128ef1447de074!8m2!3d15.2836819!4d73.990057?authuser=0&hl=en&rclk=1,15.2836819,73.990057,Goa,West 1
Dr Brenan & Joanne Tavares,Doctor,"Margao Session Court, Borda, Margao, Goa 403601, India",https://www.google.co.kr/maps/place/Dr+Brenan+%26+Joanne+Tavares/data=!4m5!3m4!1s0x3bbfb31441c8b843:0xff761e3836a1767c!8m2!3d15.2810631!4d73.9582953?authuser=0&hl=en&rclk=1,15.2810631,73.9582953,Goa,West 1
Government Health Center,Medical Center,"CXPR+79G, Priol, Goa 403115, India",https://www.google.co.kr/maps/place/Government+Health+Center/data=!4m5!3m4!1s0x3bbfbb05b9f7deb7:0x1e7259283655550!8m2!3d15.4356965!4d73.9909565?authuser=0&hl=en&rclk=1,15.4356965,73.9909565,Goa,West 1
Dr. Brennan Tavares,Obstetrician-gynecologist,"Comba, Nehrunagar, Margao, Goa 403601, India",https://www.google.co.kr/maps/place/Dr.+Brennan+Tavares/data=!4m5!3m4!1s0x3bbfb3d2fffffffd:0x3e6ef8cd27470275!8m2!3d15.2811541!4d73.9582709?authuser=0&hl=en&rclk=1,15.2811541,73.9582709,Goa,West 1
Naik Dr Vijay R,Doctor,"Manipal Hospital, Dona Paula, Dona Paula, Goa, 403004, India",https://www.google.co.kr/maps/place/Naik+Dr+Vijay+R/data=!4m5!3m4!1s0x3bbfc0ccffffffff:0x23ae3488d1bc3a6f!8m2!3d15.4608185!4d73.8095221?authuser=0&hl=en&rclk=1,15.4608185,73.8095221,Goa,West 1
Dr. Vaibhav Dukle,Endocrinologist,"Dr. Dukle's Clinics, 219, 2nd floor, Gera Imperium Star, patto, next to Central Library, Panaji, Goa 403001, India",https://www.google.co.kr/maps/place/Dr.+Vaibhav+Dukle/data=!4m5!3m4!1s0x3bbfc14400c80e69:0xa802b7901d686d18!8m2!3d15.494636!4d73.8333948?authuser=0&hl=en&rclk=1,15.494636,73.8333948,Goa,West 1
Dr Jawaharlal Henriques,Doctor,"Badem Anjuna, Anjuna, Goa, 403509, India",https://www.google.co.kr/maps/place/Dr+Jawaharlal+Henriques/data=!4m5!3m4!1s0x3bbfe98655555555:0x78081a6d8755b940!8m2!3d15.5809248!4d73.7448437?authuser=0&hl=en&rclk=1,15.5809248,73.7448437,Goa,West 1
"Pinto Rosario Nursing Home, Hospital Maternidade",Nursing home,"GRX9+V95, Sabnis Valley, Aradi Socorro, Goa 403203, India","https://www.google.co.kr/maps/place/Pinto+Rosario+Nursing+Home,+Hospital+Maternidade/data=!4m5!3m4!1s0x3bbfeaa0003f9b61:0x2e75f8fefccf1910!8m2!3d15.5496258!4d73.818469?authuser=0&hl=en&rclk=1",15.5496258,73.818469,Goa,West 1
Doctor Rahul P.Borker,Doctor,"7XC7+6MW, Malbhat, Margao, Goa 403601, India",https://www.google.co.kr/maps/place/Doctor+Rahul+P.Borker/data=!4m5!3m4!1s0x3bbfb3c15f430d5d:0x8ae8426effda5dbe!8m2!3d15.2706209!4d73.9641945?authuser=0&hl=en&rclk=1,15.2706209,73.9641945,Goa,West 1
Dr Pawan Rane: Head Neck Cancer & Ear Nose Throat Surgeon,Medical clinic,"f03, Basilios Heights, Above Basilios Gym, St inez Near Caculo Mall, Panaji, Goa 403001, India",https://www.google.co.kr/maps/place/Dr+Pawan+Rane:+Head+Neck+Cancer+%26+Ear+Nose+Throat+Surgeon/data=!4m5!3m4!1s0x3bbfc16ee38fff59:0xa5a3d2609b7a991!8m2!3d15.4887209!4d73.8186205?authuser=0&hl=en&rclk=1,15.4887209,73.8186205,Goa,West 1
Dr Connie D'Silva,Doctor,"Victor Hospital, Old Station Rd, Malbhat, Margao, Goa 403601, India",https://www.google.co.kr/maps/place/Dr+Connie+D'Silva/data=!4m5!3m4!1s0x3bbfb3fde8c34657:0x8df70b9e81799bee!8m2!3d15.2689652!4d73.9663174?authuser=0&hl=en&rclk=1,15.2689652,73.9663174,Goa,West 1
Apollo Pharma,Medical Center,"7465+3J6, BEPQUEGAL, Vodlemol Cacora, Goa 403706, India",https://www.google.co.kr/maps/place/Apollo+Pharma/data=!4m5!3m4!1s0x3bbfad053b5f3199:0xf8dd6ccb49bccf46!8m2!3d15.2601618!4d74.109025?authuser=0&hl=en&rclk=1,15.2601618,74.109025,Goa,West 1
Sheldekar Dr Vishnu V,Doctor,"Sheldekar Nursing Home, Savordam, Savordam, Curchorem, Goa 403706, India",https://www.google.co.kr/maps/place/Sheldekar+Dr+Vishnu+V/data=!4m5!3m4!1s0x3bbfac64f093064d:0x6c1ec2458b97895e!8m2!3d15.2637674!4d74.1066454?authuser=0&hl=en&rclk=1,15.2637674,74.1066454,Goa,West 1
Infant Jesus Nursing Home,Nursing home,"opposite Alcon hyundai Agalli, Borda, Margao, Goa 403601, India",https://www.google.co.kr/maps/place/Infant+Jesus+Nursing+Home/data=!4m5!3m4!1s0x3bbfb3e9c143a8a7:0x877842243a955f7f!8m2!3d15.2903956!4d73.9772988?authuser=0&hl=en&rclk=1,15.2903956,73.9772988,Goa,West 1
Dr Panandikar's Neuroclinic and Diagnostic Centre/Dr Gajanan Panandikar,Neurologist,"Vasant Arcade, Office no 1 , first floor, Da Costa Rd, Comba, Margao, Goa 403601, India",https://www.google.co.kr/maps/place/Dr+Panandikar's+Neuroclinic+and+Diagnostic+Centre%2FDr+Gajanan+Panandikar/data=!4m5!3m4!1s0x3bbfb3108dabcdb3:0xa60673a65c9caba3!8m2!3d15.274906!4d73.9553612?authuser=0&hl=en&rclk=1,15.274906,73.9553612,Goa,West 1
Dr.Anil S. Kakodkar,Doctor,"Curchorem to Sanvordem road, BEPQUEGAL, Vodlemol Cacora, Goa 403706, India",https://www.google.co.kr/maps/place/Dr.Anil+S.+Kakodkar/data=!4m5!3m4!1s0x3bbfac65849c774d:0x580248f742f91204!8m2!3d15.2628938!4d74.1096037?authuser=0&hl=en&rclk=1,15.2628938,74.1096037,Goa,West 1
Dr Antonio Figueiredo,Doctor,"Isidora, Isidorio Baptista Rd, Margao, Goa 403601, India",https://www.google.co.kr/maps/place/Dr+Antonio+Figueiredo/data=!4m5!3m4!1s0x3bbfb3df01df78ad:0xc7558f5eb1c6cd80!8m2!3d15.2724658!4d73.9625194?authuser=0&hl=en&rclk=1,15.2724658,73.9625194,Goa,West 1
Sheldekar Nursing Home,Nursing home,"near Preeti Apartments, BEPQUEGAL, Vodlemol Cacora, Goa 403706, India",https://www.google.co.kr/maps/place/Sheldekar+Nursing+Home/data=!4m5!3m4!1s0x3bbfac65fc1e1d05:0x928d4582be158460!8m2!3d15.2636406!4d74.1066724?authuser=0&hl=en&rclk=1,15.2636406,74.1066724,Goa,West 1
Cherry Tomato,·₩₩,"Rua De Saudades Road, Pajiifond, behind Hosoicio Govt Hospital, Margao, Goa 403601, India",https://www.google.co.kr/maps/place/Cherry+Tomato/data=!4m5!3m4!1s0x3bbfb404197e20eb:0x3995e1ded9255646!8m2!3d15.2782134!4d73.9610744?authuser=0&hl=en&rclk=1,15.2782134,73.9610744,Goa,West 1
Dr Kasbekar Sterling Hospital,General hospital,"Sion - Panvel Expy, Sector 7, Vashi, Navi Mumbai, Maharashtra 400703, India",https://www.google.co.kr/maps/place/Dr+Kasbekar+Sterling+Hospital/data=!4m5!3m4!1s0x3be7c6b67f73b3d7:0x6256f6239ebc9f09!8m2!3d19.0698822!4d72.9874113?authuser=0&hl=en&rclk=1,19.0698822,72.9874113,Maharashtra,West 1
Jehangir Hospital,General hospital,"32, Sasoon Rd, Opposite Railway Station, Central Excise Colony, Sangamvadi, Pune, Maharashtra 411001, India",https://www.google.co.kr/maps/place/Jehangir+Hospital/data=!4m5!3m4!1s0x3bc2c05816d29283:0xfe98c3452724e113!8m2!3d18.5303448!4d73.8767266?authuser=0&hl=en&rclk=1,18.5303448,73.8767266,Maharashtra,West 1
"Wockhardt Hospital, Nashik",Hospital,"Wani House, Mumbai - Agra National Hwy, Wadala Naka, Nashik, Maharashtra 422001, India","https://www.google.co.kr/maps/place/Wockhardt+Hospital,+Nashik/data=!4m5!3m4!1s0x3bddeb036d423f9f:0x5e9b17cbe10809ab!8m2!3d19.9915858!4d73.7904216?authuser=0&hl=en&rclk=1",19.9915858,73.7904216,Maharashtra,West 1
Saifee Hospital,Private hospital,"15/17, Maharshi Karve Rd, Charni Road East, Opera House, Girgaon, Mumbai, Maharashtra 400004, India",https://www.google.co.kr/maps/place/Saifee+Hospital/data=!4m5!3m4!1s0x3be7ce1a9b19f6e5:0xc8b9c2b8a00a89ae!8m2!3d18.9525179!4d72.8182311?authuser=0&hl=en&rclk=1,18.9525179,72.8182311,Maharashtra,West 1
Wockhardt Super Speciality Hospitals,Hospital,"1643 North Ambazari Road Daga College, beside Lady Amritbai, Shankar Nagar, Nagpur, Maharashtra 440033, India",https://www.google.co.kr/maps/place/Wockhardt+Super+Speciality+Hospitals/data=!4m5!3m4!1s0x3bd4c062371add07:0x799e386a8892d428!8m2!3d21.1347198!4d79.0585623?authuser=0&hl=en&rclk=1,21.1347198,79.0585623,Maharashtra,West 1
"Sahyadri Super Speciality Hospital, Deccan Gymkhana",Specialized hospital,"Plot No. 30-C, Erandvane, Karve Rd, Deccan Gymkhana, Pune, Maharashtra 411004, India","https://www.google.co.kr/maps/place/Sahyadri+Super+Speciality+Hospital,+Deccan+Gymkhana/data=!4m5!3m4!1s0x3bc2bf89a5c2551f:0xe5a1afe1c6049f8b!8m2!3d18.513111!4d73.8392905?authuser=0&hl=en&rclk=1",18.513111,73.8392905,Maharashtra,West 1
Holy Spirit Hospital,General hospital,"Mahakali Caves Rd, Sher E Punjab Colony, Andheri East, Mumbai, Maharashtra 400093, India",https://www.google.co.kr/maps/place/Holy+Spirit+Hospital/data=!4m5!3m4!1s0x3be7c827a060a6bb:0x81664138aa674942!8m2!3d19.1284192!4d72.866633?authuser=0&hl=en&rclk=1,19.1284192,72.866633,Maharashtra,West 1
King Edward Memorial Hospital,Government hospital,"Acharya Donde Marg, Parel East, Parel, Mumbai, Maharashtra 400012, India",https://www.google.co.kr/maps/place/King+Edward+Memorial+Hospital/data=!4m5!3m4!1s0x3be7cee53670c759:0x3509dc5c13cbc2e0!8m2!3d19.0025221!4d72.8415408?authuser=0&hl=en&rclk=1,19.0025221,72.8415408,Maharashtra,West 1
Breach Candy Hospital Trust,General hospital,"60 A, Bhulabhai Desai Marg, Breach Candy, Cumballa Hill, Mumbai, Maharashtra 400026, India",https://www.google.co.kr/maps/place/Breach+Candy+Hospital+Trust/data=!4m5!3m4!1s0x3be7ce7986619a4d:0x6009024207017fce!8m2!3d18.9725348!4d72.8045668?authuser=0&hl=en&rclk=1,18.9725348,72.8045668,Maharashtra,West 1
Sahyadri Super Speciality Hospital Nashik,Private hospital,"Mumbai-Agra Road, Wadala Rd, near Nashik, Dwarka Circle, Maharashtra 422001, India",https://www.google.co.kr/maps/place/Sahyadri+Super+Speciality+Hospital+Nashik/data=!4m5!3m4!1s0x3bddeb1d38dca1c5:0x73c2f6bcf29e6071!8m2!3d19.98924!4d73.793471?authuser=0&hl=en&rclk=1,19.98924,73.793471,Maharashtra,West 1
Currae Gynaec | IVF | Birthing Hospital,Hospital,"Rosa Vista, MH SH 42, opp. Suraj Water Park, Thane, Maharashtra 400607, India",https://www.google.co.kr/maps/place/Currae+Gynaec+%7C+IVF+%7C+Birthing+Hospital/data=!4m5!3m4!1s0x3be7bb9355dccf93:0x150317e8c7bcee4e!8m2!3d19.2559341!4d72.9715899?authuser=0&hl=en&rclk=1,19.2559341,72.9715899,Maharashtra,West 1
Fortis Hiranandani Hospital,Private hospital,"Mini, Seashore Rd, Juhu Nagar, Sector 10A, Vashi, Navi Mumbai, Maharashtra 400703, India",https://www.google.co.kr/maps/place/Fortis+Hiranandani+Hospital/data=!4m5!3m4!1s0x3be7c132f4eeeb11:0xbbfa8e7f5cefbc33!8m2!3d19.0836483!4d72.9959203?authuser=0&hl=en&rclk=1,19.0836483,72.9959203,Maharashtra,West 1
Bhatia Hospital,General hospital,"Tardeo Rd, Old Chikalwadi, Grant Road (W), Tardeo, Mumbai, Maharashtra 400007, India",https://www.google.co.kr/maps/place/Bhatia+Hospital/data=!4m5!3m4!1s0x3be7ce72e0d235f1:0x698fc7b311d5db8b!8m2!3d18.9657188!4d72.8132737?authuser=0&hl=en&rclk=1,18.9657188,72.8132737,Maharashtra,West 1
Deccan Hardikar Hospital | Multispeciality Hospital In Pune,Hospital,"1160/61, University Rd, Revenue Colony, Shivajinagar, Pune, Maharashtra 411005, India",https://www.google.co.kr/maps/place/Deccan+Hardikar+Hospital+%7C+Multispeciality+Hospital+In+Pune/data=!4m5!3m4!1s0x3bc2c080b5a1ac0b:0xdfdf8b393abef469!8m2!3d18.5304104!4d73.8474815?authuser=0&hl=en&rclk=1,18.5304104,73.8474815,Maharashtra,West 1
Bethany Hospital,General hospital,"Pokharan Rd Number 2, Shastri Nagar, Thane West, Thane, Maharashtra 400606, India",https://www.google.co.kr/maps/place/Bethany+Hospital/data=!4m5!3m4!1s0x3be7b944f8bc26c5:0x14f6acc6f69fd2bc!8m2!3d19.2199089!4d72.9617769?authuser=0&hl=en&rclk=1,19.2199089,72.9617769,Maharashtra,West 1
D Y Patil Hospital,Hospital,"Ayyappa Rd, Dr D Y Patil Vidyanagar, Sector 5, Nerul, Navi Mumbai, Maharashtra 400706, India",https://www.google.co.kr/maps/place/D+Y+Patil+Hospital/data=!4m5!3m4!1s0x3be7c618a5555555:0xa446b85191e625c8!8m2!3d19.0411561!4d73.0246854?authuser=0&hl=en&rclk=1,19.0411561,73.0246854,Maharashtra,West 1
Kohinoor Hospital,Private hospital,"Kirol Road, Off, Lalbahadur Shastri Rd, Kurla West, Mumbai, Maharashtra 400070, India",https://www.google.co.kr/maps/place/Kohinoor+Hospital/data=!4m5!3m4!1s0x3be7c88f4dc6333b:0x9b988603d0ef51fe!8m2!3d19.0760717!4d72.8862889?authuser=0&hl=en&rclk=1,19.0760717,72.8862889,Maharashtra,West 1
"Fortis Hospital, Kalyan, Mumbai",Specialized hospital,"Shill Road, Bhanunagar Kalyan(West), Bail Bazar, Bhoiwada, Kalyan, Maharashtra 421301, India","https://www.google.co.kr/maps/place/Fortis+Hospital,+Kalyan,+Mumbai/data=!4m5!3m4!1s0x3be795d0794129ed:0x71b95313c464b833!8m2!3d19.2374239!4d73.1235197?authuser=0&hl=en&rclk=1",19.2374239,73.1235197,Maharashtra,West 1
Seven Hills Hospital,General hospital,"Marol Maroshi Rd, Mahavir Nagar, Pandit Dindayala Upadhaya Nagar, Andheri East, Mumbai, Maharashtra 400059, India",https://www.google.co.kr/maps/place/Seven+Hills+Hospital/data=!4m5!3m4!1s0x3be7c817a728ddeb:0x9599a624daf494d3!8m2!3d19.1179997!4d72.8780374?authuser=0&hl=en&rclk=1,19.1179997,72.8780374,Maharashtra,West 1
Yashwantrao Chavan Memorial Hospital,Government hospital,"YCM Hospital Rd, Sant Tukaram Nagar, Pimpri Colony, Pune, Maharashtra 411018, India",https://www.google.co.kr/maps/place/Yashwantrao+Chavan+Memorial+Hospital/data=!4m5!3m4!1s0x3bc2b860fbe326e1:0x798186edcd411aba!8m2!3d18.6218194!4d73.8210282?authuser=0&hl=en&rclk=1,18.6218194,73.8210282,Maharashtra,West 1
Prince Aly Khan Hospital,General hospital,"Jamatkhana Building, Nesbit Rd, Tara Bagh, Mazgaon, Mumbai, Maharashtra 400010, India",https://www.google.co.kr/maps/place/Prince+Aly+Khan+Hospital/data=!4m5!3m4!1s0x3be7ce4662751de5:0x8ec7800e0e15e582!8m2!3d18.9708409!4d72.8365499?authuser=0&hl=en&rclk=1,18.9708409,72.8365499,Maharashtra,West 1
S L Raheja Hospital - Fortis associate,Hospital,"Raheja Rugnalaya Marg, Mahim West, Mahim, Mumbai, Maharashtra 400016, India",https://www.google.co.kr/maps/place/S+L+Raheja+Hospital+-+Fortis+associate/data=!4m5!3m4!1s0x3be7c92f84c13ec9:0x807c1cbf1b5e8536!8m2!3d19.0462839!4d72.8426792?authuser=0&hl=en&rclk=1,19.0462839,72.8426792,Maharashtra,West 1
Suyash Hospital,Hospital,"Ahilyabai Holkar Road, Matoshree Nagar, Ahilyadevi Holkar Rd, Matoshree Nagar, Nashik, Maharashtra 422002, India",https://www.google.co.kr/maps/place/Suyash+Hospital/data=!4m5!3m4!1s0x3bddeb0e291dc65d:0x14a9117a8e5a17c6!8m2!3d19.9889793!4d73.7796677?authuser=0&hl=en&rclk=1,19.9889793,73.7796677,Maharashtra,West 1
AIMS Hospital,Specialized hospital,"M.I.D.C., Rd Number 5, Milap Nagar, Dombivli East, Dombivli, Maharashtra 421203, India",https://www.google.co.kr/maps/place/AIMS+Hospital/data=!4m5!3m4!1s0x3be79599862186ab:0x27b14763af33ca2c!8m2!3d19.2079027!4d73.1056245?authuser=0&hl=en&rclk=1,19.2079027,73.1056245,Maharashtra,West 1
Applo Hospital,General hospital,"Parsik Hill Rd, Sector 23, CBD Belapur, Navi Mumbai, Maharashtra 400614, India",https://www.google.co.kr/maps/place/Applo+Hospital/data=!4m5!3m4!1s0x3be7c21470ac3397:0x2994c3279b08e083!8m2!3d19.0378551!4d73.0696542?authuser=0&hl=en&rclk=1,19.0378551,73.0696542,Maharashtra,West 1
Columbia Asia Hospital Pune,General hospital,"22, 2A, Mundhwa - Kharadi Rd, Near Nyati Empire, Santipur, Thite Nagar, Kharadi, Pune, Maharashtra 411014, India",https://www.google.co.kr/maps/place/Columbia+Asia+Hospital+Pune/data=!4m5!3m4!1s0x3bc2c17e1f71097f:0xb8128b27d5b8e139!8m2!3d18.5410718!4d73.9357171?authuser=0&hl=en&rclk=1,18.5410718,73.9357171,Maharashtra,West 1
Kamalnayan Bajaj Hospital,Hospital,"Bajaj Marg, Gut No 43, Beed Bypass Rd, Satara Deolai Parisar, Aurangabad, Maharashtra 431010, India",https://www.google.co.kr/maps/place/Kamalnayan+Bajaj+Hospital/data=!4m5!3m4!1s0x3bdb98f39ca15447:0x96c2632e2aaa42c!8m2!3d19.851538!4d75.314769?authuser=0&hl=en&rclk=1,19.851538,75.314769,Maharashtra,West 1
Sion Hospital,Hospital,"RB2 Central Railway Quarters, Jain Society, Sion, Mumbai, Maharashtra 400022, India",https://www.google.co.kr/maps/place/Sion+Hospital/data=!4m5!3m4!1s0x3be7cf83a1cbd209:0x1c49ca459d6779c2!8m2!3d19.036607!4d72.860112?authuser=0&hl=en&rclk=1,19.036607,72.860112,Maharashtra,West 1
Wockhardt Hospitals,Hospital,"The Umrao Institute of Medical Science and Research, Evershine Rd, near Railway Station, Naya Nagar, Mira Road, Mira Bhayandar, Maharashtra 401107, India",https://www.google.co.kr/maps/place/Wockhardt+Hospitals/data=!4m5!3m4!1s0x3be7b04f4d02f227:0x3f76483fe3d607f!8m2!3d19.28432!4d72.8621553?authuser=0&hl=en&rclk=1,19.28432,72.8621553,Maharashtra,West 1
Thunga Hospitals,Hospital,"64, Swami Vivekananda Rd, Malad, Reserve Bank of India Staff Quarters, Raheja Twp, Malad West, Mumbai, Maharashtra 400064, India",https://www.google.co.kr/maps/place/Thunga+Hospitals/data=!4m5!3m4!1s0x3be7b6e393044973:0x4d42e725501e888!8m2!3d19.1897433!4d72.8465959?authuser=0&hl=en&rclk=1,19.1897433,72.8465959,Maharashtra,West 1
Nanavati Super Speciality Hospital,Private hospital,"Swami Vivekananda Rd, near LIC, LIC Colony, Suresh Colony, Vile Parle West, Mumbai, Maharashtra 400056, India",https://www.google.co.kr/maps/place/Nanavati+Super+Speciality+Hospital/data=!4m5!3m4!1s0x3be7c9cf3d7e6811:0x44a05f975f97e7e0!8m2!3d19.0958737!4d72.8401187?authuser=0&hl=en&rclk=1,19.0958737,72.8401187,Maharashtra,West 1
United CIIGMA Hospital,Specialized hospital,"Plot no 6, 7, Darga Rd, Shahnoorwadi, Aurangabad, Maharashtra 431005, India",https://www.google.co.kr/maps/place/United+CIIGMA+Hospital/data=!4m5!3m4!1s0x3bdb9880a5000001:0xb220728829833101!8m2!3d19.8593755!4d75.3362985?authuser=0&hl=en&rclk=1,19.8593755,75.3362985,Maharashtra,West 1
Reliance Hospital - Navi Mumbai,Hospital,"Thane - Belapur Rd, opp. Kopar Khairane Station, next to Dhirubhai Ambani Knowledge City, Dhirubhai Ambani Knowledge City, MIDC Industrial Area, Kopar Khairane, Navi Mumbai, Maharashtra 400710, India",https://www.google.co.kr/maps/place/Reliance+Hospital+-+Navi+Mumbai/data=!4m5!3m4!1s0x3be7c0de93e7897b:0x8b1917237744e89b!8m2!3d19.1029013!4d73.0130259?authuser=0&hl=en&rclk=1,19.1029013,73.0130259,Maharashtra,West 1
Wockhardt Heart Hospital,Hospital,"27, Ambazari Rd, Corporation Colony, Gandhi Lay Out, Nagpur, Maharashtra 440033, India",https://www.google.co.kr/maps/place/Wockhardt+Heart+Hospital/data=!4m5!3m4!1s0x3bd4c0647e85b811:0x4d5a45497f34ddf1!8m2!3d21.132224!4d79.054085?authuser=0&hl=en&rclk=1,21.132224,79.054085,Maharashtra,West 1
MPCT Hospital,Hospital,"C7, Budhyadev Mandir Marg, Sector 4, Sanpada, Navi Mumbai, Maharashtra 400705, India",https://www.google.co.kr/maps/place/MPCT+Hospital/data=!4m5!3m4!1s0x3be7c15cb5740b23:0xe449834910676dda!8m2!3d19.0632898!4d73.0123945?authuser=0&hl=en&rclk=1,19.0632898,73.0123945,Maharashtra,West 1
"NH SRCC Children's Hospital, Mumbai",Children's hospital,"1, 1A, Keshavrao Khadye Marg, Haji Ali, Haji Ali Government Colony, Mahalakshmi, Mumbai, Maharashtra 400034, India","https://www.google.co.kr/maps/place/NH+SRCC+Children's+Hospital,+Mumbai/data=!4m5!3m4!1s0x3be7ce7ba69677b1:0x1ccfbe82b0fe3246!8m2!3d18.9793906!4d72.8128744?authuser=0&hl=en&rclk=1",18.9793906,72.8128744,Maharashtra,West 1
Fortis hospital,Hospital,"MQP4+G72, Vajulsar, Palghar, Maharashtra 401404, India",https://www.google.co.kr/maps/place/Fortis+hospital/data=!4m5!3m4!1s0x3be71d53558ae6bb:0x1f3b16e3728e6f9e!8m2!3d19.6862662!4d72.7556347?authuser=0&hl=en&rclk=1,19.6862662,72.7556347,Maharashtra,West 1
Surya Hospitals,Children's hospital,"Mangal Ashirwad Building, Santacruz West, 101-102, Swami Vivekananda Rd, Mumbai, Maharashtra 400054, India",https://www.google.co.kr/maps/place/Surya+Hospitals/data=!4m5!3m4!1s0x3be7c9a669e34eef:0xe4c3095ea3853d52!8m2!3d19.0856333!4d72.8377754?authuser=0&hl=en&rclk=1,19.0856333,72.8377754,Maharashtra,West 1
Hospital,Hospital,"1, MH SH 164, Lamjana, Maharashtra 413516, India",https://www.google.co.kr/maps/place/Hospital/data=!4m5!3m4!1s0x3bcf652a52443595:0x64e3c1e1b1d01bbe!8m2!3d18.1408137!4d76.5977044?authuser=0&hl=en&rclk=1,18.1408137,76.5977044,Maharashtra,West 1
Chaitanya Hospital,Children's hospital,"NDA Rd, Bhagirathi Nagar, Warje, Pune, Maharashtra 411023, India",https://www.google.co.kr/maps/place/Chaitanya+Hospital/data=!4m5!3m4!1s0x3bc2957c15555555:0x3f9fa43a5277e929!8m2!3d18.4778445!4d73.7977384?authuser=0&hl=en&rclk=1,18.4778445,73.7977384,Maharashtra,West 1
ESIC Hospital,Hospital,"CFC Building, MIDC Rd, MIDC Ambad, Nashik, Maharashtra 422010, India",https://www.google.co.kr/maps/place/ESIC+Hospital/data=!4m5!3m4!1s0x3bddeb7fd427866d:0xf51a83226bad5ad0!8m2!3d19.9526816!4d73.753516?authuser=0&hl=en&rclk=1,19.9526816,73.753516,Maharashtra,West 1
Hospital,Hospital,"444109, Teacher Colony, Paras, Balapur, Maharashtra 444109, India",https://www.google.co.kr/maps/place/Hospital/data=!4m5!3m4!1s0x3bd749d18ace81ab:0xb9b491572ff36041!8m2!3d20.719192!4d76.8159548?authuser=0&hl=en&rclk=1,20.719192,76.8159548,Maharashtra,West 1
Ruby Hall Clinic,Hospital,"40, Sasoon Rd, Sangamvadi, Pune, Maharashtra 411001, India",https://www.google.co.kr/maps/place/Ruby+Hall+Clinic/data=!4m5!3m4!1s0x3bc2c0f827512e15:0x47538bcedae49c07!8m2!3d18.5336111!4d73.8771929?authuser=0&hl=en&rclk=1,18.5336111,73.8771929,Maharashtra,West 1
Sahyadri Super Speciality Hospital Nagar Road,Hospital,"Nagar Rd, Near Hermes Heritage, Phase II, Hermes Heritage Society Phase 1, Shastrinagar, Yerawada, Pune, Maharashtra 411006, India",https://www.google.co.kr/maps/place/Sahyadri+Super+Speciality+Hospital+Nagar+Road/data=!4m5!3m4!1s0x3bc2c1b586a30977:0x83beefa066ed5e4!8m2!3d18.5542577!4d73.8970961?authuser=0&hl=en&rclk=1,18.5542577,73.8970961,Maharashtra,West 1
Civil Hospital,General hospital,"3X8C+2J6, Gaudgaon, Maharashtra 413406, India",https://www.google.co.kr/maps/place/Civil+Hospital/data=!4m5!3m4!1s0x3bc5bb6d6f72c345:0xb1ba3f34a962a2b9!8m2!3d18.065045!4d75.971505?authuser=0&hl=en&rclk=1,18.065045,75.971505,Maharashtra,West 1
Tata Memorial Hospital,Hospital,"XRXQ+328, Parel East, Parel, Mumbai, Maharashtra 400012, India",https://www.google.co.kr/maps/place/Tata+Memorial+Hospital/data=!4m5!3m4!1s0x3be7cf5cb4cef931:0xa39dd0076d8dbb5e!8m2!3d18.9976573!4d72.8375932?authuser=0&hl=en&rclk=1,18.9976573,72.8375932,Maharashtra,West 1
Ashirwad Maternity & Nursing Home,Maternity hospital,"Highland Park, E-5, Guru Gobind Singh Marg, Jai Shastri Nagar, Mulund Colony, Mulund, W, Maharashtra 400082, India",https://www.google.co.kr/maps/place/Ashirwad+Maternity+%26+Nursing+Home/data=!4m5!3m4!1s0x3be7b85603790f77:0x773763381a0f6c25!8m2!3d19.1702688!4d72.9322053?authuser=0&hl=en&rclk=1,19.1702688,72.9322053,Maharashtra,West 1
Zynova Shalby Hospital,Hospital,"Acme Elanza, 1900, 1917, Ghatkopar West, Maharashtra 400086, India",https://www.google.co.kr/maps/place/Zynova+Shalby+Hospital/data=!4m5!3m4!1s0x3be7c7a7a74ac869:0xf253f2ea7466b26a!8m2!3d19.0887105!4d72.9064944?authuser=0&hl=en&rclk=1,19.0887105,72.9064944,Maharashtra,West 1
Jagjivan Ram Hospital,Government hospital,"M M Marg, RBI Staff Colony, Mumbai Central, Mumbai, Maharashtra 400008, India",https://www.google.co.kr/maps/place/Jagjivan+Ram+Hospital/data=!4m5!3m4!1s0x3be7ce6bd98ecdd7:0x7f1ff8962f4a1653!8m2!3d18.9705872!4d72.8240293?authuser=0&hl=en&rclk=1,18.9705872,72.8240293,Maharashtra,West 1
Surana Sethia Hospital,Hospital,"Sion - Trombay Rd, Suman Nagar, Chembur, Mumbai, Maharashtra 400071, India",https://www.google.co.kr/maps/place/Surana+Sethia+Hospital/data=!4m5!3m4!1s0x3be7c8a532a9330d:0xc54e046c3cd771bd!8m2!3d19.0535473!4d72.8870158?authuser=0&hl=en&rclk=1,19.0535473,72.8870158,Maharashtra,West 1
Hospital,Hospital,"Unnamed Road, Suvarna Nagaar, Buldana, Maharashtra 443001, India",https://www.google.co.kr/maps/place/Hospital/data=!4m5!3m4!1s0x3bd9f57fd1e8e199:0x1c08c97c9ceb82b4!8m2!3d20.534973!4d76.175732?authuser=0&hl=en&rclk=1,20.534973,76.175732,Maharashtra,West 1
MGM Hospital,General hospital,"Plot No.35, Atmashanti Society, Sector 3, Vashi, Navi Mumbai, Maharashtra 400703, India",https://www.google.co.kr/maps/place/MGM+Hospital/data=!4m5!3m4!1s0x3be7c6caa94cef59:0xd2977d80d17491e8!8m2!3d19.0726862!4d72.993435?authuser=0&hl=en&rclk=1,19.0726862,72.993435,Maharashtra,West 1
Thunga Hospital,Hospital,"Mira Bhayander Rd, Medetiya Nagar, Queens Park, Mira Road, Mira Bhayandar, Maharashtra 401107, India",https://www.google.co.kr/maps/place/Thunga+Hospital/data=!4m5!3m4!1s0x3be7b03793dc7d1b:0x7ef027b7d3317cf1!8m2!3d19.2922486!4d72.8623682?authuser=0&hl=en&rclk=1,19.2922486,72.8623682,Maharashtra,West 1
ESIC,Hospital,"ESIC HOSPITAL, Shrirampur, Maharashtra 413709, India",https://www.google.co.kr/maps/place/ESIC/data=!4m5!3m4!1s0x3bdc8bba907b6269:0x7b4843545d6ec322!8m2!3d19.6170641!4d74.6669433?authuser=0&hl=en&rclk=1,19.6170641,74.6669433,Maharashtra,West 1
Sarkari hospital,Hospital,"5XW4+RG9, Pune, Maharashtra 410511, India",https://www.google.co.kr/maps/place/Sarkari+hospital/data=!4m5!3m4!1s0x3bdd3d4e93943df3:0x276e1fbf9c8dcb14!8m2!3d19.1970303!4d73.9563735?authuser=0&hl=en&rclk=1,19.1970303,73.9563735,Maharashtra,West 1
Hospital,Hospital,"67C5+XVV, Bandhane Pada, Maharashtra 421503, India",https://www.google.co.kr/maps/place/Hospital/data=!4m5!3m4!1s0x3be79265cf8ceca3:0xb27bed718e77ae8f!8m2!3d19.2224967!4d73.2596808?authuser=0&hl=en&rclk=1,19.2224967,73.2596808,Maharashtra,West 1
Thunga Hospital,Private hospital,"AM-32, Tarapur M.I.D.C., Boisar, Maharashtra 401506, India",https://www.google.co.kr/maps/place/Thunga+Hospital/data=!4m5!3m4!1s0x3be71e44c72e1d83:0x7e285708f3340347!8m2!3d19.7926051!4d72.7441002?authuser=0&hl=en&rclk=1,19.7926051,72.7441002,Maharashtra,West 1
Asian Heart Institute,Heart hospital,"Bandra Kurla Complex, G / N, Bandra (E, Mumbai, Maharashtra 400051, India",https://www.google.co.kr/maps/place/Asian+Heart+Institute/data=!4m5!3m4!1s0x3be7c8e632b92973:0xfc994ae0b57a17a4!8m2!3d19.0655735!4d72.8609409?authuser=0&hl=en&rclk=1,19.0655735,72.8609409,Maharashtra,West 1
Bharati Hospital,General hospital,"Pune - Satara Rd, Bharati Vidyapeeth Campus, Dhankawadi, Pune, Maharashtra 411043, India",https://www.google.co.kr/maps/place/Bharati+Hospital/data=!4m5!3m4!1s0x3bc2eac774d3791d:0x136f70e79d9a7965!8m2!3d18.459349!4d73.857241?authuser=0&hl=en&rclk=1,18.459349,73.857241,Maharashtra,West 1
Rajawadi Hospital,Government hospital,"7, Mahatma Gandhi Rd, near Somaiya College, Rajawadi Colony, Ghatkopar East, Mumbai, Maharashtra 400077, India",https://www.google.co.kr/maps/place/Rajawadi+Hospital/data=!4m5!3m4!1s0x3be7c7cfaaaaaaab:0xb1ff197fb26340fe!8m2!3d19.0786829!4d72.9012076?authuser=0&hl=en&rclk=1,19.0786829,72.9012076,Maharashtra,West 1
civil hospital,Hospital,"JM5Q+48P, Wakles Colony, Jintur, Maharashtra 431509, India",https://www.google.co.kr/maps/place/civil+hospital/data=!4m5!3m4!1s0x3bd06f083c854afd:0xfd56fc0b777dd9bd!8m2!3d19.6078259!4d76.6883278?authuser=0&hl=en&rclk=1,19.6078259,76.6883278,Maharashtra,West 1
MANGESH HOSPITAL,Hospital,"MH SH 27, Perne, Maharashtra 412210, India",https://www.google.co.kr/maps/place/MANGESH+HOSPITAL/data=!4m5!3m4!1s0x3bc32f9c7f3329bf:0x23d7335a1844162d!8m2!3d18.7973974!4d74.3238605?authuser=0&hl=en&rclk=1,18.7973974,74.3238605,Maharashtra,West 1
Alexis Multispecialty Hospital,Hospital,"232, Mankapur, Koradi Rd, Byramji Town, Nagpur, Maharashtra 440030, India",https://www.google.co.kr/maps/place/Alexis+Multispecialty+Hospital/data=!4m5!3m4!1s0x3bd4c113d847dcbf:0x7fd062d82b6be17c!8m2!3d21.1857573!4d79.0795349?authuser=0&hl=en&rclk=1,21.1857573,79.0795349,Maharashtra,West 1
"Wockhardt Hospitals, Mumbai Central",Private hospital,"Police Station, 1877, Dr Anandrao Nair Marg, Near Agripada, Mumbai Central, Mumbai, Maharashtra 400011, India","https://www.google.co.kr/maps/place/Wockhardt+Hospitals,+Mumbai+Central/data=!4m5!3m4!1s0x3be7ce689ca59091:0x2cc84b316383c1c1!8m2!3d18.9752117!4d72.8238875?authuser=0&hl=en&rclk=1",18.9752117,72.8238875,Maharashtra,West 1
Hospital,Hospital,"M378+4F3, Karadgaon, Maharashtra 431207, India",https://www.google.co.kr/maps/place/Hospital/data=!4m5!3m4!1s0x3bdaf33f648b54ff:0xcd6cc0df02541e17!8m2!3d19.6627562!4d76.0661821?authuser=0&hl=en&rclk=1,19.6627562,76.0661821,Maharashtra,West 1
Dr.rawut hospital,General hospital,"XV59+WCF, Mirakhnagar, Maharashtra 423703, India",https://www.google.co.kr/maps/place/Dr.rawut+hospital/data=!4m5!3m4!1s0x3bdc736e1bc2268b:0x9ac95565e48604b6!8m2!3d19.959824!4d74.8685398?authuser=0&hl=en&rclk=1,19.959824,74.8685398,Maharashtra,West 1
Sahyadri Super Specialty Hospital,Hospital,"SN 163, Bhosale Garden Rd, beside Bhosale Nagar, Hadapsar, Pune, Maharashtra 411028, India",https://www.google.co.kr/maps/place/Sahyadri+Super+Specialty+Hospital/data=!4m5!3m4!1s0x3bc2c1f76ced78d7:0xeffa72af5128eaab!8m2!3d18.5030328!4d73.9321202?authuser=0&hl=en&rclk=1,18.5030328,73.9321202,Maharashtra,West 1
Hiranandani Hospital,Hospital,"Hamilton B, Regency Street Hiranandani Estate, Off Ghodbunder Road, Patlipada, Thane West, Thane, Maharashtra 400607, India",https://www.google.co.kr/maps/place/Hiranandani+Hospital/data=!4m5!3m4!1s0x3be7bbf2035c2d17:0xb41727d44d8f9ef7!8m2!3d19.252558!4d72.9801821?authuser=0&hl=en&rclk=1,19.252558,72.9801821,Maharashtra,West 1
Bombay hospital,Hospital,"Bombay Hospital Ave, Dhobi Talao, Chhatrapati Shivaji Terminus Area, Fort, Mumbai, Maharashtra 400020, India",https://www.google.co.kr/maps/place/Bombay+hospital/data=!4m5!3m4!1s0x3be7d104e196ed13:0xffa3b3a2b967f1a5!8m2!3d18.9415016!4d72.8285039?authuser=0&hl=en&rclk=1,18.9415016,72.8285039,Maharashtra,West 1
Clinic hospital,General hospital,"Chikani Road, Nimgaon Bhojapur, Maharashtra 422605, India",https://www.google.co.kr/maps/place/Clinic+hospital/data=!4m5!3m4!1s0x3bddab8da22d26b7:0x37efef24e67a817b!8m2!3d19.621032!4d74.1361408?authuser=0&hl=en&rclk=1,19.621032,74.1361408,Maharashtra,West 1
Ambika Hospital,Private hospital,"Railway Line, opposite S T Stand, Songla, Jawaharlal Housing Society, Murarji Peth, Solapur, Maharashtra 413001, India",https://www.google.co.kr/maps/place/Ambika+Hospital/data=!4m5!3m4!1s0x3bc5d07a86f749b1:0x9deb10815c92c9ab!8m2!3d17.6599188!4d75.9063906?authuser=0&hl=en&rclk=1,17.6599188,75.9063906,Maharashtra,West 1
Hinduja Hospital,Hospital,"Shop no 2 R-6 sai siddhi complex, next to Hindu balasaheb thakre hospital, Mumbai, Maharashtra 400060, India",https://www.google.co.kr/maps/place/Hinduja+Hospital/data=!4m5!3m4!1s0x3be7b7c5dfdd1aeb:0x2e7c91bb56c00062!8m2!3d19.1410465!4d72.8541015?authuser=0&hl=en&rclk=1,19.1410465,72.8541015,Maharashtra,West 1
Gandhi Hospital,Hospital,"Sector 4, Airoli, Navi Mumbai, Maharashtra 400708, India",https://www.google.co.kr/maps/place/Gandhi+Hospital/data=!4m5!3m4!1s0x3be7bf517c74f783:0x8b8e5cfd14b329d0!8m2!3d19.1511117!4d72.999455?authuser=0&hl=en&rclk=1,19.1511117,72.999455,Maharashtra,West 1
Critical Hospital,Hospital,"6MF6+69G, Bhokar, Maharashtra 431801, India",https://www.google.co.kr/maps/place/Critical+Hospital/data=!4m5!3m4!1s0x3bd1e3e6e1cab5e3:0x767c89eefcd04c53!8m2!3d19.2230729!4d77.6609514?authuser=0&hl=en&rclk=1,19.2230729,77.6609514,Maharashtra,West 1
Cama And Albless Hospital,Government hospital,"Bmc office Mahapalika Marg opp. Azad Maidan, Dhobi Talao, Chhatrapati Shivaji Terminus Area, Fort, Mumbai, Maharashtra 400001, India",https://www.google.co.kr/maps/place/Cama+And+Albless+Hospital/data=!4m5!3m4!1s0x3be7d1df3ff2cb11:0xb0862c30da0c3064!8m2!3d18.9421721!4d72.8322919?authuser=0&hl=en&rclk=1,18.9421721,72.8322919,Maharashtra,West 1
INHS Asvini,Military hospital,"near RC Church, Navy Nagar, Colaba, Mumbai, Maharashtra 400005, India",https://www.google.co.kr/maps/place/INHS+Asvini/data=!4m5!3m4!1s0x3be7d191bd864df9:0x24789cce696cc75c!8m2!3d18.9001523!4d72.8152347?authuser=0&hl=en&rclk=1,18.9001523,72.8152347,Maharashtra,West 1
Civil Hospital,Hospital,"856W+XPX, Jalgaon, Maharashtra 425108, India",https://www.google.co.kr/maps/place/Civil+Hospital/data=!4m5!3m4!1s0x3bd8da358d37dd07:0x16674fcbf56fbba9!8m2!3d21.3124752!4d75.1968599?authuser=0&hl=en&rclk=1,21.3124752,75.1968599,Maharashtra,West 1
Mane Deshmukh Hospital,Hospital,"Pune - Pandharpur Rd, Velapur, Maharashtra 413113, India",https://www.google.co.kr/maps/place/Mane+Deshmukh+Hospital/data=!4m5!3m4!1s0x3bc40b8260d6e22f:0x414badfbf22758a6!8m2!3d17.9703597!4d74.5495122?authuser=0&hl=en&rclk=1,17.9703597,74.5495122,Maharashtra,West 1
Mamta Hospital,Private hospital,"Near, Shivaji Chowk, Mitra Nagar, Sawe Wadi, Latur, Maharashtra 413512, India",https://www.google.co.kr/maps/place/Mamta+Hospital/data=!4m5!3m4!1s0x3bcf83e9ee7d12c9:0xe5e2e89c0cb39411!8m2!3d18.3990826!4d76.5651869?authuser=0&hl=en&rclk=1,18.3990826,76.5651869,Maharashtra,West 1
Bombay Hospital Trust,Private hospital,"12, Vitthaldas Thackersey Marg, New Marine Lines, Marine Lines, Mumbai, Maharashtra 400020, India",https://www.google.co.kr/maps/place/Bombay+Hospital+Trust/data=!4m5!3m4!1s0x3be7d1e00d250293:0xa5051a8bcda8cd!8m2!3d18.941002!4d72.827324?authuser=0&hl=en&rclk=1,18.941002,72.827324,Maharashtra,West 1
Hospital,Hospital,"Service Rd, Shirwal, Maharashtra 412801, India",https://www.google.co.kr/maps/place/Hospital/data=!4m5!3m4!1s0x3bc2f7d39576e349:0x439760aee24b9950!8m2!3d18.1497145!4d73.9732942?authuser=0&hl=en&rclk=1,18.1497145,73.9732942,Maharashtra,West 1
Civil Hospital,Hospital,"Dodi - Manori Rd, Manori, Maharashtra 422606, India",https://www.google.co.kr/maps/place/Civil+Hospital/data=!4m5!3m4!1s0x3bddad7b847a424f:0x6bfad9c2cf9a410c!8m2!3d19.7513433!4d74.1385773?authuser=0&hl=en&rclk=1,19.7513433,74.1385773,Maharashtra,West 1
Avanti Hospital,Heart hospital,"5, Abhyankar Marg, Dhantoli, Nagpur, Maharashtra 440012, India",https://www.google.co.kr/maps/place/Avanti+Hospital/data=!4m5!3m4!1s0x3bd4c090e4bb2b6b:0xfa024b2c89599ff5!8m2!3d21.13189!4d79.0807382?authuser=0&hl=en&rclk=1,21.13189,79.0807382,Maharashtra,West 1
Arogyam Superspeciality Hospital,Hospital,"34, Sita Nagar Road, Wardha Rd, Rajiv Nagar, Somalwada, Nagpur, Maharashtra 440025, India",https://www.google.co.kr/maps/place/Arogyam+Superspeciality+Hospital/data=!4m5!3m4!1s0x3bd4bfbc37b50269:0xe78003ae0e3238c!8m2!3d21.1033708!4d79.0650157?authuser=0&hl=en&rclk=1,21.1033708,79.0650157,Maharashtra,West 1
Hospital,Hospital,"Kudal, Maharashtra 415513, India",https://www.google.co.kr/maps/place/Hospital/data=!4m5!3m4!1s0x3bc2415b71bcc585:0x947619c93e92b66c!8m2!3d17.8354281!4d73.9193416?authuser=0&hl=en&rclk=1,17.8354281,73.9193416,Maharashtra,West 1
Jain Hospital and Medical Center,Private hospital,"Block No. 43/341 Unnat Nagar 4, Mahatma Gandhi Rd, opposite Rosary Church, Goregaon West, Mumbai, Maharashtra 400090, India",https://www.google.co.kr/maps/place/Jain+Hospital+and+Medical+Center/data=!4m5!3m4!1s0x3be7b7b955555555:0xf7bf474940b9c4ba!8m2!3d19.1635703!4d72.8378355?authuser=0&hl=en&rclk=1,19.1635703,72.8378355,Maharashtra,West 1
C,Hospital,"Unnamed Road, Suvarna Nagaar, Buldana, Maharashtra 443001, India",https://www.google.co.kr/maps/place/C/data=!4m5!3m4!1s0x3bda1fa5f166f147:0x94552f9f6db6b7cb!8m2!3d20.5342324!4d76.1760466?authuser=0&hl=en&rclk=1,20.5342324,76.1760466,Maharashtra,West 1
"District Hospital, Buldana",Hospital,"G5MP+4JQ, Milind Nagar, Buldana, Maharashtra 443001, India","https://www.google.co.kr/maps/place/District+Hospital,+Buldana/data=!4m5!3m4!1s0x3bda1df8fc8c7bb1:0xd5e1a000b7cdd437!8m2!3d20.5328328!4d76.1865968?authuser=0&hl=en&rclk=1",20.5328328,76.1865968,Maharashtra,West 1
Naval Hospital,Government hospital,"Dockyard Goi Employees, Naval Civilian Housing Colony, Kanjurmarg West, Bhandup West, Mumbai, Maharashtra 400078, India",https://www.google.co.kr/maps/place/Naval+Hospital/data=!4m5!3m4!1s0x3be7c78baa45ed97:0xaa7090b80e662a49!8m2!3d19.1324915!4d72.9255148?authuser=0&hl=en&rclk=1,19.1324915,72.9255148,Maharashtra,West 1
Sahyadri Hospital,Hospital,"Opposite Of Rais Arcade Building, Palghar - Manor Rd, Maharashtra 401403, India",https://www.google.co.kr/maps/place/Sahyadri+Hospital/data=!4m5!3m4!1s0x3be711059c8ceb9b:0x36e3559d1c325c96!8m2!3d19.7242083!4d72.9111572?authuser=0&hl=en&rclk=1,19.7242083,72.9111572,Maharashtra,West 1
Super Speciality Hospital,Hospital,"Hanuman Nagar, Manewada Road Near Rashtra Sant Tukdoji, beside Cancer Hospital, Maharashtra 440024, India",https://www.google.co.kr/maps/place/Super+Speciality+Hospital/data=!4m5!3m4!1s0x3bd4bf4ec9119fc7:0x8c34eac1de28dbc9!8m2!3d21.1239533!4d79.1024991?authuser=0&hl=en&rclk=1,21.1239533,79.1024991,Maharashtra,West 1
Hinduja Hospital OPD Building,General hospital,"8-12, SVS Rd, Mahim West, Mahim, Mumbai, Maharashtra 400016, India",https://www.google.co.kr/maps/place/Hinduja+Hospital+OPD+Building/data=!4m5!3m4!1s0x3be7cecd7ac1a085:0xf73352cc410cb205!8m2!3d19.0331962!4d72.839102?authuser=0&hl=en&rclk=1,19.0331962,72.839102,Maharashtra,West 1
ESIC OFFICE,Hospital,"Bhadgaon Rd, Vivekanand Colony, Hanuman Wadi, Chalisgaon, Maharashtra 424101, India",https://www.google.co.kr/maps/place/ESIC+OFFICE/data=!4m5!3m4!1s0x3bd9554b3ba7a3d7:0x324b3dfa20f4e3a2!8m2!3d20.4672381!4d75.0114724?authuser=0&hl=en&rclk=1,20.4672381,75.0114724,Maharashtra,West 1
Government hospit घाटी,Government hospital,"MH MSH 8, Chauka, Maharashtra 431008, India",https://www.google.co.kr/maps/place/Government+hospit+%E0%A4%98%E0%A4%BE%E0%A4%9F%E0%A5%80/data=!4m5!3m4!1s0x3bdbbf35aba6842b:0x2d75f1a54d29db56!8m2!3d20.0200008!4d75.3948499?authuser=0&hl=en&rclk=1,20.0200008,75.3948499,Maharashtra,West 1
Hospital,Hospital,"663Q+WGP, Thar, Maharashtra 442201, India",https://www.google.co.kr/maps/place/Hospital/data=!4m5!3m4!1s0x3bd43905baac0197:0xba2c477874df3dfc!8m2!3d21.2048356!4d78.238836?authuser=0&hl=en&rclk=1,21.2048356,78.238836,Maharashtra,West 1
Hospital,Hospital,"PR5X+HJC, Vilegaon, Maharashtra 413515, India",https://www.google.co.kr/maps/place/Hospital/data=!4m5!3m4!1s0x3bcfbf4c79f330d3:0x7ab1d8daaf7c64cf!8m2!3d18.7089479!4d76.8490296?authuser=0&hl=en&rclk=1,18.7089479,76.8490296,Maharashtra,West 1
Hospital,Hospital,"Sopan Nagar, Pune, Maharashtra 411005, India",https://www.google.co.kr/maps/place/Hospital/data=!4m5!3m4!1s0x3bc2bf809c8d058b:0xfc0fdae661671e37!8m2!3d18.35589!4d74.028345?authuser=0&hl=en&rclk=1,18.35589,74.028345,Maharashtra,West 1
Civil Hospital,Hospital,"HCGG+QCW, Kalsadi, Maharashtra 425409, India",https://www.google.co.kr/maps/place/Civil+Hospital/data=!4m5!3m4!1s0x3bdf6de8f612d383:0xf61c0688757442e3!8m2!3d21.576991!4d74.4260913?authuser=0&hl=en&rclk=1,21.576991,74.4260913,Maharashtra,West 1
Kingsway Hospitals,Hospital,"SPANV Medisearch Lifesciences Pvt. Ltd., kingsway hospital 44, Kingsway Near Kasturchand Park, Nagpur, Maharashtra 440001, India",https://www.google.co.kr/maps/place/Kingsway+Hospitals/data=!4m5!3m4!1s0x3bd4c0e8452ccc85:0xe7550038dfa0aa80!8m2!3d21.1546954!4d79.0849372?authuser=0&hl=en&rclk=1,21.1546954,79.0849372,Maharashtra,West 1
Hospital,Hospital,"4522+Q34, Jimalgatta, Maharashtra 442709, India",https://www.google.co.kr/maps/place/Hospital/data=!4m5!3m4!1s0x3a32636b755a627f:0xf37c9d5df6148c8c!8m2!3d19.1018837!4d80.1502161?authuser=0&hl=en&rclk=1,19.1018837,80.1502161,Maharashtra,West 1
Hospital,Hospital,"J2MR+5JR, Dangsaundane, Maharashtra 423301, India",https://www.google.co.kr/maps/place/Hospital/data=!4m5!3m4!1s0x3bde67996de05e8d:0xf22804c11e3aad9f!8m2!3d20.6329872!4d74.0415272?authuser=0&hl=en&rclk=1,20.6329872,74.0415272,Maharashtra,West 1
Hospital,Hospital,"Nashik, Maharashtra 422403, India",https://www.google.co.kr/maps/place/Hospital/data=!4m5!3m4!1s0x3bdd9ac4225cbe01:0x6a6adf83539e04dc!8m2!3d19.72954!4d73.669698?authuser=0&hl=en&rclk=1,19.72954,73.669698,Maharashtra,West 1
Hospital,Hospital,"bajar road, Purushottampuri, Maharashtra 431131, India",https://www.google.co.kr/maps/place/Hospital/data=!4m5!3m4!1s0x3bdab98898c54447:0x6a43cd1dcc62e10!8m2!3d19.280219!4d76.1607456?authuser=0&hl=en&rclk=1,19.280219,76.1607456,Maharashtra,West 1
Hospital,Hospital,"F4GM+9HR, Kunde, Maharashtra 421302, India",https://www.google.co.kr/maps/place/Hospital/data=!4m5!3m4!1s0x3be79fa9803ad1e9:0x14b73a8690563b26!8m2!3d19.4759806!4d73.1338902?authuser=0&hl=en&rclk=1,19.4759806,73.1338902,Maharashtra,West 1
Hospital,Hospital,"5F4G+893, Rasegaon, Maharashtra 444806, India",https://www.google.co.kr/maps/place/Hospital/data=!4m5!3m4!1s0x3bd6edd155555555:0xc14d889732e3dc64!8m2!3d21.1557724!4d77.4759334?authuser=0&hl=en&rclk=1,21.1557724,77.4759334,Maharashtra,West 1
Hospital,Hospital,"HP93+4PJ, Shribhuvan, Maharashtra 422211, India",https://www.google.co.kr/maps/place/Hospital/data=!4m5!3m4!1s0x3bde11640e56aa1f:0xd19d3972954c5c9c!8m2!3d20.5678404!4d73.7042504?authuser=0&hl=en&rclk=1,20.5678404,73.7042504,Maharashtra,West 1
Hospital,Hospital,"669H+X9R, Palaspur, Maharashtra 414304, India",https://www.google.co.kr/maps/place/Hospital/data=!4m5!3m4!1s0x3bdcdf855eff4be5:0xd6dfed393dcc6e66!8m2!3d19.2199909!4d74.2283919?authuser=0&hl=en&rclk=1,19.2199909,74.2283919,Maharashtra,West 1
Hospital,Hospital,"HR38+G87, Kohala, Maharashtra 445102, India",https://www.google.co.kr/maps/place/Hospital/data=!4m5!3m4!1s0x3bd1516a89e80e89:0xeed82a1b26b8036f!8m2!3d20.5537886!4d77.815799?authuser=0&hl=en&rclk=1,20.5537886,77.815799,Maharashtra,West 1
Hospital,Hospital,"Khanapur, Maharashtra 444901, India",https://www.google.co.kr/maps/place/Hospital/data=!4m5!3m4!1s0x3bd69986685502db:0x9470f9f4b07e5528!8m2!3d21.0526243!4d77.7775956?authuser=0&hl=en&rclk=1,21.0526243,77.7775956,Maharashtra,West 1
Mangeshkar Hospital,Hospital,"Main Building, Deenanath Mangeshkar Hospital Road, Vakil Nagar, Erandwane, Pune, Maharashtra 411004, India",https://www.google.co.kr/maps/place/Mangeshkar+Hospital/data=!4m5!3m4!1s0x3bc2bf6d449ff2e3:0x828306f1ffca74eb!8m2!3d18.5017705!4d73.832506?authuser=0&hl=en&rclk=1,18.5017705,73.832506,Maharashtra,West 1
Hospital,Hospital,"X638+MR5, Pokhar Bhoshi, Maharashtra 431708, India",https://www.google.co.kr/maps/place/Hospital/data=!4m5!3m4!1s0x3bce2db35fee3c99:0x29132c70768eeb29!8m2!3d18.9541423!4d77.2170951?authuser=0&hl=en&rclk=1,18.9541423,77.2170951,Maharashtra,West 1
Hospital,Hospital,"W89F+Q4P, Kannapur, Maharashtra 431128, India",https://www.google.co.kr/maps/place/Hospital/data=!4m5!3m4!1s0x3bc551015eaaaaab:0x2d6201fcccedcaba!8m2!3d18.9194502!4d76.3228423?authuser=0&hl=en&rclk=1,18.9194502,76.3228423,Maharashtra,West 1
Atul Lok Hospital,Private hospital,"Shop No. 139/2447, Group 7, Opposite Ambedkar Hospital, Road, Padmakar Ramchandra Kangutkar St, Tagore Nagar, Vikhroli, Mumbai, Maharashtra 400083, India",https://www.google.co.kr/maps/place/Atul+Lok+Hospital/data=!4m5!3m4!1s0x3be7c799ffabcff3:0x491f27025131bc07!8m2!3d19.1190633!4d72.9343897?authuser=0&hl=en&rclk=1,19.1190633,72.9343897,Maharashtra,West 1
Anand Hospital,Hospital,"Shri Krushna Palace, Warje Malwadi Rd, Pune, Maharashtra 411058, India",https://www.google.co.kr/maps/place/Anand+Hospital/data=!4m5!3m4!1s0x3bc2bfd5cf7b1401:0x5771993b96b70afd!8m2!3d18.4807084!4d73.802151?authuser=0&hl=en&rclk=1,18.4807084,73.802151,Maharashtra,West 1
Hospital,Hospital,"35J3+VPF, Navi Mumbai, Maharashtra 410208, India",https://www.google.co.kr/maps/place/Hospital/data=!4m5!3m4!1s0x3be7eb0805e972b9:0x88799830bb460eeb!8m2!3d19.0821848!4d73.1542934?authuser=0&hl=en&rclk=1,19.0821848,73.1542934,Maharashtra,West 1
Hospital,Hospital,"C452+QGR, Hiwali, Maharashtra 421302, India",https://www.google.co.kr/maps/place/Hospital/data=!4m5!3m4!1s0x3be798bcebd9c05b:0x9122921b49f9127c!8m2!3d19.409489!4d73.101264?authuser=0&hl=en&rclk=1,19.409489,73.101264,Maharashtra,West 1
human Hospital,Government hospital,"29PV+5J5, Laul, Maharashtra 413208, India",https://www.google.co.kr/maps/place/human+Hospital/data=!4m5!3m4!1s0x3bc44323d340da85:0xcefc4efb2f4d8237!8m2!3d18.0353833!4d75.3941202?authuser=0&hl=en&rclk=1,18.0353833,75.3941202,Maharashtra,West 1
Maharashtra Hospital,Hospital,"New Modikhana, Pune, Maharashtra 411001, India",https://www.google.co.kr/maps/place/Maharashtra+Hospital/data=!4m5!3m4!1s0x3bc2c03797066399:0xa2b7d0e057124fd8!8m2!3d18.506764!4d73.8785244?authuser=0&hl=en&rclk=1,18.506764,73.8785244,Maharashtra,West 1
Hospital,Hospital,"R3PR+7MM, Pajpandhari, Maharashtra 415713, India",https://www.google.co.kr/maps/place/Hospital/data=!4m5!3m4!1s0x3be9c70adaa12391:0xf23a1ed99c62f2ae!8m2!3d17.8357227!4d73.0916672?authuser=0&hl=en&rclk=1,17.8357227,73.0916672,Maharashtra,West 1
Hospital,Hospital,"Methi, Maharashtra 425408, India",https://www.google.co.kr/maps/place/Hospital/data=!4m5!3m4!1s0x3bdf222c973c7b5b:0xcf96b31c74e778d8!8m2!3d21.2456149!4d74.6382846?authuser=0&hl=en&rclk=1,21.2456149,74.6382846,Maharashtra,West 1
Hospital,Hospital,"29, Harmony Society, Ward No. 8, Wireless Colony, Aundh, Pune, Maharashtra 411007, India",https://www.google.co.kr/maps/place/Hospital/data=!4m5!3m4!1s0x3bc2bf2e52bf0c0f:0xd0736fa0afdf54da!8m2!3d18.5627805!4d73.8043255?authuser=0&hl=en&rclk=1,18.5627805,73.8043255,Maharashtra,West 1
Hospital,Hospital,"Bus Stop, Ranand Rd, Ranand, Maharashtra 415508, India",https://www.google.co.kr/maps/place/Hospital/data=!4m5!3m4!1s0x3bc3e951f363d4eb:0x675b5571ab4cbaf8!8m2!3d17.7191214!4d74.6410264?authuser=0&hl=en&rclk=1,17.7191214,74.6410264,Maharashtra,West 1
Hospital,Private hospital,"Unnamed Road, Pimpalner, Maharashtra 424306, India",https://www.google.co.kr/maps/place/Hospital/data=!4m5!3m4!1s0x3bde5100a59a78c3:0xe438c4a30073252c!8m2!3d20.9474745!4d74.1233412?authuser=0&hl=en&rclk=1,20.9474745,74.1233412,Maharashtra,West 1
Hospital,Hospital,"4R4M+6XQ, Sawanga Kh., Maharashtra 445203, India",https://www.google.co.kr/maps/place/Hospital/data=!4m5!3m4!1s0x3bd164a9bea30b3b:0x4b40e83f1785cfad!8m2!3d20.105592!4d77.8349758?authuser=0&hl=en&rclk=1,20.105592,77.8349758,Maharashtra,West 1
Hospital,Hospital,"HVQ9+MGC, Babhul Wandi, Maharashtra 422604, India",https://www.google.co.kr/maps/place/Hospital/data=!4m5!3m4!1s0x3bdd0b8b0744616b:0x590c6dcf5efc1541!8m2!3d19.5891833!4d73.8687511?authuser=0&hl=en&rclk=1,19.5891833,73.8687511,Maharashtra,West 1
Magnum Heart Institute (Hospital),Heart hospital,"Plot no. 3/5, Laxmi Nagar, Patil Lane No. 1, Near K. B. H. Vidyalaya, Opp. Vasant Market Canada Corner, Nashik, Maharashtra 422005, India",https://www.google.co.kr/maps/place/Magnum+Heart+Institute+(Hospital)/data=!4m5!3m4!1s0x3bddeb98dd007877:0x6eac4bfd9e8fbb54!8m2!3d20.0063289!4d73.7689349?authuser=0&hl=en&rclk=1,20.0063289,73.7689349,Maharashtra,West 1
Sub center,Hospital,"Ranjangaon Shenpunji, Waluj, Aurangabad, Maharashtra 431133, India",https://www.google.co.kr/maps/place/Sub+center/data=!4m5!3m4!1s0x3bdb9b2e953cd5e7:0x7bccb0e64416212d!8m2!3d19.8368596!4d75.2057471?authuser=0&hl=en&rclk=1,19.8368596,75.2057471,Maharashtra,West 1
Ashwini Accident Hospital,Hospital,"26, Ashwini Accident Hospital, Mumbai Naka, Govindnagar, Mumbai Naka, Nashik, Maharashtra 422001, India",https://www.google.co.kr/maps/place/Ashwini+Accident+Hospital/data=!4m5!3m4!1s0x3bddeb013af2e74b:0xb507887b052051c5!8m2!3d19.9974533!4d73.7898023?authuser=0&hl=en&rclk=1,19.9974533,73.7898023,Maharashtra,West 1
Hospital,Hospital,"H73P+JFV, Bhilwada, Taru Pimpalwadi, Maharashtra 431105, India",https://www.google.co.kr/maps/place/Hospital/data=!4m5!3m4!1s0x3bdb725d83ffffff:0xc262b7488c687789!8m2!3d19.5541046!4d75.2861853?authuser=0&hl=en&rclk=1,19.5541046,75.2861853,Maharashtra,West 1
Shalby Clinic - Orthopedic & Joint Replacement Centre,Orthopedic clinic,"A/95, Ground Floor, Shanti Niketan, Netaji Subhash Road, Marine Dr, Mumbai, Maharashtra 400002, India",https://www.google.co.kr/maps/place/Shalby+Clinic+-+Orthopedic+%26+Joint+Replacement+Centre/data=!4m5!3m4!1s0x3be7ce1e3e364c35:0x907af8f2ad84b68f!8m2!3d18.94325!4d72.823568?authuser=0&hl=en&rclk=1,18.94325,72.823568,Maharashtra,West 1
Hospital,Government hospital,"Unnamed Road, Maharashtra 431147, India",https://www.google.co.kr/maps/place/Hospital/data=!4m5!3m4!1s0x3bdbdd545cf2a66f:0xc700595fcd60a64d!8m2!3d20.346813!4d75.39576?authuser=0&hl=en&rclk=1,20.346813,75.39576,Maharashtra,West 1
Ashirwad Children And Surgical Hospital,Hospital,"Room No. 305, Ruby Monarch Saki Vihar Road, Sakinaka, Andheri East, Mumbai, Maharashtra 400002, India",https://www.google.co.kr/maps/place/Ashirwad+Children+And+Surgical+Hospital/data=!4m5!3m4!1s0x3be7c80dc38c33c1:0xf1c4cb76a485d2a1!8m2!3d19.1064311!4d72.887771?authuser=0&hl=en&rclk=1,19.1064311,72.887771,Maharashtra,West 1
Chintamani Hospital,Private hospital,"Lane No.2, Bhau Colony, Radha Nagar, Amravati, Maharashtra 444604, India",https://www.google.co.kr/maps/place/Chintamani+Hospital/data=!4m5!3m4!1s0x3bd6a3676adbafe9:0x58685c5676817381!8m2!3d20.9446412!4d77.7691722?authuser=0&hl=en&rclk=1,20.9446412,77.7691722,Maharashtra,West 1
Hospital,Hospital,"67PC+G9H, Nhanave, Maharashtra 423101, India",https://www.google.co.kr/maps/place/Hospital/data=!4m5!3m4!1s0x3bdc2c53fec7a853:0x5fa5e41b2cb34fb5!8m2!3d20.236321!4d74.2709882?authuser=0&hl=en&rclk=1,20.236321,74.2709882,Maharashtra,West 1
Hospital,Hospital,"C8JQ+658, Kodni, Maharashtra 591237, India",https://www.google.co.kr/maps/place/Hospital/data=!4m5!3m4!1s0x3bc0f1c61cd85c23:0xf88a7ce9dddb95bb!8m2!3d16.4305329!4d74.3379512?authuser=0&hl=en&rclk=1,16.4305329,74.3379512,Maharashtra,West 1
Ashoka Medicover Hospitals,Hospital,"Sawata Mali Rd, Parab Nagar, Nashik, Maharashtra 422209, India",https://www.google.co.kr/maps/place/Ashoka+Medicover+Hospitals/data=!4m5!3m4!1s0x3bddeb7b45b8c8a9:0xd967c137aeb93c2a!8m2!3d19.973512!4d73.7914263?authuser=0&hl=en&rclk=1,19.973512,73.7914263,Maharashtra,West 1
hospital,Hospital,"XV59+WCF, Mirakhnagar, Maharashtra 423703, India",https://www.google.co.kr/maps/place/hospital/data=!4m5!3m4!1s0x3bdc73013668e69b:0x51d9900cc519fee5!8m2!3d19.9598114!4d74.8685529?authuser=0&hl=en&rclk=1,19.9598114,74.8685529,Maharashtra,West 1
Hospital औरगया केंद्,Government hospital,"28V4+QVR, Chimbhave, Maharashtra 415213, India",https://www.google.co.kr/maps/place/Hospital+%E0%A4%94%E0%A4%B0%E0%A4%97%E0%A4%AF%E0%A4%BE+%E0%A4%95%E0%A5%87%E0%A4%82%E0%A4%A6%E0%A5%8D/data=!4m5!3m4!1s0x3be9d371e13ee48f:0x5079e46b1f8ea857!8m2!3d18.0444985!4d73.3071555?authuser=0&hl=en&rclk=1,18.0444985,73.3071555,Maharashtra,West 1
Sahyadri Hospital,Hospital,"Savedi Rd, Mahavir Nagar, Ahmednagar, Maharashtra 414003, India",https://www.google.co.kr/maps/place/Sahyadri+Hospital/data=!4m5!3m4!1s0x3bdcba7f6be5701b:0x19f2d193d1cf14c8!8m2!3d19.1141011!4d74.7296177?authuser=0&hl=en&rclk=1,19.1141011,74.7296177,Maharashtra,West 1
Avdhoot Hospital,Hospital,"Sector-19, Airoli, Navi Mumbai, Maharashtra 400708, India",https://www.google.co.kr/maps/place/Avdhoot+Hospital/data=!4m5!3m4!1s0x3be7b8b4a585747b:0x684d149959314aab!8m2!3d19.1597806!4d72.9925961?authuser=0&hl=en&rclk=1,19.1597806,72.9925961,Maharashtra,West 1
Attharva Accident Hospital,Hospital,"153/154 s/no Near Nutan Engineering College 3004/1, Talegaon Dabhade, Station, Talegaon Dabhade, Maharashtra 410507, India",https://www.google.co.kr/maps/place/Attharva+Accident+Hospital/data=!4m5!3m4!1s0x3bc2b1f02493d27d:0x86177ccb5bd73372!8m2!3d18.7316902!4d73.6640579?authuser=0&hl=en&rclk=1,18.7316902,73.6640579,Maharashtra,West 1
Akanksha Maternity and Surgical Hospital,Maternity hospital,"Ground floor, No.6, Manish Tower society, JP Road, Four Bungalows, Andheri West, Mumbai, Maharashtra 400053, India",https://www.google.co.kr/maps/place/Akanksha+Maternity+and+Surgical+Hospital/data=!4m5!3m4!1s0x3be7b61f83235e81:0x8ce3769b0b68f3c4!8m2!3d19.12867!4d72.8269475?authuser=0&hl=en&rclk=1,19.12867,72.8269475,Maharashtra,West 1
Gov. Hospital,Government hospital,"Unnamed Road, Bavi, Maharashtra 413403, India",https://www.google.co.kr/maps/place/Gov.+Hospital/data=!4m5!3m4!1s0x3bc5ab8834cd96e9:0xbab13e0081f84c43!8m2!3d18.1782939!4d75.7749243?authuser=0&hl=en&rclk=1,18.1782939,75.7749243,Maharashtra,West 1
Ashirwad Maternity & Nursing Home,Maternity hospital,"Janata Market, Subhash Rd, Bhandup, Jaydev Singh Nagar, Bhandup West, Mumbai, Maharashtra 400078, India",https://www.google.co.kr/maps/place/Ashirwad+Maternity+%26+Nursing+Home/data=!4m5!3m4!1s0x3be7b86e528cb077:0x3331101681e0e88c!8m2!3d19.1439089!4d72.9308215?authuser=0&hl=en&rclk=1,19.1439089,72.9308215,Maharashtra,West 1
Jehangir Hospital,Gastrointestinal surgeon,"GVJG+8M8, Central Excise Colony, Sangamvadi, Pune, Maharashtra 411001, India",https://www.google.co.kr/maps/place/Jehangir+Hospital/data=!4m5!3m4!1s0x3bc2c14b6ade629b:0x2ac2a737cd66e8cc!8m2!3d18.5307892!4d73.8766941?authuser=0&hl=en&rclk=1,18.5307892,73.8766941,Maharashtra,West 1
Kyatina Hospital,Hospital,"Nagpur, Maharashtra 441104, India",https://www.google.co.kr/maps/place/Kyatina+Hospital/data=!4m5!3m4!1s0x3bd4b5f89734bec7:0xf57f3dcd6b764b2e!8m2!3d21.1341047!4d79.2976058?authuser=0&hl=en&rclk=1,21.1341047,79.2976058,Maharashtra,West 1
Hospital,Hospital,"3F72+MR8, Kante, Maharashtra 415637, India",https://www.google.co.kr/maps/place/Hospital/data=!4m5!3m4!1s0x3bea0a1b3e54c24d:0x8d03283254e8a351!8m2!3d17.0641646!4d73.4520736?authuser=0&hl=en&rclk=1,17.0641646,73.4520736,Maharashtra,West 1
BSES MG Hospital,Hospital,"Swami Vivekananda Rd, Lohana Colony, Andheri West, Mumbai, Maharashtra 400058, India",https://www.google.co.kr/maps/place/BSES+MG+Hospital/data=!4m5!3m4!1s0x3be7c9d178c3b413:0x5221a06f115708ff!8m2!3d19.11944!4d72.8449787?authuser=0&hl=en&rclk=1,19.11944,72.8449787,Maharashtra,West 1
D M Hospital,Hospital,"31, Dr.Ambedkar Society, New Mankapur, Nagpur, Maharashtra 440030, India",https://www.google.co.kr/maps/place/D+M+Hospital/data=!4m5!3m4!1s0x3bd4c117391211c9:0xff37dc053329d95d!8m2!3d21.181686!4d79.082382?authuser=0&hl=en&rclk=1,21.181686,79.082382,Maharashtra,West 1
Hospital,Hospital,"44GR+987, Mandapgaon 317, Maharashtra 443206, India",https://www.google.co.kr/maps/place/Hospital/data=!4m5!3m4!1s0x3bda6b1afdbe47c9:0x89b70203b288d522!8m2!3d20.1259089!4d76.1407893?authuser=0&hl=en&rclk=1,20.1259089,76.1407893,Maharashtra,West 1
Hospital,Hospital,"Murray Peth, Mahabaleshwar, Maharashtra 412806, India",https://www.google.co.kr/maps/place/Hospital/data=!4m5!3m4!1s0x3bc265522c7fc75f:0x72abf8d7286170b6!8m2!3d17.9232761!4d73.6591321?authuser=0&hl=en&rclk=1,17.9232761,73.6591321,Maharashtra,West 1
VIJAYSHRI HOSPITAL,Hospital,"Khadakwadi, Maharashtra 412107, India",https://www.google.co.kr/maps/place/VIJAYSHRI+HOSPITAL/data=!4m5!3m4!1s0x3bc296f13c94a265:0x29e6e987eeda036b!8m2!3d18.418516!4d73.71627?authuser=0&hl=en&rclk=1,18.418516,73.71627,Maharashtra,West 1
GOV. HOSPITAL,Hospital,"Behind S. T. and, 410503, Bhimashankar-Manchar Rd, Manchar, Maharashtra 410503, India",https://www.google.co.kr/maps/place/GOV.+HOSPITAL/data=!4m5!3m4!1s0x3bdd30d6420a80eb:0x9843253e5658332b!8m2!3d19.0005836!4d73.9433309?authuser=0&hl=en&rclk=1,19.0005836,73.9433309,Maharashtra,West 1
hospital,Hospital,"H4H3+PXR, Bense, Maharashtra 402106, India",https://www.google.co.kr/maps/place/hospital/data=!4m5!3m4!1s0x3be8139f58d80315:0x50b8f1166d5db251!8m2!3d18.5793707!4d73.1048989?authuser=0&hl=en&rclk=1,18.5793707,73.1048989,Maharashtra,West 1
Govt. हॉस्पिटल,Heart hospital,"8JJQ+3RX, Kurukwade, Maharashtra 425408, India",https://www.google.co.kr/maps/place/Govt.+%E0%A4%B9%E0%A5%89%E0%A4%B8%E0%A5%8D%E0%A4%AA%E0%A4%BF%E0%A4%9F%E0%A4%B2/data=!4m5!3m4!1s0x3bdf23ba3beaf997:0x27ebbd5df27eb6ab!8m2!3d21.3302398!4d74.6396156?authuser=0&hl=en&rclk=1,21.3302398,74.6396156,Maharashtra,West 1
Asha Hospital,Hospital,"3XXR+V75, Gajanan Nagar, Lokmanya Nagar, Nagpur, Maharashtra 440016, India",https://www.google.co.kr/maps/place/Asha+Hospital/data=!4m5!3m4!1s0x3bd4959e6fd40cc1:0xdbf157909386820!8m2!3d21.099635!4d78.9907451?authuser=0&hl=en&rclk=1,21.099635,78.9907451,Maharashtra,West 1
Alexis Multi Specialty Hospital,Hospital,"A-16, Koradi Rd, New Mankapur, Nagpur, Maharashtra 440001, India",https://www.google.co.kr/maps/place/Alexis+Multi+Specialty+Hospital/data=!4m5!3m4!1s0x3bd4c0e049f0bec1:0x40f4d1e29768365c!8m2!3d21.1857657!4d79.0795402?authuser=0&hl=en&rclk=1,21.1857657,79.0795402,Maharashtra,West 1
Hospital,Hospital,"3QMG+FRG, Anjani, Maharashtra 416311, India",https://www.google.co.kr/maps/place/Hospital/data=!4m5!3m4!1s0x3bc139a9e6d23769:0xeb44126a9a168767!8m2!3d17.0836799!4d74.7770855?authuser=0&hl=en&rclk=1,17.0836799,74.7770855,Maharashtra,West 1
Dr. Hedgewar Rugnalaya,Specialized hospital,"Near Gajanand Maharaj Mandir, Jawahar Colony Rd, Garkheda, Aurangabad, Maharashtra 431005, India",https://www.google.co.kr/maps/place/Dr.+Hedgewar+Rugnalaya/data=!4m5!3m4!1s0x3bdba28464eee089:0x657bb13ef3cfb849!8m2!3d19.8692712!4d75.3478556?authuser=0&hl=en&rclk=1,19.8692712,75.3478556,Maharashtra,West 1
"Women Hospital, Nanded",Government hospital,"College Road, Harsha Nagar, Shyam Nagar, Nanded, Maharashtra 431605, India","https://www.google.co.kr/maps/place/Women+Hospital,+Nanded/data=!4m5!3m4!1s0x3bd1d68b2c23047d:0x40d6a858fa45184f!8m2!3d19.1757506!4d77.309127?authuser=0&hl=en&rclk=1",19.1757506,77.309127,Maharashtra,West 1
Alibag Civil Hospital,Government hospital,"Alibag Beach Rd, Limaye Wadi, Alibag, Maharashtra 402201, India",https://www.google.co.kr/maps/place/Alibag+Civil+Hospital/data=!4m5!3m4!1s0x3be87a43c9d75609:0xac57c6157e87ba8!8m2!3d18.6408544!4d72.8718702?authuser=0&hl=en&rclk=1,18.6408544,72.8718702,Maharashtra,West 1
सरकारी हॉस्पिटल चापानेर,Government hospital,"53J8+QP8, Chapaner, Maharashtra 431103, India",https://www.google.co.kr/maps/place/%E0%A4%B8%E0%A4%B0%E0%A4%95%E0%A4%BE%E0%A4%B0%E0%A5%80+%E0%A4%B9%E0%A5%89%E0%A4%B8%E0%A5%8D%E0%A4%AA%E0%A4%BF%E0%A4%9F%E0%A4%B2+%E0%A4%9A%E0%A4%BE%E0%A4%AA%E0%A4%BE%E0%A4%A8%E0%A5%87%E0%A4%B0/data=!4m5!3m4!1s0x3bdbf14bd82629bf:0xf59a8b36173fcbf4!8m2!3d20.1819163!4d75.0668187?authuser=0&hl=en&rclk=1,20.1819163,75.0668187,Maharashtra,West 1
Hospital,Hospital,"QWCV+GCV, Thergaon, Maharashtra 414401, India",https://www.google.co.kr/maps/place/Hospital/data=!4m5!3m4!1s0x3bc3578d50809e25:0x82c25cc86d23b073!8m2!3d18.7713738!4d74.9435441?authuser=0&hl=en&rclk=1,18.7713738,74.9435441,Maharashtra,West 1
Sai baba hospital,Hospital,"3W46+2GR, Samrat Ashok Nagar, Chembur, Mumbai, Maharashtra 400088, India",https://www.google.co.kr/maps/place/Sai+baba+hospital/data=!4m5!3m4!1s0x3be7c7a48df7b657:0x711c3fe6ff5b6460!8m2!3d19.0551163!4d72.9112504?authuser=0&hl=en&rclk=1,19.0551163,72.9112504,Maharashtra,West 1
CIVIL Hospital,Hospital,"P4W8+5F9, दोडी बु., Maharashtra 422606, India",https://www.google.co.kr/maps/place/CIVIL+Hospital/data=!4m5!3m4!1s0x3bddaf95aa0d5b29:0x931f6c105af4db0f!8m2!3d19.7454064!4d74.1162405?authuser=0&hl=en&rclk=1,19.7454064,74.1162405,Maharashtra,West 1
Shatayu Hospital,Hospital,"Sr No 30 , Sonawane Apartment ,Balaji nagar, Satara Rd, Dhankawadi, Pune, Maharashtra 411043, India",https://www.google.co.kr/maps/place/Shatayu+Hospital/data=!4m5!3m4!1s0x3bc2c0114518ccdd:0xfab4cda971c9b371!8m2!3d18.4664275!4d73.8577453?authuser=0&hl=en&rclk=1,18.4664275,73.8577453,Maharashtra,West 1
H. J. Doshi Ghatkopar Hindu Sabha Hospital,Hospital,"Shraddhanand Rd, opp. Railway Station, भट्टवाडी, Kapol wadi, Ghatkopar West, Mumbai, Maharashtra 400086, India",https://www.google.co.kr/maps/place/H.+J.+Doshi+Ghatkopar+Hindu+Sabha+Hospital/data=!4m5!3m4!1s0x3be7c62cf4ab65af:0x4d131df1eaae4c!8m2!3d19.0852596!4d72.9062072?authuser=0&hl=en&rclk=1,19.0852596,72.9062072,Maharashtra,West 1
Hospital,Hospital,"Navha Rd, Deomurti, Jalna, Maharashtra 431203, India",https://www.google.co.kr/maps/place/Hospital/data=!4m5!3m4!1s0x3bda59a9d2782811:0x281bf2637fc53af1!8m2!3d19.8605568!4d75.9403199?authuser=0&hl=en&rclk=1,19.8605568,75.9403199,Maharashtra,West 1
Hospital,Hospital,"H5JR+VGR, Malihapparga, Maharashtra 413532, India",https://www.google.co.kr/maps/place/Hospital/data=!4m5!3m4!1s0x3bcfb3271a1c3077:0xbdb482b47563038!8m2!3d18.5822356!4d77.1912644?authuser=0&hl=en&rclk=1,18.5822356,77.1912644,Maharashtra,West 1
Hospital,Hospital,"R6MF+PXW, Rui Dharur, Maharashtra 431124, India",https://www.google.co.kr/maps/place/Hospital/data=!4m5!3m4!1s0x3bc545e49ccfa6e5:0x4025ca7a4ea47574!8m2!3d18.834363!4d76.2249671?authuser=0&hl=en&rclk=1,18.834363,76.2249671,Maharashtra,West 1
Ganesh Hospital,Hospital,"Tembhode Rd, Sai Nagar, Palghar, Maharashtra 401404, India",https://www.google.co.kr/maps/place/Ganesh+Hospital/data=!4m5!3m4!1s0x3be71ce12bb0ff13:0x542d8a6e8be90c1d!8m2!3d19.6981164!4d72.7626632?authuser=0&hl=en&rclk=1,19.6981164,72.7626632,Maharashtra,West 1
Apex Hospital,Private hospital,"Shop Number.4 Near Hindustan Bank, Ghatkopar - Mankhurd Link Rd, Mankhurd West, Mohite Patil Nagar, Mumbai, Maharashtra 400088, India",https://www.google.co.kr/maps/place/Apex+Hospital/data=!4m5!3m4!1s0x3be7c67a860f37b5:0x8b1d37205674aac2!8m2!3d19.053621!4d72.934993?authuser=0&hl=en&rclk=1,19.053621,72.934993,Maharashtra,West 1
Mgm new bombay hospital vashi,Hospital,"2WQX+HWP, Shahaji Nagar, Trombay, Mumbai, Maharashtra 400088, India",https://www.google.co.kr/maps/place/Mgm+new+bombay+hospital+vashi/data=!4m5!3m4!1s0x3be7c54ab66cbfc5:0x720dc3394a71b36a!8m2!3d19.0389632!4d72.9498179?authuser=0&hl=en&rclk=1,19.0389632,72.9498179,Maharashtra,West 1
Gov. Hospital,Hospital,"65WF+F9R, Hated Budruk, Maharashtra 425107, India",https://www.google.co.kr/maps/place/Gov.+Hospital/data=!4m5!3m4!1s0x3bd8d9e5c6df536d:0xb877d3aec26736ee!8m2!3d21.2462451!4d75.1734037?authuser=0&hl=en&rclk=1,21.2462451,75.1734037,Maharashtra,West 1
Vijay Vallabh Hospital,Hospital,"Vijay Vallabh Hospital, Tirupati Nagar Rd, beside Banjara Hotel, Phase 1, Tirupati Nagar, Virar West, Virar, Maharashtra 401303, India",https://www.google.co.kr/maps/place/Vijay+Vallabh+Hospital/data=!4m5!3m4!1s0x3be7aa29a1acd24b:0xea0bdfffa331c311!8m2!3d19.4530245!4d72.8013566?authuser=0&hl=en&rclk=1,19.4530245,72.8013566,Maharashtra,West 1
Hospital,Hospital,"Near, Railway Station Rd, Ramchandra Nagar, Udgir, Maharashtra 413517, India",https://www.google.co.kr/maps/place/Hospital/data=!4m5!3m4!1s0x3bcfabf0a1c85899:0xd7b7e2f5aa7314e7!8m2!3d18.3927254!4d77.1115163?authuser=0&hl=en&rclk=1,18.3927254,77.1115163,Maharashtra,West 1
Dr Kawathe Hospital,Hospital,"Unnamed Road, Chorkhal, Maharashtra 441225, India",https://www.google.co.kr/maps/place/Dr+Kawathe+Hospital/data=!4m5!3m4!1s0x3a2cfded5adee1e9:0xaf9607fe2bd81274!8m2!3d20.0543608!4d79.9439311?authuser=0&hl=en&rclk=1,20.0543608,79.9439311,Maharashtra,West 1
Hiranandani hospital,Hospital,"Vashi Railway Station Rd, Sector 30A, Vashi, Navi Mumbai, Maharashtra 400703, India",https://www.google.co.kr/maps/place/Hiranandani+hospital/data=!4m5!3m4!1s0x3be7c1a39c78e0f5:0x73c6bb45cfc2428c!8m2!3d19.066336!4d72.9985124?authuser=0&hl=en&rclk=1,19.066336,72.9985124,Maharashtra,West 1
महानवर हॉस्पिटल,Hospital,"X4PM+G3M, Shirala, Maharashtra 415408, India",https://www.google.co.kr/maps/place/%E0%A4%AE%E0%A4%B9%E0%A4%BE%E0%A4%A8%E0%A4%B5%E0%A4%B0+%E0%A4%B9%E0%A5%89%E0%A4%B8%E0%A5%8D%E0%A4%AA%E0%A4%BF%E0%A4%9F%E0%A4%B2/data=!4m5!3m4!1s0x3bc1a121808edded:0x53f67b2191a92a66!8m2!3d16.9863346!4d74.1326618?authuser=0&hl=en&rclk=1,16.9863346,74.1326618,Maharashtra,West 1
Argade Hospital And Prasuti Griha,Hospital,"Chakan Ambethan, Chowk, Nashik - Pune Hwy, Chakan, Maharashtra 410501, India",https://www.google.co.kr/maps/place/Argade+Hospital+And+Prasuti+Griha/data=!4m5!3m4!1s0x3bc2ca1ef1002915:0x843e68cd223da7bb!8m2!3d18.7641886!4d73.8615694?authuser=0&hl=en&rclk=1,18.7641886,73.8615694,Maharashtra,West 1
Anandavan Hospital,Hospital,"34M8+88M, Takve, Maharashtra 415410, India",https://www.google.co.kr/maps/place/Anandavan+Hospital/data=!4m5!3m4!1s0x3bc199290513db27:0xf07baacbda1dba3!8m2!3d17.0833286!4d74.115809?authuser=0&hl=en&rclk=1,17.0833286,74.115809,Maharashtra,West 1
hospital,Hospital,"CGH7+P2W, Navgaon, Maharashtra 431137, India",https://www.google.co.kr/maps/place/hospital/data=!4m5!3m4!1s0x3bdb176904df7f2f:0x9591db28c57f76b6!8m2!3d19.429372!4d75.512567?authuser=0&hl=en&rclk=1,19.429372,75.512567,Maharashtra,West 1
Aarogyam Multi Speciality Hospital,Hospital,"3, Pant Ram Marathe Path, Daulat Nagar, Thane East, Thane, Maharashtra 400603, India",https://www.google.co.kr/maps/place/Aarogyam+Multi+Speciality+Hospital/data=!4m5!3m4!1s0x3be7b8d8dc60852b:0xc8eedfc8274fb32b!8m2!3d19.184153!4d72.9767801?authuser=0&hl=en&rclk=1,19.184153,72.9767801,Maharashtra,West 1
Sahyadri Speciality Hospital Deccan Gymkhana - Dr. Tushar Vishwasrao Patil,Hospital,"30C, Karve Rd, Erandwane, Pune, Maharashtra 411004, India",https://www.google.co.kr/maps/place/Sahyadri+Speciality+Hospital+Deccan+Gymkhana+-+Dr.+Tushar+Vishwasrao+Patil/data=!4m5!3m4!1s0x3bc2bfb494b9631b:0xc68a745d35e4bdbd!8m2!3d18.5033095!4d73.8197888?authuser=0&hl=en&rclk=1,18.5033095,73.8197888,Maharashtra,West 1
Hospital,Hospital,"F79W+JM5, Meshi, Maharashtra 423102, India",https://www.google.co.kr/maps/place/Hospital/data=!4m5!3m4!1s0x3bde8781adc0fcab:0x78293935cb3eed89!8m2!3d20.4690229!4d74.2967482?authuser=0&hl=en&rclk=1,20.4690229,74.2967482,Maharashtra,West 1
CGHS MUMBAI,Hospital,"25C, Chandani Road, opp. flora hotel, Worli Sea Face, Worli, Mumbai, Maharashtra 400030, India",https://www.google.co.kr/maps/place/CGHS+MUMBAI/data=!4m5!3m4!1s0x3be7cfa0b6fb6ca3:0xee9808165a1f427e!8m2!3d19.0091432!4d72.8157283?authuser=0&hl=en&rclk=1,19.0091432,72.8157283,Maharashtra,West 1
Hospital,Hospital,"GQ6M+G8H, Bhokarbardi, Maharashtra 444719, India",https://www.google.co.kr/maps/place/Hospital/data=!4m5!3m4!1s0x3bd7998f53658877:0x2615afeb7b5e46cc!8m2!3d21.5113128!4d76.7833688?authuser=0&hl=en&rclk=1,21.5113128,76.7833688,Maharashtra,West 1
Balajee Hospital,Hospital,"Shah Arcade, 3, Rani Sati Rd, near Passport Office, Malad East, Mumbai, Maharashtra 400097, India",https://www.google.co.kr/maps/place/Balajee+Hospital/data=!4m5!3m4!1s0x3be7b703921ad5ed:0x7551650c98b397a5!8m2!3d19.1824348!4d72.8576562?authuser=0&hl=en&rclk=1,19.1824348,72.8576562,Maharashtra,West 1
hospital management,Hospital,"104,Dharma Vihar, DP Rd, Thane, Maharashtra 400708, India",https://www.google.co.kr/maps/place/hospital+management/data=!4m5!3m4!1s0x3be7bd4c9aa8b095:0x1a7fad2bcee43038!8m2!3d19.2756501!4d73.0469761?authuser=0&hl=en&rclk=1,19.2756501,73.0469761,Maharashtra,West 1
Gov.Hospital,Hospital,"6FJQ+PQ9, Chaklamba, Maharashtra 431130, India",https://www.google.co.kr/maps/place/Gov.Hospital/data=!4m5!3m4!1s0x3bdb3b05a6ab9e97:0x5b8e64dbc28adcd3!8m2!3d19.2317954!4d75.4894698?authuser=0&hl=en&rclk=1,19.2317954,75.4894698,Maharashtra,West 1
Civil Hospital,Hospital,"V4PQ+5CQ, Arali BK, Maharashtra 413601, India",https://www.google.co.kr/maps/place/Civil+Hospital/data=!4m5!3m4!1s0x3bc5eb041ceb7bcb:0xf349a6f02f25cc6!8m2!3d17.88547!4d76.1386089?authuser=0&hl=en&rclk=1,17.88547,76.1386089,Maharashtra,West 1
Dr Zakir Hussain NMC Hospital,Hospital,"Kathda, Nashik, Maharashtra 422001, India",https://www.google.co.kr/maps/place/Dr+Zakir+Hussain+NMC+Hospital/data=!4m5!3m4!1s0x3bddeafc21aca091:0x876972644d719813!8m2!3d19.9961145!4d73.7991028?authuser=0&hl=en&rclk=1,19.9961145,73.7991028,Maharashtra,West 1
Government janral hospital,Government hospital,"Hippargarao, Maharashtra 413606, India",https://www.google.co.kr/maps/place/Government+janral+hospital/data=!4m5!3m4!1s0x3bcf47694f707423:0x84489a358eb15757!8m2!3d17.7909938!4d76.7385649?authuser=0&hl=en&rclk=1,17.7909938,76.7385649,Maharashtra,West 1
Women hospital nanded,Hospital,"Yeshwant College Rd, Bhagya nagar, Irrigation Colony, Peer Burhan Nagar, Nanded, Maharashtra 431602, India",https://www.google.co.kr/maps/place/Women+hospital+nanded/data=!4m5!3m4!1s0x3bd1d7c49092de33:0x6dfe17d01b52d86d!8m2!3d19.1776854!4d77.3086363?authuser=0&hl=en&rclk=1,19.1776854,77.3086363,Maharashtra,West 1
"Ashwini Kidney & Dialysis Centre Pvt Ltd, AKDC",Hospital,"301 B, Neeti Gaurav Complex, 21, Central Bazar Road, Ramdaspeth, Nagpur, Maharashtra 440010, India","https://www.google.co.kr/maps/place/Ashwini+Kidney+%26+Dialysis+Centre+Pvt+Ltd,+AKDC/data=!4m5!3m4!1s0x3bd4c09035c33fbb:0xc94c222cac038600!8m2!3d21.1351201!4d79.077189?authuser=0&hl=en&rclk=1",21.1351201,79.077189,Maharashtra,West 1
MD India,Medical group,"265-A, Bajaj Nagar, Nagpur, Maharashtra 440010, India",https://www.google.co.kr/maps/place/MD+India/data=!4m5!3m4!1s0x3bd4c0976476156f:0xbdf1519b5437213!8m2!3d21.1264878!4d79.0635566?authuser=0&hl=en&rclk=1,21.1264878,79.0635566,Maharashtra,West 1
hospital,Hospital,"5W6V+6HW, तांबेवाडी, Maharashtra 413401, India",https://www.google.co.kr/maps/place/hospital/data=!4m5!3m4!1s0x3bc5a531fe928499:0xbf8e0311d97d001b!8m2!3d18.1606158!4d75.94395?authuser=0&hl=en&rclk=1,18.1606158,75.94395,Maharashtra,West 1
Dr L H Hiranandani Hospital,Hospital,"Hillside Rd, Hiranandani Gardens, Ramabai Ambedkar Nagar, Powai, Mumbai, Maharashtra 400076, India",https://www.google.co.kr/maps/place/Dr+L+H+Hiranandani+Hospital/data=!4m5!3m4!1s0x3be7c7ec2c621fe9:0x7a2f670986656834!8m2!3d19.1202508!4d72.9169648?authuser=0&hl=en&rclk=1,19.1202508,72.9169648,Maharashtra,West 1
Aastha hospital,Hospital,"Punjabi Colony, Press Bazar, Ulhasnagar, Maharashtra 421002, India",https://www.google.co.kr/maps/place/Aastha+hospital/data=!4m5!3m4!1s0x3be79412dedb86fd:0xc0db43a59e984fdd!8m2!3d19.2287121!4d73.1676297?authuser=0&hl=en&rclk=1,19.2287121,73.1676297,Maharashtra,West 1
Adsul hospital,Hospital,"C55V+HHX, Vetal Peth, Karmala, Maharashtra 413203, India",https://www.google.co.kr/maps/place/Adsul+hospital/data=!4m5!3m4!1s0x3bc48fd615ec6dad:0x4643c0680ec8dece!8m2!3d18.4089999!4d75.1939994?authuser=0&hl=en&rclk=1,18.4089999,75.1939994,Maharashtra,West 1
Ashwini Maternity Hospital,Women's health clinic,"59/17, Appasaheb Kulkarni Path, Navasahyadri Society, Ganesh Nagar, Karve Nagar, Pune, Maharashtra 411052, India",https://www.google.co.kr/maps/place/Ashwini+Maternity+Hospital/data=!4m5!3m4!1s0x3bc2bfee4b53668b:0xd21dbe52d30b3b46!8m2!3d18.4956924!4d73.8283308?authuser=0&hl=en&rclk=1,18.4956924,73.8283308,Maharashtra,West 1
Jain Hospital,Hospital,"22, Sree Nagar Rd, Sector-6, Shree Nagar, Thane West, Thane, Maharashtra 400604, India",https://www.google.co.kr/maps/place/Jain+Hospital/data=!4m5!3m4!1s0x3be7b9a909290249:0xe5b934c7a27d3f14!8m2!3d19.1910176!4d72.9427577?authuser=0&hl=en&rclk=1,19.1910176,72.9427577,Maharashtra,West 1
Medical,Medical Center,"7QGC+C92, Vidya Nagar, Parbhani, Maharashtra 431401, India",https://www.google.co.kr/maps/place/Medical/data=!4m5!3m4!1s0x3bd0174d3e52a90d:0x6398a776c4245d29!8m2!3d19.2760039!4d76.7708922?authuser=0&hl=en&rclk=1,19.2760039,76.7708922,Maharashtra,West 1
Dr.Jaydeep Date,Doctor,"Lokmanya Hospital, 13/4 Karve Road, Erandawne, Untitled, behind Ranka Jewellers India, Bhalekar Chawl, Erandwane, Pune, Maharashtra 411004, India",https://www.google.co.kr/maps/place/Dr.Jaydeep+Date/data=!4m5!3m4!1s0x3bc2bf89506caab5:0x3a1b81f9affa2021!8m2!3d18.5089253!4d73.8340944?authuser=0&hl=en&rclk=1,18.5089253,73.8340944,Maharashtra,West 1
"Shri Om, Malgonda hospital",Hospital,"Vidyanagar, Akkalkot, Maharashtra 413216, India","https://www.google.co.kr/maps/place/Shri+Om,+Malgonda+hospital/data=!4m5!3m4!1s0x3bc609b16d916281:0x53a7839068a40757!8m2!3d17.5216325!4d76.2016936?authuser=0&hl=en&rclk=1",17.5216325,76.2016936,Maharashtra,West 1
Dr. Dasmit Singh,Children's hospital,"Sukhwani Chambers, Station Road, Pimpri Colony, Pimpri-Chinchwad, Maharashtra 411018, India",https://www.google.co.kr/maps/place/Dr.+Dasmit+Singh/data=!4m5!3m4!1s0x3bc2b8508d2b77c5:0x411f5309a0d53f0!8m2!3d18.625584!4d73.805157?authuser=0&hl=en&rclk=1,18.625584,73.805157,Maharashtra,West 1
Sanjeevani Children's Hospital,Hospital,"Plot No 14, Near Patidar Bhavan, Behind Jalgaon Bank, Kushal Nagar, Jalna Road, Aurangabad, Maharashtra 431001, India",https://www.google.co.kr/maps/place/Sanjeevani+Children's+Hospital/data=!4m5!3m4!1s0x3bdb9815a369bc63:0xdf3579c5f51ea17b!8m2!3d19.8748525!4d75.336117?authuser=0&hl=en&rclk=1,19.8748525,75.336117,Maharashtra,West 1
Avanti Institute,Medical Center,"5, Abhyankar Marg, Congress Nagar, Dhantoli, Nagpur, Maharashtra 440012, India",https://www.google.co.kr/maps/place/Avanti+Institute/data=!4m5!3m4!1s0x3bd4c09728973065:0x96b52212aa6e2332!8m2!3d21.1355664!4d79.0821065?authuser=0&hl=en&rclk=1,21.1355664,79.0821065,Maharashtra,West 1
"Ashwini Multispeciality Hospital,Nashik",Orthopedic surgeon,"Prakash Petrol Pump, Ashwini Hospital, Chowk No 5, B-h, Govind Nagar, Nashik, Maharashtra 422001, India","https://www.google.co.kr/maps/place/Ashwini+Multispeciality+Hospital,Nashik/data=!4m5!3m4!1s0x3bddeb1140000001:0x43084fbc1e4e6cd!8m2!3d19.987298!4d73.7774345?authuser=0&hl=en&rclk=1",19.987298,73.7774345,Maharashtra,West 1
Tata Memorial Center,Government hospital,"Parel East, Parel, Mumbai, Maharashtra 400012, India",https://www.google.co.kr/maps/place/Tata+Memorial+Center/data=!4m5!3m4!1s0x3be7cfd0136bb157:0x6487165bec1ce124!8m2!3d18.9995407!4d72.8397089?authuser=0&hl=en&rclk=1,18.9995407,72.8397089,Maharashtra,West 1
"Freedom - The allergy Clinic, Bhumkar ENT hospital",Medical clinic,"2nd Floor, Classic Plaza, Gokhale Rd, Naupada, Thane West, Thane, Maharashtra 400602, India","https://www.google.co.kr/maps/place/Freedom+-+The+allergy+Clinic,+Bhumkar+ENT+hospital/data=!4m5!3m4!1s0x3be7b92016395555:0xfc9560264c0f66e1!8m2!3d19.1872934!4d72.9706698?authuser=0&hl=en&rclk=1",19.1872934,72.9706698,Maharashtra,West 1
"Dr PAYAL AGRAWAL; MS( ObsGyn), DNB, MNAMS, INFERTILITY FELLOW & Specialist",Obstetrician-gynecologist,"44, kingsway Kingsway hospital Near kasturchand park, Nagpur, Maharashtra 440001, India","https://www.google.co.kr/maps/place/Dr+PAYAL+AGRAWAL;+MS(+ObsGyn),+DNB,+MNAMS,+INFERTILITY+FELLOW+%26+Specialist/data=!4m5!3m4!1s0x3bd4c0b7391f6e91:0x4e257e030813194!8m2!3d21.1551832!4d79.0812978?authuser=0&hl=en&rclk=1",21.1551832,79.0812978,Maharashtra,West 1
Dr. Uma Ali,Pediatrician,"KC Marg, Reclamation, Bandra West, Mumbai, Maharashtra 400050, India",https://www.google.co.kr/maps/place/Dr.+Uma+Ali/data=!4m5!3m4!1s0x3be7c938b75a586d:0x6b50abd029381b67!8m2!3d19.0510289!4d72.8290772?authuser=0&hl=en&rclk=1,19.0510289,72.8290772,Maharashtra,West 1
Dr. Dinshaw Pardiwala - Kokilaben Hospital,Orthopedic surgeon,"Kokilaben Hospital, Lokhandwala Complex Rd, Mudran Press Colony, Andheri West, Mumbai, Maharashtra 400053, India",https://www.google.co.kr/maps/place/Dr.+Dinshaw+Pardiwala+-+Kokilaben+Hospital/data=!4m5!3m4!1s0x3be7b7c632130b99:0x7ab42ff69b77a674!8m2!3d19.1312095!4d72.8249876?authuser=0&hl=en&rclk=1,19.1312095,72.8249876,Maharashtra,West 1
Bhargava Nursing Home,Nursing home,"Gopal Bhuvan, 32, 1st Floor, Near Poddar School, Tagore Rd, Santacruz West, Mumbai, Maharashtra 400054, India",https://www.google.co.kr/maps/place/Bhargava+Nursing+Home/data=!4m5!3m4!1s0x3be7c909bf13468f:0x903d9a891cb8543a!8m2!3d19.0795654!4d72.8354355?authuser=0&hl=en&rclk=1,19.0795654,72.8354355,Maharashtra,West 1
Jupiter Dialysis Clinic Pathology,Dialysis center,"Jarvari Rd, Pimple Saudagar, Pimpri-Chinchwad, Maharashtra 411027, India",https://www.google.co.kr/maps/place/Jupiter+Dialysis+Clinic+Pathology/data=!4m5!3m4!1s0x3bc2b9ce8371a683:0x8a6fdfed015ec7a5!8m2!3d18.5974768!4d73.7975418?authuser=0&hl=en&rclk=1,18.5974768,73.7975418,Maharashtra,West 1
"Shalby Hospital, Vapi",Hospital,"Near Chandralok Building Chanod, Silvasa Rd, Vapi, Gujarat 396195, India","https://www.google.co.kr/maps/place/Shalby+Hospital,+Vapi/data=!4m5!3m4!1s0x3be0ce6971c092a7:0xb8e68c4332a745d2!8m2!3d20.3537209!4d72.929081?authuser=0&hl=en&rclk=1",20.3537209,72.929081,Maharashtra,West 1
Bhalerao ENT Hospital & Laser Centre,Otolaryngologist,"F No 2/3/4 , 2nd Floor, Ganraj Complex, Near Mhalsakant Chowk, Shri Mhalsakant Vidyalaya Road, Akurdi, Pimpri-Chinchwad, Maharashtra 411035, India",https://www.google.co.kr/maps/place/Bhalerao+ENT+Hospital+%26+Laser+Centre/data=!4m5!3m4!1s0x3bc2b9c4ac8c3747:0x8b96b53d86babbc0!8m2!3d18.6495105!4d73.7776815?authuser=0&hl=en&rclk=1,18.6495105,73.7776815,Maharashtra,West 1
Dr kuber shri sai divine cure multi speciality hospital,Doctor,"Near main sbi bank bhanapeth ward, Maharashtra 442402, India",https://www.google.co.kr/maps/place/Dr+kuber+shri+sai+divine+cure+multi+speciality+hospital/data=!4m5!3m4!1s0x3bd2d500b106d8a3:0x116f734c1bc0f606!8m2!3d19.9496381!4d79.2987243?authuser=0&hl=en&rclk=1,19.9496381,79.2987243,Maharashtra,West 1
Arihant Heart Clinic & Nursing home LLP,Nursing home,"A-Ground Floor, Lancelot Apartment,opposite kalyan jewellers S.V. Road, Borivali West, Mumbai, Maharashtra 400092, India",https://www.google.co.kr/maps/place/Arihant+Heart+Clinic+%26+Nursing+home+LLP/data=!4m5!3m4!1s0x3be7b13affffffff:0x34fc9bc12cf61525!8m2!3d19.218955!4d72.852413?authuser=0&hl=en&rclk=1,19.218955,72.852413,Maharashtra,West 1
Dr. Rajeev Nerurkar,Doctor,"133, 1st Floor, MIRC Building, Bombay Hospital, Near Metro Cinema, Marine Drive, Mumbai, Maharashtra 400020, India",https://www.google.co.kr/maps/place/Dr.+Rajeev+Nerurkar/data=!4m5!3m4!1s0x3be7ce1e186fe84f:0x49ccdbca7264c4b0!8m2!3d18.9352611!4d72.8259553?authuser=0&hl=en&rclk=1,18.9352611,72.8259553,Maharashtra,West 1
Anand Nursing Home,Nursing home,"1758 B/1 Sakoli Corner, Maharashtra 416012, India",https://www.google.co.kr/maps/place/Anand+Nursing+Home/data=!4m5!3m4!1s0x3bc1000a0acd0149:0x2723f6309d0512e!8m2!3d16.6929279!4d74.2181189?authuser=0&hl=en&rclk=1,16.6929279,74.2181189,Maharashtra,West 1
Amardeep Nursing Home,Nursing home,"P.P. Road, Parsi Panchayat Rd, Mogra Pada, Andheri East, Mumbai, Maharashtra 400069, India",https://www.google.co.kr/maps/place/Amardeep+Nursing+Home/data=!4m5!3m4!1s0x3be7c9d4d253267b:0x142b532ca40785f!8m2!3d19.125135!4d72.85133?authuser=0&hl=en&rclk=1,19.125135,72.85133,Maharashtra,West 1
Dr M J Vaidya,Doctor,"30, Saswad Rd, Gadital, Hadapsar, Pune, Maharashtra 411028, India",https://www.google.co.kr/maps/place/Dr+M+J+Vaidya/data=!4m5!3m4!1s0x3bc2c2030ebfffff:0xb349cde28b364c64!8m2!3d18.5003165!4d73.939059?authuser=0&hl=en&rclk=1,18.5003165,73.939059,Maharashtra,West 1
Dr. Prakash Chandra Shetty,Urologist,"Hiranandani Hospital Road, Hill Side Avenue, Hiranandani Gardens, Powai, Mumbai, Maharashtra 400076, India",https://www.google.co.kr/maps/place/Dr.+Prakash+Chandra+Shetty/data=!4m5!3m4!1s0x3be7c7ec2c5ec2a9:0xf76d9158cc5a04d3!8m2!3d19.1203481!4d72.9169881?authuser=0&hl=en&rclk=1,19.1203481,72.9169881,Maharashtra,West 1
Satchit Lab,Diagnostic center,"Godam Galli, Mahavir Path, Mahadevnagar, Kopargaon, Maharashtra 423601, India",https://www.google.co.kr/maps/place/Satchit+Lab/data=!4m5!3m4!1s0x3bdc44688a5125ef:0x3721e67cec137ce4!8m2!3d19.8811928!4d74.4782812?authuser=0&hl=en&rclk=1,19.8811928,74.4782812,Maharashtra,West 1
Dr Samir Patil (Best Gastroentrologist in Nagpur),Gastroenterologist,"44, Kingsway Hospital , SPANV Unit care Kasturchand Park, Kingsway Rd, Nagpur, Maharashtra 440001, India",https://www.google.co.kr/maps/place/Dr+Samir+Patil+(Best+Gastroentrologist+in+Nagpur)/data=!4m5!3m4!1s0x3bd4c156335ebfdb:0x2edfd4dbc68bbaf4!8m2!3d21.1547034!4d79.0849414?authuser=0&hl=en&rclk=1,21.1547034,79.0849414,Maharashtra,West 1
Chandak Nursing Home,Orthopedic surgeon,"Super Market, Sitabuldi, Nagpur, Maharashtra 440012, India",https://www.google.co.kr/maps/place/Chandak+Nursing+Home/data=!4m5!3m4!1s0x3bd4c094c5555555:0x66402cf6562ec2bf!8m2!3d21.1448395!4d79.0824088?authuser=0&hl=en&rclk=1,21.1448395,79.0824088,Maharashtra,West 1
"Hormone Clinic (Dr Amol Bukan MD, DM Endo, Endocrinologist, Thyroid Specialist, Diabetologist)",Endocrinologist,"Satya Dharma Complex, Akashwani, Jalna Road, near Atul Suzuki, Aurangabad, Maharashtra 431001, India","https://www.google.co.kr/maps/place/Hormone+Clinic+(Dr+Amol+Bukan+MD,+DM+Endo,+Endocrinologist,+Thyroid+Specialist,+Diabetologist)/data=!4m5!3m4!1s0x3bdba29c149646e9:0x3b69eac4d3bd270d!8m2!3d19.8766583!4d75.3458924?authuser=0&hl=en&rclk=1",19.8766583,75.3458924,Maharashtra,West 1
Dr Pramod Gandhi (Best Endocrinologist in Nagpur),Endocrinologist,"Kingsway Hospital, 44 Kingsway Kasturchand park, Maharashtra 440001, India",https://www.google.co.kr/maps/place/Dr+Pramod+Gandhi+(Best+Endocrinologist+in+Nagpur)/data=!4m5!3m4!1s0x3bd4c1e65ba763d1:0x155929d8c6b1466f!8m2!3d21.1544937!4d79.0849717?authuser=0&hl=en&rclk=1,21.1544937,79.0849717,Maharashtra,West 1
Medicover hospital,Hospital,"T.S Republic of, N.H. 65, pastapur 'x' Road, Dist, Zahirabad, India",https://www.google.co.kr/maps/place/Medicover+hospital/data=!4m5!3m4!1s0x3bceb5af8ea817ab:0xd12f085c16f0ea53!8m2!3d17.6813308!4d77.635062?authuser=0&hl=en&rclk=1,17.6813308,77.635062,Maharashtra,West 1
Rochana Girish Bakshi,Doctor,"Parsik Hill Rd, Sector 23, CBD Belapur, Navi Mumbai, Maharashtra 400614, India",https://www.google.co.kr/maps/place/Rochana+Girish+Bakshi/data=!4m5!3m4!1s0x3be7c0d9d0000001:0x7052be13a39f28d4!8m2!3d19.1008619!4d73.005832?authuser=0&hl=en&rclk=1,19.1008619,73.005832,Maharashtra,West 1
Seva Hospital,Hospital,"Indumati Road, Police Head Quarters, Kolhapur, Maharashtra 416006, India",https://www.google.co.kr/maps/place/Seva+Hospital/data=!4m5!3m4!1s0x3bc100f4fe253cdd:0xf9460782dffb399d!8m2!3d16.7262799!4d74.2441231?authuser=0&hl=en&rclk=1,16.7262799,74.2441231,Maharashtra,West 1
Sahyadri Super Speciality Hospital Karad,Private hospital,"NH-48, Dadasaheb Chavan Nagar At Post Warunji Fata, Karad, Maharashtra 415110, India",https://www.google.co.kr/maps/place/Sahyadri+Super+Speciality+Hospital+Karad/data=!4m5!3m4!1s0x3bc1824d76e4f319:0x8291f169091acf4a!8m2!3d17.2804451!4d74.1736697?authuser=0&hl=en&rclk=1,17.2804451,74.1736697,Maharashtra,West 1
SAHYADRI HOSPITAL,Hospital,"M5QF+XC7, Balinge, Maharashtra 416010, India",https://www.google.co.kr/maps/place/SAHYADRI+HOSPITAL/data=!4m5!3m4!1s0x3bc1aadf2678a121:0x1805873567b91654!8m2!3d16.6899163!4d74.1735395?authuser=0&hl=en&rclk=1,16.6899163,74.1735395,Maharashtra,West 1
HCG Hospitals,Hospital,"Mithakhali Six Rd, kalyan Society, Maharashtra Society, Ellisbridge, Ahmedabad, Gujarat 380006, India",https://www.google.co.kr/maps/place/HCG+Hospitals/data=!4m5!3m4!1s0x395e84f773bc0859:0x227151ad64cb173a!8m2!3d23.0287828!4d72.56429?authuser=0&hl=en&rclk=1,23.0287828,72.56429,Maharashtra,West 1
