Company_Name,Category,Address,Url,latitude,longtitude
Dr. Preeti Sharma (Pulmonologist) - Grecian Hospital,Pulmonologist,"OPD 135, Block B, First Floor Ext: 276, Sector 69, Sahibzada Ajit Singh Nagar, Punjab 160062, India",https://www.google.co.kr/maps/place/Dr.+Preeti+Sharma+(Pulmonologist)+-+Grecian+Hospital/data=!4m5!3m4!1s0x390fef29a0a2327d:0x8c5a9fc6b81876b4!8m2!3d30.692499!4d76.7206652?authuser=0&hl=en&rclk=1,30.692499,76.7206652
Apollo Clinic- Best Orthopaedic and Joint Replacement in Chandigarh,Hospital,"SCO 10-11 NEAR GOPAL SWEETS, Madhya Marg, Sector 8C, Chandigarh, 160009, India",https://www.google.co.kr/maps/place/Apollo+Clinic-+Best+Orthopaedic+and+Joint+Replacement+in+Chandigarh/data=!4m5!3m4!1s0x390fed0d63fa7fff:0x4a2871d698c798f6!8m2!3d30.7403361!4d76.7923828?authuser=0&hl=en&rclk=1,30.7403361,76.7923828
A Clinic,Medical clinic,"Near, Government Hospital, SCO 71, Level 1, Sector 30-C, Chandigarh, 160030, India",https://www.google.co.kr/maps/place/A+Clinic/data=!4m5!3m4!1s0x390fec346b2afa77:0xc9faed4627548cac!8m2!3d30.7127075!4d76.7522199?authuser=0&hl=en&rclk=1,30.7127075,76.7522199
Health Clinic,Medical clinic,"Village Dadu Majra Mly Maloya, Manimajra, Manimajra, Sector 13, Chandigarh, 160101, India",https://www.google.co.kr/maps/place/Health+Clinic/data=!4m5!3m4!1s0x390f9331ad749419:0x7ded89c5169f7a57!8m2!3d30.7119422!4d76.8345485?authuser=0&hl=en&rclk=1,30.7119422,76.8345485
Chandigarh Clinic,Medical clinic,"759/2, 759/2, Thakur Dwara Rd, Mohalla Jattan Wala, Sector 13, Chandigarh, 160101, India",https://www.google.co.kr/maps/place/Chandigarh+Clinic/data=!4m5!3m4!1s0x390f932e2f7d4423:0xbf3188832f2d1b!8m2!3d30.714564!4d76.8339058?authuser=0&hl=en&rclk=1,30.714564,76.8339058
Healthcare clinic,Medical clinic,"#HM 26, Phase 2, Opp. Gian jyoti school, Sahibzada Ajit Singh Nagar, Chandigarh 160055, India",https://www.google.co.kr/maps/place/Healthcare+clinic/data=!4m5!3m4!1s0x390fee7a0ec27613:0xea96de5984584243!8m2!3d30.7251798!4d76.7269202?authuser=0&hl=en&rclk=1,30.7251798,76.7269202
Panacea Clinic,Medical clinic,"1160, Sector 33C, Sector 33, Chandigarh, 160047, India",https://www.google.co.kr/maps/place/Panacea+Clinic/data=!4m5!3m4!1s0x390fedec958b8a81:0xdad179c959e8b5fc!8m2!3d30.711078!4d76.769981?authuser=0&hl=en&rclk=1,30.711078,76.769981
Aarogya Clinic,Medical clinic,"1280, Sector 29 B, Sector 30, Chandigarh, 160030, India",https://www.google.co.kr/maps/place/Aarogya+Clinic/data=!4m5!3m4!1s0x390fedf524443645:0xf7d4eb017dbdb3c1!8m2!3d30.7158545!4d76.7920393?authuser=0&hl=en&rclk=1,30.7158545,76.7920393
The Sleep Clinic,Medical clinic,"SCO 122-123, Ground Floor, Sector 8 C, Madhya Marg, Chandigarh, 160009, India",https://www.google.co.kr/maps/place/The+Sleep+Clinic/data=!4m5!3m4!1s0x390fed79a655d1e3:0xc423c0e3e8fc47!8m2!3d30.737197!4d76.7949487?authuser=0&hl=en&rclk=1,30.737197,76.7949487
Sai Clinic,Medical clinic,"SCO 214 GROUND FLOOR ,, SECTOR 40-D, Chandigarh, 160036, India",https://www.google.co.kr/maps/place/Sai+Clinic/data=!4m5!3m4!1s0x390feda6178c691f:0x1c65e732d5988047!8m2!3d30.736324!4d76.735095?authuser=0&hl=en&rclk=1,30.736324,76.735095
Diet Clinic,Medical clinic,"1336, Sector 18-C, Sector 18, Chandigarh, 160018, India",https://www.google.co.kr/maps/place/Diet+Clinic/data=!4m5!3m4!1s0x390fed0606074679:0x4f12e4d9e7b6caa5!8m2!3d30.7309487!4d76.7852303?authuser=0&hl=en&rclk=1,30.7309487,76.7852303
Divya Clinic & Clinical Laboratory - Vaccination Centre In Chandigarh,Medical clinic,"SCF 45-46 Circular Road, Burail, Sector 45, Chandigarh, 160045, India",https://www.google.co.kr/maps/place/Divya+Clinic+%26+Clinical+Laboratory+-+Vaccination+Centre+In+Chandigarh/data=!4m5!3m4!1s0x390f9331ad749419:0xda93de97f4891b40!8m2!3d30.7061849!4d76.7574383?authuser=0&hl=en&rclk=1,30.7061849,76.7574383
Get Well Clinic,Medical clinic,"Shop No. 9, 1st Floor, Sector 20D, Chandigarh, 160020, India",https://www.google.co.kr/maps/place/Get+Well+Clinic/data=!4m5!3m4!1s0x390fedaa87715809:0x4e184a47d10dcc40!8m2!3d30.7224847!4d76.7793019?authuser=0&hl=en&rclk=1,30.7224847,76.7793019
Sadhbhavna Clinic | Best Gynaecologist Clinic in Chandigarh,Obstetrician-gynecologist,"198, Sector 40A, Block A, Chandigarh, 160036, India",https://www.google.co.kr/maps/place/Sadhbhavna+Clinic+%7C+Best+Gynaecologist+Clinic+in+Chandigarh/data=!4m5!3m4!1s0x390fee0a8b0f590d:0xd142d1a07a1d8140!8m2!3d30.740299!4d76.732671?authuser=0&hl=en&rclk=1,30.740299,76.732671
Tokhi`s Health Clinic & Elinical Lab (Dr),Medical clinic,"Shop 60, 29-c, Tribune Rd, 20C, Sector 33, Chandigarh, 160020, India",https://www.google.co.kr/maps/place/Tokhi%60s+Health+Clinic+%26+Elinical+Lab+(Dr)/data=!4m5!3m4!1s0x390feda6178c691f:0x4d2dcf0db363775f!8m2!3d30.7173693!4d76.7764937?authuser=0&hl=en&rclk=1,30.7173693,76.7764937
Life Physiotherapy Clinic - Sports Injury clinic In Chandigarh,Physical therapist,"#3,Sector 19 A, Chandigarh 160019, India",https://www.google.co.kr/maps/place/Life+Physiotherapy+Clinic+-+Sports+Injury+clinic+In+Chandigarh/data=!4m5!3m4!1s0x390fed0534518553:0xfa8e0e8c8f6b7c40!8m2!3d30.730626!4d76.791139?authuser=0&hl=en&rclk=1,30.730626,76.791139
Dr S K Khanna's Clinic,Medical clinic,"PQJF+R67, 22B, Sector 22, Chandigarh, 160022, India",https://www.google.co.kr/maps/place/Dr+S+K+Khanna's+Clinic/data=!4m5!3m4!1s0x390feda5c3ec0c23:0x57a71e83336655c8!8m2!3d30.7320254!4d76.7730362?authuser=0&hl=en&rclk=1,30.7320254,76.7730362
Chhabra Clinic,Medical clinic,"Block B, CSIO Colony, 30C, Sector 30, Chandigarh, 160030, India",https://www.google.co.kr/maps/place/Chhabra+Clinic/data=!4m5!3m4!1s0x390fecfb0da56dab:0xcf094f2e2a481d9b!8m2!3d30.713463!4d76.7890536?authuser=0&hl=en&rclk=1,30.713463,76.7890536
Chikitsa A Complete Mother And Child Clinic - Best Gynaecologist & Child Specialist Doctor in Chandigarh | Best Pediatrician in Chandigarh,Obstetrician-gynecologist,"house no 1048 Sector 37 B, Chandigarh, 160036, India",https://www.google.co.kr/maps/place/Chikitsa+A+Complete+Mother+And+Child+Clinic+-+Best+Gynaecologist+%26+Child+Specialist+Doctor+in+Chandigarh+%7C+Best+Pediatrician+in+Chandigarh/data=!4m5!3m4!1s0x390fedc004daea37:0xb355c1ac10a48207!8m2!3d30.7393206!4d76.7559954?authuser=0&hl=en&rclk=1,30.7393206,76.7559954
Dr. Chaudhry's Clinic,Medical clinic,"SCO 63, Sector 30-C, Sector 30, Chandigarh, 160030, India",https://www.google.co.kr/maps/place/Dr.+Chaudhry's+Clinic/data=!4m5!3m4!1s0x390fecfc40000001:0xd6f063c7b1f86f9f!8m2!3d30.7162423!4d76.7924587?authuser=0&hl=en&rclk=1,30.7162423,76.7924587
Central Clinic,Medical clinic,"SCF 89, Sector 47 D, Sector 47, Chandigarh, 160047, India",https://www.google.co.kr/maps/place/Central+Clinic/data=!4m5!3m4!1s0x390fec6795555555:0x994380b730e3ec6!8m2!3d30.6958783!4d76.7684242?authuser=0&hl=en&rclk=1,30.6958783,76.7684242
Sachdeva Health Clinic,Medical clinic,"Booth No.62, Tribune Colony, Sector 29C, Sector 29, Chandigarh, 160030, India",https://www.google.co.kr/maps/place/Sachdeva+Health+Clinic/data=!4m5!3m4!1s0x390fecefe362026f:0xb624eb96806fde7d!8m2!3d30.7089025!4d76.7917145?authuser=0&hl=en&rclk=1,30.7089025,76.7917145
Reviva Fertility Clinic & IVF Centre In Chandigarh,Fertility clinic,"Ground, S.C.O 50-51, 9D, Madhya Marg, Chandigarh 160009, India",https://www.google.co.kr/maps/place/Reviva+Fertility+Clinic+%26+IVF+Centre+In+Chandigarh/data=!4m5!3m4!1s0x390fed7328621f05:0xdac68cff9124b14c!8m2!3d30.7445813!4d76.7886296?authuser=0&hl=en&rclk=1,30.7445813,76.7886296
City Clinic,Medical clinic,"Shop No. 159-A, Street Number 11, Mariwala Town, Shanti Nagar, Sector 13, Chandigarh, 160101, India",https://www.google.co.kr/maps/place/City+Clinic/data=!4m5!3m4!1s0x390f932c0f81c9af:0x6a4a995bfb567a54!8m2!3d30.7188721!4d76.8309984?authuser=0&hl=en&rclk=1,30.7188721,76.8309984
Perfecto Physios Physiotherapy clinic in chandigarh,Physical therapist,"Inside Landmark Hospital, Site No. 1&2, Sector 33-C, near Terrace Garden, Chandigarh 160020, India",https://www.google.co.kr/maps/place/Perfecto+Physios+Physiotherapy+clinic+in+chandigarh/data=!4m5!3m4!1s0x390fec51e12fc269:0x36fb2c207b4d462c!8m2!3d30.7122992!4d76.7703747?authuser=0&hl=en&rclk=1,30.7122992,76.7703747
Arista Clinic,Medical clinic,"S.C.O. 73, First Floor, Sector 40C, Chandigarh, 160036, India",https://www.google.co.kr/maps/place/Arista+Clinic/data=!4m5!3m4!1s0x390feddfa637073b:0xcc7d47a472528280!8m2!3d30.7351904!4d76.7357381?authuser=0&hl=en&rclk=1,30.7351904,76.7357381
DOCHEAL CLINIC,Medical clinic,"SCO 324, First Floor, Sector 40D, Chandigarh, 160036, India",https://www.google.co.kr/maps/place/DOCHEAL+CLINIC/data=!4m5!3m4!1s0x390fefd2db688ab5:0x139759f45c1e460b!8m2!3d30.7391842!4d76.731386?authuser=0&hl=en&rclk=1,30.7391842,76.731386
Dr.Santokh Clinic,Sports medicine physician,"Booth No 31,, Sector 47 D, Chandigarh, 160047, India",https://www.google.co.kr/maps/place/Dr.Santokh+Clinic/data=!4m5!3m4!1s0x390fec6825555549:0x74ec9e99bd44ac65!8m2!3d30.6979106!4d76.7668185?authuser=0&hl=en&rclk=1,30.6979106,76.7668185
Dr. Sharma's Clinic,Medical clinic,"NEAR, Shop/Plot no.438/3, Railway Station Rd, Daria, Chandigarh, 160101, India",https://www.google.co.kr/maps/place/Dr.+Sharma's+Clinic/data=!4m5!3m4!1s0x390fecb799c35425:0x744d51040c4a17dc!8m2!3d30.6986002!4d76.815823?authuser=0&hl=en&rclk=1,30.6986002,76.815823
Jindal Clinics,Medical clinic,"Old cloth Market, SCO 21, Sector 20 D, Near Shri Guru Ravi Dass Bhawan, Dakshin Marg, Chandigarh, 160020, India",https://www.google.co.kr/maps/place/Jindal+Clinics/data=!4m5!3m4!1s0x390fed004000006b:0x7a3f5cee259e7ddb!8m2!3d30.7192884!4d76.7750184?authuser=0&hl=en&rclk=1,30.7192884,76.7750184
Preet Clinic,Medical clinic,"shop no, 174, Sukhna Rd, Burail, Sector 45C, Sector 45, Chandigarh, 160047, India",https://www.google.co.kr/maps/place/Preet+Clinic/data=!4m5!3m4!1s0x390fec466e02e131:0x201748fc558278c8!8m2!3d30.7048283!4d76.7617949?authuser=0&hl=en&rclk=1,30.7048283,76.7617949
Kansal Clinic,Medical clinic,"Kothi No. 4, Phase 2, near Bassi Theatre, Sector 54, Sahibzada Ajit Singh Nagar, Chandigarh 160055, India",https://www.google.co.kr/maps/place/Kansal+Clinic/data=!4m5!3m4!1s0x390fee7bd868a5cd:0x2c0864399d98e8fa!8m2!3d30.7219729!4d76.7286878?authuser=0&hl=en&rclk=1,30.7219729,76.7286878
Pristyn Care,Surgical center,"No 1599, 22B, Sector 22, Chandigarh, 160022, India",https://www.google.co.kr/maps/place/Pristyn+Care/data=!4m5!3m4!1s0x390fed2ec7fec0a5:0x9a97ca2b69549474!8m2!3d30.7331197!4d76.775199?authuser=0&hl=en&rclk=1,30.7331197,76.775199
Golden Clinics,Orthopedic clinic,"OPD Clinics House No. 5 Sector 19 A Market road Sector, 19A, Chandigarh, 160019, India",https://www.google.co.kr/maps/place/Golden+Clinics/data=!4m5!3m4!1s0x390fedfd0d8aecef:0xcd825780b4deba!8m2!3d30.7302783!4d76.7912388?authuser=0&hl=en&rclk=1,30.7302783,76.7912388
Indira IVF Chandigarh,Fertility clinic,"GROUND & FIRST FLOOR, SCO 156, SECTOR 9 C MADHYA, Madhya Marg, Chandigarh, Punjab 160009, India",https://www.google.co.kr/maps/place/Indira+IVF+Chandigarh/data=!4m5!3m4!1s0x390fed0d4a368de5:0x7d675ef4d5bcf477!8m2!3d30.7422791!4d76.7904601?authuser=0&hl=en&rclk=1,30.7422791,76.7904601
Mehta Clinic,Medical clinic,"Ambedkar Awas Yojna, Sector 56, Chandigarh, 160055, India",https://www.google.co.kr/maps/place/Mehta+Clinic/data=!4m5!3m4!1s0x390fee137a5e9ca7:0x6411014da04aeda0!8m2!3d30.7381673!4d76.7169529?authuser=0&hl=en&rclk=1,30.7381673,76.7169529
Om Clinic & Clinical Laboratory,Medical clinic,"Booth No 203, Scetor 47-C, Sector 34-A, Sector 34-A, Chandigarh, 160022, India",https://www.google.co.kr/maps/place/Om+Clinic+%26+Clinical+Laboratory/data=!4m5!3m4!1s0x390fedb315555555:0xda5755d11b5c30e1!8m2!3d30.7195844!4d76.7639949?authuser=0&hl=en&rclk=1,30.7195844,76.7639949
Indra Clinic,Medical clinic,"H No 1013, 43-b, Sector-22, Sector-22, Chandigarh, 160022, India",https://www.google.co.kr/maps/place/Indra+Clinic/data=!4m5!3m4!1s0x390feda4a4306505:0x325f2de53c564abc!8m2!3d30.732999!4d76.7711626?authuser=0&hl=en&rclk=1,30.732999,76.7711626
Diet Mantra Clinic,Medical clinic,"S.C.O. 68-69, 1st Floor, Madhya Marg, Sector 8C, Chandigarh, 160009, India",https://www.google.co.kr/maps/place/Diet+Mantra+Clinic/data=!4m5!3m4!1s0x390fed126db95a31:0x846e87d165986eab!8m2!3d30.739202!4d76.7930166?authuser=0&hl=en&rclk=1,30.739202,76.7930166
Medident Health Care Clinic And Laboratory,Medical clinic,"2314, Vidya Path, Sector 38C, Sector 38, Chandigarh, 160036, India",https://www.google.co.kr/maps/place/Medident+Health+Care+Clinic+And+Laboratory/data=!4m5!3m4!1s0x390fede64a6d647d:0x369248b8723037b6!8m2!3d30.7417197!4d76.7436375?authuser=0&hl=en&rclk=1,30.7417197,76.7436375
Skin Care Clinic,Medical clinic,"no - 22, Sub. City Center, Sector 34A, Sector 15, Chandigarh, 160022, India",https://www.google.co.kr/maps/place/Skin+Care+Clinic/data=!4m5!3m4!1s0x390fed9b32d90719:0x43b62246a63d104!8m2!3d30.7254396!4d76.7678717?authuser=0&hl=en&rclk=1,30.7254396,76.7678717
Dr Batras Positive Clinic Private Limited,Medical clinic,"Sco No 45/46, Sector 8-c, Sector 8-c, Chandigarh, 160018, India",https://www.google.co.kr/maps/place/Dr+Batras+Positive+Clinic+Private+Limited/data=!4m5!3m4!1s0x390fed15aaaaaaab:0xa96d95c6be1ca0cd!8m2!3d30.7416185!4d76.8000091?authuser=0&hl=en&rclk=1,30.7416185,76.8000091
Dr. Ruchi Rai Ahuja - Best Gynaecologist In Chandigarh - Breast Specialist In Chandigarh - Normal Delivery Specialist In Chandigarh - Abortion Doctor In Chandigarh,Obstetrician-gynecologist,"109, near Rotary Club, Sector 18A, 18A, Sector 18, Chandigarh, 160018, India",https://www.google.co.kr/maps/place/Dr.+Ruchi+Rai+Ahuja+-+Best+Gynaecologist+In+Chandigarh+-+Breast+Specialist+In+Chandigarh+-+Normal+Delivery+Specialist+In+Chandigarh+-+Abortion+Doctor+In+Chandigarh/data=!4m5!3m4!1s0x390fed0e6d820685:0x231daec912bc92b2!8m2!3d30.7368086!4d76.7898809?authuser=0&hl=en&rclk=1,30.7368086,76.7898809
"Grace IVF, Chandigarh",Reproductive health clinic,"House No. 5, Sector 19A, Chandigarh, 160019, India","https://www.google.co.kr/maps/place/Grace+IVF,+Chandigarh/data=!4m5!3m4!1s0x390fed05333af935:0x68a703f43a841049!8m2!3d30.7303688!4d76.7913009?authuser=0&hl=en&rclk=1",30.7303688,76.7913009
Best Hospital In Mohali - Grecian Hospital,Hospital,"Phase 9, Sahibzada Ajit Singh Nagar, Punjab 160062, India",https://www.google.co.kr/maps/place/Best+Hospital+In+Mohali+-+Grecian+Hospital/data=!4m5!3m4!1s0x390fef61c8c1f933:0xd99563bb6562abea!8m2!3d30.6914722!4d76.7224095?authuser=0&hl=en&rclk=1,30.6914722,76.7224095
Chhabra Clinic,Occupational medical physician,"House no 7, Sector 15-A, Sector 15, Chandigarh, 160015, India",https://www.google.co.kr/maps/place/Chhabra+Clinic/data=!4m5!3m4!1s0x390fed9b3fffffff:0xd3021483e0c0dd90!8m2!3d30.7541207!4d76.7708399?authuser=0&hl=en&rclk=1,30.7541207,76.7708399
"Dr Atul Malhotra - Orthopedic Doctor in Chandigarh, Punjab, India- Knee Replacement Surgeon In Punjab| Best Trauma Hospital In Chandigarh| Best Knee and Hip Hospital In Chandigarh",Hospital,"2125, Sarovar Path, Sector 21C, Sector 21, Chandigarh, 160022, India","https://www.google.co.kr/maps/place/Dr+Atul+Malhotra+-+Orthopedic+Doctor+in+Chandigarh,+Punjab,+India-+Knee+Replacement+Surgeon+In+Punjab%7C+Best+Trauma+Hospital+In+Chandigarh%7C+Best+Knee+and+Hip+Hospital+In+Chandigarh/data=!4m5!3m4!1s0x390fedabefdf9d6f:0xcc14f30f0bdbba7d!8m2!3d30.724101!4d76.774772?authuser=0&hl=en&rclk=1",30.724101,76.774772
Dr Vikas Mehra - Best Knee Replacement Surgeon | HIP Replacement | Best Orthopedic Surgeon | Spine Surgery In Chandigarh,Orthopedic clinic,"1501 Ssctor 33 D, Chandigarh 160022, India",https://www.google.co.kr/maps/place/Dr+Vikas+Mehra+-+Best+Knee+Replacement+Surgeon+%7C+HIP+Replacement+%7C+Best+Orthopedic+Surgeon+%7C+Spine+Surgery+In+Chandigarh/data=!4m5!3m4!1s0x390fec523fffffff:0xa9a0d7255e6432c1!8m2!3d30.7123962!4d76.7665364?authuser=0&hl=en&rclk=1,30.7123962,76.7665364
Health Clinic,Medical clinic,"Shop No. 1, Near Samadhi Wala Mandir, Hallo Majra, Chandigarh, 160002, India",https://www.google.co.kr/maps/place/Health+Clinic/data=!4m5!3m4!1s0x390fec97cada4def:0xa073661b8e95af6a!8m2!3d30.6909507!4d76.8016036?authuser=0&hl=en&rclk=1,30.6909507,76.8016036
"Fortis Medcentre Hospital in Chandigarh, Punjab",Medical clinic,"SCO, 11D, Sector 11, Chandigarh, 160011, India","https://www.google.co.kr/maps/place/Fortis+Medcentre+Hospital+in+Chandigarh,+Punjab/data=!4m5!3m4!1s0x390fed793fffff97:0x26ac8f25971112f6!8m2!3d30.7606565!4d76.7820387?authuser=0&hl=en&rclk=1",30.7606565,76.7820387
Dr. M. P. Gupta,Doctor,"Shop No: 69, 70, Sub. City Center, 35C, Sector 35, Chandigarh, 160035, India",https://www.google.co.kr/maps/place/Dr.+M.+P.+Gupta/data=!4m5!3m4!1s0x390fedb688814641:0x275a39cbc1ca774d!8m2!3d30.7240797!4d76.7598099?authuser=0&hl=en&rclk=1,30.7240797,76.7598099
"Dr Parmod Clinic , Chandigarh",Psychiatrist,"House No.131, Sector 35A ,Entry from Side Gate,, Sector 35-A, Sector 35A, Jan Marg, Chandigarh, 160035, India","https://www.google.co.kr/maps/place/Dr+Parmod+Clinic+,+Chandigarh/data=!4m5!3m4!1s0x390fedb82374d4b3:0x26f59a12f403c511!8m2!3d30.7295036!4d76.7586948?authuser=0&hl=en&rclk=1",30.7295036,76.7586948
Davinder Jain Clinic,Medical clinic,"plot no. 3089, 22D rd, Sector 22-D, Chandigarh, 160022, India",https://www.google.co.kr/maps/place/Davinder+Jain+Clinic/data=!4m5!3m4!1s0x390fedaec32af775:0x710c60884d3f5a47!8m2!3d30.7268414!4d76.7728079?authuser=0&hl=en&rclk=1,30.7268414,76.7728079
Yogesh Chawla Liver Clinic,Medical clinic,"sco 385, Sector 44, Sector 50D, Chandigarh, 160044, India",https://www.google.co.kr/maps/place/Yogesh+Chawla+Liver+Clinic/data=!4m5!3m4!1s0x390fedbaa67b9add:0x82e8b6f686686fb9!8m2!3d30.715193!4d76.751174?authuser=0&hl=en&rclk=1,30.715193,76.751174
Dr alok ahuja clinic,Surgeon,"H no 109 sec 18 a, Chandigarh, 160018, India",https://www.google.co.kr/maps/place/Dr+alok+ahuja+clinic/data=!4m5!3m4!1s0x390fed0e5c4f9209:0xcf44617f978bd7e5!8m2!3d30.7361039!4d76.7888971?authuser=0&hl=en&rclk=1,30.7361039,76.7888971
Pahwa Clinic,Medical clinic,"House, 1, Sarovar Path, 19A, Sector 19, A, Chandigarh 160019, India",https://www.google.co.kr/maps/place/Pahwa+Clinic/data=!4m5!3m4!1s0x390fed0535c799dd:0x8beb411a2d649edf!8m2!3d30.7307237!4d76.7911223?authuser=0&hl=en&rclk=1,30.7307237,76.7911223
Amrit Homoeo Clinic,Medical clinic,"House No. 1469, Jan Marg, Sector 42 B, Chandigarh, 160036, India",https://www.google.co.kr/maps/place/Amrit+Homoeo+Clinic/data=!4m5!3m4!1s0x390fedce2cf3bb53:0xef5ef037767151a6!8m2!3d30.7243369!4d76.7456888?authuser=0&hl=en&rclk=1,30.7243369,76.7456888
Cloudnine Hospital - Chandigarh,Maternity hospital,"48, Phase-2, Industrial Area Phase I, Chandigarh, 160002, India",https://www.google.co.kr/maps/place/Cloudnine+Hospital+-+Chandigarh/data=!4m5!3m4!1s0x390fecf305a2d351:0x46dbd6e5ebd44ac4!8m2!3d30.700183!4d76.787673?authuser=0&hl=en&rclk=1,30.700183,76.787673
Jindal IVF and Sant Memorial Nursing Home,Hospital,"#3050, behind Sri Guru Ravidass Bhawan, Sector 20D, Chandigarh, 160020, India",https://www.google.co.kr/maps/place/Jindal+IVF+and+Sant+Memorial+Nursing+Home/data=!4m5!3m4!1s0x390fed0040000001:0x944d4bb17429be75!8m2!3d30.7190721!4d76.7758507?authuser=0&hl=en&rclk=1,30.7190721,76.7758507
Clarity Women's Clinic - Best Gynaecologist in Chandigarh | Female Gynaecologist in Chandigarh,Obstetrician-gynecologist,"Dr. Pallavi Bansal House no 80, Sector 16 A, Chandigarh, 160015, India",https://www.google.co.kr/maps/place/Clarity+Women's+Clinic+-+Best+Gynaecologist+in+Chandigarh+%7C+Female+Gynaecologist+in+Chandigarh/data=!4m5!3m4!1s0x390fed6a6edadda7:0x4b89d7a44bfaab7!8m2!3d30.7494759!4d76.7772022?authuser=0&hl=en&rclk=1,30.7494759,76.7772022
Dr. Shital Bhardwaj - Best Gynecologist in Chandigarh | Gynae Laparoscopic Surgeon in Sector 22 | PCOD Specialist in Chandigarh | Infertility Specialist | Pregnancy Expert | Abortion and MTP Doctor | Vaginal Tightening Expert,Obstetrician-gynecologist,"1599, 22B, Sector 22, Chandigarh, 160022, India",https://www.google.co.kr/maps/place/Dr.+Shital+Bhardwaj+-+Best+Gynecologist+in+Chandigarh+%7C+Gynae+Laparoscopic+Surgeon+in+Sector+22+%7C+PCOD+Specialist+in+Chandigarh+%7C+Infertility+Specialist+%7C+Pregnancy+Expert+%7C+Abortion+and+MTP+Doctor+%7C+Vaginal+Tightening+Expert/data=!4m5!3m4!1s0x390fede8c76c15a7:0xcd7affb45004898a!8m2!3d30.733101!4d76.775203?authuser=0&hl=en&rclk=1,30.733101,76.775203
Crayons,Medical clinic,"SCO 158, Ground floor Sector 24D, Chandigarh 160023, India",https://www.google.co.kr/maps/place/Crayons/data=!4m5!3m4!1s0x390fedfdd23f2b5d:0x42f0319ae78ab14d!8m2!3d30.7466!4d76.7596228?authuser=0&hl=en&rclk=1,30.7466,76.7596228
"Best Fertility Specialist, Obstetrician, Gynecologist Chandigarh Dr Rakhi Goyal",Medical clinic,"SCO 809-810, Sector 22 A, opposite Parade Ground, Chandigarh, 160022, India","https://www.google.co.kr/maps/place/Best+Fertility+Specialist,+Obstetrician,+Gynecologist+Chandigarh+Dr+Rakhi+Goyal/data=!4m5!3m4!1s0x390fed94d62b4057:0x4dbc25858c715e64!8m2!3d30.738338!4d76.7767521?authuser=0&hl=en&rclk=1",30.738338,76.7767521
Heart Clinic,Medical clinic,"PP8H+Q9R, Phase 3 A, Sector 53, Sahibzada Ajit Singh Nagar, Chandigarh 160059, India",https://www.google.co.kr/maps/place/Heart+Clinic/data=!4m5!3m4!1s0x390fefa65631fecd:0xecfa0dc105592c28!8m2!3d30.7169865!4d76.7283966?authuser=0&hl=en&rclk=1,30.7169865,76.7283966
Bedi Hospital (Best Mother and Child Care Hospital),Maternity hospital,"182, 33A, Sector 33, A, Chandigarh 160020, India",https://www.google.co.kr/maps/place/Bedi+Hospital+(Best+Mother+and+Child+Care+Hospital)/data=!4m5!3m4!1s0x390fedb32090f169:0xed2bf002a16ede08!8m2!3d30.717576!4d76.7694951?authuser=0&hl=en&rclk=1,30.717576,76.7694951
Health Clinic & Vaccination Centre,Fertility clinic,"near Gugga Maadi, Daddu Majra Colony, Chandigarh, 160025, India",https://www.google.co.kr/maps/place/Health+Clinic+%26+Vaccination+Centre/data=!4m5!3m4!1s0x390fedffdf7b63ed:0x6c62585f7f3561d8!8m2!3d30.7585339!4d76.7336759?authuser=0&hl=en&rclk=1,30.7585339,76.7336759
Hypertenson Clinic,Medical clinic,"SCO 808, Udyog Path, 22A, Sector 22, Chandigarh, 160022, India",https://www.google.co.kr/maps/place/Hypertenson+Clinic/data=!4m5!3m4!1s0x390feda17af15e3d:0x2bdbf3c14c8e4d96!8m2!3d30.7384469!4d76.774655?authuser=0&hl=en&rclk=1,30.7384469,76.774655
Dr. L.K. Mittal Charitable ENT Clinic Chandigarh,Otolaryngologist,"#1222, Sector 21B, Chandigarh, 160022, India",https://www.google.co.kr/maps/place/Dr.+L.K.+Mittal+Charitable+ENT+Clinic+Chandigarh/data=!4m5!3m4!1s0x390fed6fc3a6eb23:0x5b94bc490161ac6f!8m2!3d30.7268789!4d76.7791819?authuser=0&hl=en&rclk=1,30.7268789,76.7791819
"Milann Fertility Center, Shanti Path, Chandigarh - Best Fertility Clinic in Chandigarh",Fertility clinic,"#396, Sector, 46A, Sector 46, Chandigarh, 160047, India","https://www.google.co.kr/maps/place/Milann+Fertility+Center,+Shanti+Path,+Chandigarh+-+Best+Fertility+Clinic+in+Chandigarh/data=!4m5!3m4!1s0x390fec446aaaaaab:0x3992dc3311c6790c!8m2!3d30.7071511!4d76.7673188?authuser=0&hl=en&rclk=1",30.7071511,76.7673188
Clinic,Medical clinic,"QQFR+5XX, Nayagaon, Chandigarh 160103, India",https://www.google.co.kr/maps/place/Clinic/data=!4m5!3m4!1s0x390ff29b415aa115:0xd9d3d49292bf45ac!8m2!3d30.7729776!4d76.7924836?authuser=0&hl=en&rclk=1,30.7729776,76.7924836
Darshan Clinic,Medical clinic,"Shop No 58,Janta Market, Maloya, Chandigarh, 160025, India",https://www.google.co.kr/maps/place/Darshan+Clinic/data=!4m5!3m4!1s0x390fee1cdde5e3d1:0xe3b907544e6b854a!8m2!3d30.7543989!4d76.7183035?authuser=0&hl=en&rclk=1,30.7543989,76.7183035
Janta Clinic,Medical clinic,"K No 9 20-a, Tribune Road, Tribune Road, Chandigarh, 160020, India",https://www.google.co.kr/maps/place/Janta+Clinic/data=!4m5!3m4!1s0x390feda6178c691f:0xdd7734dcd4199735!8m2!3d30.7213417!4d76.7812596?authuser=0&hl=en&rclk=1,30.7213417,76.7812596
Hartej Clinic,Medical clinic,"SCF 48, Level- I, Phase 5, Sector 59, Sahibzada Ajit Singh Nagar, Punjab 160059, India",https://www.google.co.kr/maps/place/Hartej+Clinic/data=!4m5!3m4!1s0x390fee616e02b1e3:0x605b632607a833ed!8m2!3d30.7165938!4d76.7152915?authuser=0&hl=en&rclk=1,30.7165938,76.7152915
J P Medical Centre,Medical Center,"House No. 3031, Sector 19-D, Chandigarh, 160019, India",https://www.google.co.kr/maps/place/J+P+Medical+Centre/data=!4m5!3m4!1s0x390fed044c771537:0x27924c320a14937!8m2!3d30.7286009!4d76.7874863?authuser=0&hl=en&rclk=1,30.7286009,76.7874863
Homoeo Clinic,Medical clinic,"#619, Phase 1, Sector 55, Chandigarh, 160055, India",https://www.google.co.kr/maps/place/Homoeo+Clinic/data=!4m5!3m4!1s0x390fee704785796f:0x19a4e9cb3addbdbd!8m2!3d30.7272377!4d76.7235863?authuser=0&hl=en&rclk=1,30.7272377,76.7235863
"Chaitanya Hospital Best Gynecologist, Child Specialist, Delivery, NICU, PICU and Vaccination Centre in Chandigarh",Maternity hospital,"Hospital Site 1 And 2, 44C, Chandigarh, 160047, India","https://www.google.co.kr/maps/place/Chaitanya+Hospital+Best+Gynecologist,+Child+Specialist,+Delivery,+NICU,+PICU+and+Vaccination+Centre+in+Chandigarh/data=!4m5!3m4!1s0x390fec346aaaaaab:0x44ed6b196913f7fd!8m2!3d30.7106785!4d76.7542021?authuser=0&hl=en&rclk=1",30.7106785,76.7542021
Sidhu Clinic,Medical clinic,"Shop No. 24, near Khera Mandir, Kajheri, Kajheri Village, Sector 52, Chandigarh, 160036, India",https://www.google.co.kr/maps/place/Sidhu+Clinic/data=!4m5!3m4!1s0x390fec2b4ffffff3:0xb1ac1e87b25289ee!8m2!3d30.7148268!4d76.7387744?authuser=0&hl=en&rclk=1,30.7148268,76.7387744
Cloudnine Fertility & IVF Center - Chandigarh,Fertility clinic,"1st Floor, Site No. 48, Industrial Area Phase II, Chandigarh, 160002, India",https://www.google.co.kr/maps/place/Cloudnine+Fertility+%26+IVF+Center+-+Chandigarh/data=!4m5!3m4!1s0x390fed2d58301063:0x25c34a41de22315c!8m2!3d30.7000391!4d76.7878873?authuser=0&hl=en&rclk=1,30.7000391,76.7878873
Dr.Alam Clinic,Medical clinic,"QQFP+275, Adarsh Nagar, Nayagaon, Chandigarh 133301, India",https://www.google.co.kr/maps/place/Dr.Alam+Clinic/data=!4m5!3m4!1s0x390ff2841fa2a559:0x407df34e7be98f4!8m2!3d30.7725025!4d76.7857247?authuser=0&hl=en&rclk=1,30.7725025,76.7857247
Dr. Sukhdev Singh 's ENT Clinic,Medical clinic,"3049, 19D, Sector 19, Chandigarh, 160019, India",https://www.google.co.kr/maps/place/Dr.+Sukhdev+Singh+'s+ENT+Clinic/data=!4m5!3m4!1s0x390fed02510aff81:0x8e3bbee13840e51f!8m2!3d30.7281885!4d76.7870223?authuser=0&hl=en&rclk=1,30.7281885,76.7870223
"Prime Healthcare - Best Ortho Doctor, M.D Medicine Physician, Sugar, BP & Thyroid Specialist, rheumatologist, Orthopaedics, Bone Fracture & Joint pain, Physiotherapy in Chandigarh",Hospital,"SCO 10, Sector 27D, Sector 27, Chandigarh, 160019, India","https://www.google.co.kr/maps/place/Prime+Healthcare+-+Best+Ortho+Doctor,+M.D+Medicine+Physician,+Sugar,+BP+%26+Thyroid+Specialist,+rheumatologist,+Orthopaedics,+Bone+Fracture+%26+Joint+pain,+Physiotherapy+in+Chandigarh/data=!4m5!3m4!1s0x390fed6663b23dcb:0x93bb99556bb6bc0b!8m2!3d30.7235415!4d76.7972246?authuser=0&hl=en&rclk=1",30.7235415,76.7972246
Dr.Rohit Grover,Ophthalmologist,"#140, Sector 35, Chandigarh, 160022, India",https://www.google.co.kr/maps/place/Dr.Rohit+Grover/data=!4m5!3m4!1s0x390feda0f5aaaaab:0xd897322dfb3c6cc0!8m2!3d30.7302182!4d76.760279?authuser=0&hl=en&rclk=1,30.7302182,76.760279
Advanced Hip & Knee Clinic - Best Knee Replacement Centre of Chandigarh,Orthopedic surgeon,"S.C.O. 82, Sector 47 D, Chandigarh, 160047, India",https://www.google.co.kr/maps/place/Advanced+Hip+%26+Knee+Clinic+-+Best+Knee+Replacement+Centre+of+Chandigarh/data=!4m5!3m4!1s0x390fec67a9e3727f:0x3cae7dfcbc690856!8m2!3d30.6961725!4d76.7681385?authuser=0&hl=en&rclk=1,30.6961725,76.7681385
Bansal Clinic,Medical clinic,"SCO- 42, Sector 47 D, Chandigarh, 160047, India",https://www.google.co.kr/maps/place/Bansal+Clinic/data=!4m5!3m4!1s0x390fec6795555555:0x61989d7d872d732e!8m2!3d30.6975607!4d76.766983?authuser=0&hl=en&rclk=1,30.6975607,76.766983
Dr Alok Ahuja - Best Surgeon In Chandigarh - Best Laparoscopic And Cancer Surgeon In Chandigarh\ Mohali,Surgeon,"# 109 sec, 18A, Chandigarh, 160018, India",https://www.google.co.kr/maps/place/Dr+Alok+Ahuja+-+Best+Surgeon+In+Chandigarh+-+Best+Laparoscopic+And+Cancer+Surgeon+In+Chandigarh%5C+Mohali/data=!4m5!3m4!1s0x390fed6d0afe733d:0x571397fe9cf7dda7!8m2!3d30.735775!4d76.788832?authuser=0&hl=en&rclk=1,30.735775,76.788832
clinic,Doctor,"Sector 56, Chandigarh, 160056, India",https://www.google.co.kr/maps/place/clinic/data=!4m5!3m4!1s0x390feddee251c193:0x280a6efa222b9588!8m2!3d30.7372829!4d76.7153734?authuser=0&hl=en&rclk=1,30.7372829,76.7153734
"ICU Ventilator Specialist--- Dr ASHISH Garg - MD, FNB Critical Care Medicine",Specialized clinic,"GARG Clinics - The ICU #5, Sector 19A, Chandigarh 160019, India","https://www.google.co.kr/maps/place/ICU+Ventilator+Specialist---+Dr+ASHISH+Garg+-+MD,+FNB+Critical+Care+Medicine/data=!4m5!3m4!1s0x390fedeb9fd4798d:0xad5bd12a8217ef43!8m2!3d30.7303083!4d76.7913816?authuser=0&hl=en&rclk=1",30.7303083,76.7913816
Paik Clinic,Medical clinic,"House no 704, Sector 43-A, Chandigarh, 160022, India",https://www.google.co.kr/maps/place/Paik+Clinic/data=!4m5!3m4!1s0x390fedc3afffffff:0x78dc8a93e27ccfe1!8m2!3d30.7246725!4d76.7521635?authuser=0&hl=en&rclk=1,30.7246725,76.7521635
"Apollo Clinic, SCO 10-11",Medical clinic,"SCO 10-11, Madhya Marg, Sector 8C, Sector 8, Chandigarh, 160008, India","https://www.google.co.kr/maps/place/Apollo+Clinic,+SCO+10-11/data=!4m5!3m4!1s0x390fedbcd4faba4d:0x8e15207fce22e9ab!8m2!3d30.7403901!4d76.7923967?authuser=0&hl=en&rclk=1",30.7403901,76.7923967
Clinic,Medical clinic,"PP6J+FM7, LIG Housing Board, Sector 52, Chandigarh, 160036, India",https://www.google.co.kr/maps/place/Clinic/data=!4m5!3m4!1s0x390fef8c0e3380cd:0x105d8a2bc397148e!8m2!3d30.7111738!4d76.7316662?authuser=0&hl=en&rclk=1,30.7111738,76.7316662
Kajal Poly Clinic,Medical clinic,"346, Sector 21A, Sector 21, Chandigarh, 160022, India",https://www.google.co.kr/maps/place/Kajal+Poly+Clinic/data=!4m5!3m4!1s0x390feda96aaaaaab:0xf9b64b954f18a15a!8m2!3d30.7352147!4d76.7692208?authuser=0&hl=en&rclk=1,30.7352147,76.7692208
Detox Clinic,Medical clinic,+91 81467 58243,https://www.google.co.kr/maps/place/Detox+Clinic/data=!4m5!3m4!1s0x390fedc6cc4df195:0xbd37a3fc13a556a!8m2!3d21.1337907!4d82.778933?authuser=0&hl=en&rclk=1,21.1337907,82.778933
"Dr.Gunjan Baweja - Best Pediatrician, Child and Adolescent specialist. Vaccination Centre for newborns, Children and Adults",Pediatrician,"3031, 19D, Sector 19, Chandigarh, 160019, India","https://www.google.co.kr/maps/place/Dr.Gunjan+Baweja+-+Best+Pediatrician,+Child+and+Adolescent+specialist.+Vaccination+Centre+for+newborns,+Children+and+Adults/data=!4m5!3m4!1s0x390fed044f12517b:0x47e8230c44df6743!8m2!3d30.72875!4d76.7874269?authuser=0&hl=en&rclk=1",30.72875,76.7874269
Dr. D.V. Mehta,Medical clinic,"Shop No. 25, Sub. City Center, Sector 35-C, Chandigarh, 160035, India",https://www.google.co.kr/maps/place/Dr.+D.V.+Mehta/data=!4m5!3m4!1s0x390fedb68e305cb7:0x4df2305fb652febd!8m2!3d30.7246888!4d76.7599682?authuser=0&hl=en&rclk=1,30.7246888,76.7599682
Psychodermatology Clinic,Psychotherapist,"SCO 142-143, 4th Floor, Chandigarh 160034, India",https://www.google.co.kr/maps/place/Psychodermatology+Clinic/data=!4m5!3m4!1s0x390fed9c65270811:0xe3ea5cda42baf228!8m2!3d30.7214413!4d76.770261?authuser=0&hl=en&rclk=1,30.7214413,76.770261
Reviva Fertility & Ivf Clinic,Fertility clinic,"9 D, Madhya Marg, Sector 8C, Sector 8, Chandigarh, 160019, India",https://www.google.co.kr/maps/place/Reviva+Fertility+%26+Ivf+Clinic/data=!4m5!3m4!1s0x390fed1759fe6061:0xf48641c7ddd30a8e!8m2!3d30.7332665!4d76.7978564?authuser=0&hl=en&rclk=1,30.7332665,76.7978564
Dr Harbant's Surgical Clinic,Hospital,"House no 3310, Sector 21 D, Sector 21, Chandigarh, 160022, India",https://www.google.co.kr/maps/place/Dr+Harbant's+Surgical+Clinic/data=!4m5!3m4!1s0x390fedcd719594a9:0x97c6e62f727c9835!8m2!3d30.727886!4d76.7751187?authuser=0&hl=en&rclk=1,30.727886,76.7751187
Rampal Clinic,Medical clinic,"SCF-5 RAMPAL CLINIC --D, Sector 20, Chandigarh, 160020, India",https://www.google.co.kr/maps/place/Rampal+Clinic/data=!4m5!3m4!1s0x390feda4a4306505:0xf83d295450e585d4!8m2!3d30.721342!4d76.7812599?authuser=0&hl=en&rclk=1,30.721342,76.7812599
Health Care Clinic -- Dr.(Mrs.) Sareen,Doctor,"1228, Sukhna Path, Sector 33C, Sector 33, Chandigarh, 160019, India",https://www.google.co.kr/maps/place/Health+Care+Clinic+--+Dr.(Mrs.)+Sareen/data=!4m5!3m4!1s0x390fed30ba4c537f:0x4f9cabb234733866!8m2!3d30.71212!4d76.768588?authuser=0&hl=en&rclk=1,30.71212,76.768588
Dr. Nagpal's Elite Clinic,Hospital,"#5, A, Sector 19, Chandigarh, 160019, India",https://www.google.co.kr/maps/place/Dr.+Nagpal's+Elite+Clinic/data=!4m5!3m4!1s0x390fed1b6cb352c7:0xceac10c75eadeef3!8m2!3d30.7282196!4d76.7932238?authuser=0&hl=en&rclk=1,30.7282196,76.7932238
Andees Multispeciality Clinic,Medical Center,"S.C.O 8 Sector 21 C, Chandigarh, 160022, India",https://www.google.co.kr/maps/place/Andees+Multispeciality+Clinic/data=!4m5!3m4!1s0x390fedaa267c8bbf:0xba1290c126ddbc3e!8m2!3d30.7245114!4d76.7786158?authuser=0&hl=en&rclk=1,30.7245114,76.7786158
Dr. Singhal Homeo Clinic - Best Homeopathic Doctor in Chandigarh,Medical clinic,"# 2732, Sector 38 C, Near Wool market, Chandigarh, 160014, India",https://www.google.co.kr/maps/place/Dr.+Singhal+Homeo+Clinic+-+Best+Homeopathic+Doctor+in+Chandigarh/data=!4m5!3m4!1s0x390fede7c5555555:0xb3d03cf58d86c5ee!8m2!3d30.7405226!4d76.741566?authuser=0&hl=en&rclk=1,30.7405226,76.741566
"Dr. Namrata Physiotherapy clinic, Sanatan Dharam Mandir, Sector 16, Chandigarh",Physical therapy clinic,"Sanatan Dharam Mandir, Sector 16 D, Sector 16, Chandigarh, 160016, India","https://www.google.co.kr/maps/place/Dr.+Namrata+Physiotherapy+clinic,+Sanatan+Dharam+Mandir,+Sector+16,+Chandigarh/data=!4m5!3m4!1s0x390fed7c9524cf71:0xb595dbed06f7ada4!8m2!3d30.7463657!4d76.7742033?authuser=0&hl=en&rclk=1",30.7463657,76.7742033
"ARV Orthopaedic Hospital (Best Trauma | Knee Replacement | Orthopedic | Doctor| Hospital In Chandigarh, Panchkula, Mohali, Punjab and Himachal)",Orthopedic surgeon,"2125, Sarovar Path, Sector 21C, Sector 21, Chandigarh, 160002, India","https://www.google.co.kr/maps/place/ARV+Orthopaedic+Hospital+(Best+Trauma+%7C+Knee+Replacement+%7C+Orthopedic+%7C+Doctor%7C+Hospital+In+Chandigarh,+Panchkula,+Mohali,+Punjab+and+Himachal)/data=!4m5!3m4!1s0x390fedaec786bc67:0x39efa012337a5ad9!8m2!3d30.724101!4d76.774772?authuser=0&hl=en&rclk=1",30.724101,76.774772
Global Healthcare Clinic | Dr. Sanjeev Bhatia | General Surgeon in Chandigarh,Doctor,"# 2164, Sector 21C, Sector 21, Chandigarh, 160022, India",https://www.google.co.kr/maps/place/Global+Healthcare+Clinic+%7C+Dr.+Sanjeev+Bhatia+%7C+General+Surgeon+in+Chandigarh/data=!4m5!3m4!1s0x390fedabe9ad4913:0xadf16097fd64c575!8m2!3d30.7240266!4d76.7752909?authuser=0&hl=en&rclk=1,30.7240266,76.7752909
"RichFeel Trichology Center - Best Hair Transplant & Hair Loss, Hair Fall Treatment in Chandigarh (Laser Facial Hair Removal)",Medical Center,"SCO 14, Icici Bank, 15, Madhya Marg, Sector 9, Chandigarh, 160019, India","https://www.google.co.kr/maps/place/RichFeel+Trichology+Center+-+Best+Hair+Transplant+%26+Hair+Loss,+Hair+Fall+Treatment+in+Chandigarh+(Laser+Facial+Hair+Removal)/data=!4m5!3m4!1s0x390fed1269ed72df:0x4f09bd507064087f!8m2!3d30.7452247!4d76.7875457?authuser=0&hl=en&rclk=1",30.7452247,76.7875457
Right Chest Clinic,Medical clinic,"Buterla, Buterla Village, Sector 36, Chandigarh, 160036, India",https://www.google.co.kr/maps/place/Right+Chest+Clinic/data=!4m5!3m4!1s0x390fedc3afffffff:0xc3847e4adb96771c!8m2!3d30.7325393!4d76.7394237?authuser=0&hl=en&rclk=1,30.7325393,76.7394237
Chandigadh Nursing Home,Doctor,"1185, Sector 18, Sector 18, Chandigarh, 160018, India",https://www.google.co.kr/maps/place/Chandigadh+Nursing+Home/data=!4m5!3m4!1s0x390fed0565acf049:0x3efc9627e780d2c3!8m2!3d30.7347851!4d76.7884713?authuser=0&hl=en&rclk=1,30.7347851,76.7884713
The Touch Clinic,Obstetrician-gynecologist,"A5-A8, Bestech Business Towers, Sector 66, Sahibzada Ajit Singh Nagar, Punjab 160062, India",https://www.google.co.kr/maps/place/The+Touch+Clinic/data=!4m5!3m4!1s0x390fec0403c48be5:0x516b490e55184a3c!8m2!3d30.6760963!4d76.7394252?authuser=0&hl=en&rclk=1,30.6760963,76.7394252
Dr. Priyanka Physiotherapist,Physical therapy clinic,"New life physiotherapy clinic,House no 2125, Inside Arv Orthopaedic Hospital, Sector 21C, Chandigarh, 160022, India",https://www.google.co.kr/maps/place/Dr.+Priyanka+Physiotherapist/data=!4m5!3m4!1s0x390fed64c2a86f83:0x82bfe848cf6c6a31!8m2!3d30.7241813!4d76.7746882?authuser=0&hl=en&rclk=1,30.7241813,76.7746882
Dr Batras Positive Clinic Private Limited,Doctor,"Sco No 45/46, Sector 8-c, Chandigarh, 160009, India",https://www.google.co.kr/maps/place/Dr+Batras+Positive+Clinic+Private+Limited/data=!4m5!3m4!1s0x390fec574958b887:0xc861ccf96f78a3e5!8m2!3d30.7090557!4d76.7744136?authuser=0&hl=en&rclk=1,30.7090557,76.7744136
Dr Shradha's Homeo Clinic,Doctor,"#3110, Sector 28 D, Chandigarh, 160019, India",https://www.google.co.kr/maps/place/Dr+Shradha's+Homeo+Clinic/data=!4m5!3m4!1s0x390fece0f6e6a57b:0xad2f58ccfc792be0!8m2!3d30.7189004!4d76.8009299?authuser=0&hl=en&rclk=1,30.7189004,76.8009299
"Ayu Health Multi Specialty Hospital, Sector 8C, Chandigarh",Hospital,"SCO 10-11, Sector 8C, Sector 8, Chandigarh, 160009, India","https://www.google.co.kr/maps/place/Ayu+Health+Multi+Specialty+Hospital,+Sector+8C,+Chandigarh/data=!4m5!3m4!1s0x390fed7b3e83d78d:0x78ee6333631f0766!8m2!3d30.7403407!4d76.7924143?authuser=0&hl=en&rclk=1",30.7403407,76.7924143
"Ayu Health Laser Eye Clinic, Chandigarh",Hospital,"SCO 833-834, Sector 22A, Chandigarh 160022, India","https://www.google.co.kr/maps/place/Ayu+Health+Laser+Eye+Clinic,+Chandigarh/data=!4m5!3m4!1s0x390fed17d10569b7:0x94c819a7ac2a281a!8m2!3d30.7377503!4d76.7755525?authuser=0&hl=en&rclk=1",30.7377503,76.7755525
"Bedi IVF & Infertility Center ( Best IVF & Best Test Tube Baby Centre in Chandigarh, Punjab, Haryana & Himachal)",Fertility clinic,"# 182 Sector 33 A, Chandigarh, 160020, India","https://www.google.co.kr/maps/place/Bedi+IVF+%26+Infertility+Center+(+Best+IVF+%26+Best+Test+Tube+Baby+Centre+in+Chandigarh,+Punjab,+Haryana+%26+Himachal)/data=!4m5!3m4!1s0x390fec532c44d551:0x4ed7498f5349677f!8m2!3d30.718718!4d76.771647?authuser=0&hl=en&rclk=1",30.718718,76.771647
"Dr. Arvinder Singh Bhatia Clinic, Bone and Joint Care Clinic, Sector 37, Chandigarh",Orthopedic clinic,"House No 2739, Sector 37 C, Sector 37, Chandigarh, 160036, India","https://www.google.co.kr/maps/place/Dr.+Arvinder+Singh+Bhatia+Clinic,+Bone+and+Joint+Care+Clinic,+Sector+37,+Chandigarh/data=!4m5!3m4!1s0x390fedd955555555:0x93c7d2c7d1a1f027!8m2!3d30.7326289!4d76.7470854?authuser=0&hl=en&rclk=1",30.7326289,76.7470854
Khanna Clinic,Doctor,"1801, Sector 22 Market Rd, 22B, Sector 22, Chandigarh, 160022, India",https://www.google.co.kr/maps/place/Khanna+Clinic/data=!4m5!3m4!1s0x390feda4a4306505:0xecd5819b975c0ecc!8m2!3d30.7320904!4d76.7730076?authuser=0&hl=en&rclk=1,30.7320904,76.7730076
Crayons Child Psychiatrist Clinic in Chandigarh,Psychiatrist,About this data,https://www.google.co.kr/maps/place/Crayons+Child+Psychiatrist+Clinic+in+Chandigarh/data=!4m5!3m4!1s0x390fed9768ab5add:0x22280e529114d555!8m2!3d21.1334214!4d82.778933?authuser=0&hl=en&rclk=1,21.1334214,82.778933
Batra Clinic,Medical clinic,"Batra Building, SCO 101-103, Shopping Plaza, 17D, Sector 17, Chandigarh, 160017, India",https://www.google.co.kr/maps/place/Batra+Clinic/data=!4m5!3m4!1s0x390fed0abbf154af:0xf072bffd107c028d!8m2!3d30.7414268!4d76.7808327?authuser=0&hl=en&rclk=1,30.7414268,76.7808327
"On Line Counselling and CBT Clinic, MHC, Chandigarh",Mental health service,"6060, Duplex, Modern Housing Complex, Sector 13, Chandigarh, 160101, India","https://www.google.co.kr/maps/place/On+Line+Counselling+and+CBT+Clinic,+MHC,+Chandigarh/data=!4m5!3m4!1s0x390f938e05cec393:0xae8f82baf13d8cdf!8m2!3d30.7158929!4d76.8320028?authuser=0&hl=en&rclk=1",30.7158929,76.8320028
HEART & CHEST CLINIC,Medical clinic,"SCO 816, First Floor, SECTOR, 22-A, Udyog Path, Chandigarh, 160022, India",https://www.google.co.kr/maps/place/HEART+%26+CHEST+CLINIC/data=!4m5!3m4!1s0x390feda3d869db57:0xdf568feac3dce89b!8m2!3d30.7385129!4d76.774432?authuser=0&hl=en&rclk=1,30.7385129,76.774432
"Dr. Heena Chawla (Best Lady Gynaecologist in Chandigarh, Mohali, Panchkula | Best Laparoscopic Surgeon in Chandigarh, Mohali, Panchkula)",Gynecologist,"Apollo Clinic, SCO 10, 11, Madhya Marg, Sector 8C, Chandigarh, 160009, India","https://www.google.co.kr/maps/place/Dr.+Heena+Chawla+(Best+Lady+Gynaecologist+in+Chandigarh,+Mohali,+Panchkula+%7C+Best+Laparoscopic+Surgeon+in+Chandigarh,+Mohali,+Panchkula)/data=!4m5!3m4!1s0x390fedf1dad9d3df:0xa9b54ae23bd458b6!8m2!3d30.7390489!4d76.7943534?authuser=0&hl=en&rclk=1",30.7390489,76.7943534
Dr. Ravinder Chadha's Pain Management and Physiotherapy Clinic,Medical clinic,"22C, Sector 22, Chandigarh, 160022, India",https://www.google.co.kr/maps/place/Dr.+Ravinder+Chadha's+Pain+Management+and+Physiotherapy+Clinic/data=!4m5!3m4!1s0x390fedc134aca3d5:0xde66338fd2696990!8m2!3d30.7309719!4d76.7728656?authuser=0&hl=en&rclk=1,30.7309719,76.7728656
Batra Dr Mahesh,Doctor,"Sco 101-03, Sector 17 C, Sector 17 C, Chandigarh, 160017, India",https://www.google.co.kr/maps/place/Batra+Dr+Mahesh/data=!4m5!3m4!1s0x390fed0d815cd345:0x699a5096d258135d!8m2!3d30.7398339!4d76.782702?authuser=0&hl=en&rclk=1,30.7398339,76.782702
Deep Clinic,Doctor,"3024:sec-24d, Sector-22, Sector-22, Chandigarh, 160022, India",https://www.google.co.kr/maps/place/Deep+Clinic/data=!4m5!3m4!1s0x390fedbaa67b9add:0x6c7eb56de9ba86dd!8m2!3d30.732999!4d76.7711626?authuser=0&hl=en&rclk=1,30.732999,76.7711626
Chhabra Clinic,Infectious disease physician,"PR99+H2G, Bapu Dham Colony, Sector 26 East, Chandigarh, 160101, India",https://www.google.co.kr/maps/place/Chhabra+Clinic/data=!4m5!3m4!1s0x390fecd6d974952b:0xa3e39b3bd10ff329!8m2!3d30.7189266!4d76.8175904?authuser=0&hl=en&rclk=1,30.7189266,76.8175904
Dr Aastha Likhyani | Abortion | Hair Transplant | Laser Piles | Circumcision | Hernia | Fistula | Gall Stone | Fissure | Vaginoplasty | Hymenoplasty | Breast enlargement | Breast reduction | Lady Doctor in Chandigarh,Surgeon,"house no 1599 sec 22 b and House no 568 ground floor pocket 4 new Chandigarh Omaxe city, New Chandigarh, Chandigarh 160036, India",https://www.google.co.kr/maps/place/Dr+Aastha+Likhyani+%7C+Abortion+%7C+Hair+Transplant+%7C+Laser+Piles+%7C+Circumcision+%7C+Hernia+%7C+Fistula+%7C+Gall+Stone+%7C+Fissure+%7C+Vaginoplasty+%7C+Hymenoplasty+%7C+Breast+enlargement+%7C+Breast+reduction+%7C+Lady+Doctor+in+Chandigarh/data=!4m5!3m4!1s0x390fedee2b6accb3:0x7b9ec950215919e1!8m2!3d30.733101!4d76.775203?authuser=0&hl=en&rclk=1,30.733101,76.775203
Clinic Dermatech,Doctor,"16-19, Madhya Marg, Sector 8C, Sector 8, Chandigarh, 160009, India",https://www.google.co.kr/maps/place/Clinic+Dermatech/data=!4m5!3m4!1s0x390fed1f54d2bdf9:0x908b098da91ea078!8m2!3d30.7277768!4d76.8026721?authuser=0&hl=en&rclk=1,30.7277768,76.8026721
"Dr. Anita Mahey (Best Gynaecologist in Chandigarh, Mohali | Best Laparoscopic Surgeon in Chandigarh | Abortion Clinic)",Obstetrician-gynecologist,"Amayra Healthcare House No. 5, Sector 19A, Chandigarh 160019, India","https://www.google.co.kr/maps/place/Dr.+Anita+Mahey+(Best+Gynaecologist+in+Chandigarh,+Mohali+%7C+Best+Laparoscopic+Surgeon+in+Chandigarh+%7C+Abortion+Clinic)/data=!4m5!3m4!1s0x390fec52be11eb89:0x9e20104dbb3d64ef!8m2!3d30.7305615!4d76.7911281?authuser=0&hl=en&rclk=1",30.7305615,76.7911281
Abrol ENT Institute & Research Centre | ENT Specialist In Chandigarh,Otolaryngologist,"1st SCO- 2417-18 Near Aroma Taxi Stand, 22C, Sector 22, Chandigarh, 160022, India",https://www.google.co.kr/maps/place/Abrol+ENT+Institute+%26+Research+Centre+%7C+ENT+Specialist+In+Chandigarh/data=!4m5!3m4!1s0x390fedaf6c48519b:0xf49c02ad435b65b2!8m2!3d30.7291151!4d76.7720941?authuser=0&hl=en&rclk=1,30.7291151,76.7720941
INSIGHT-BRAIN AND MIND CLINIC,Psychiatrist,"SCO-85, sector 40 C ,1ST FLOOR, Chandigarh 160036, India",https://www.google.co.kr/maps/place/INSIGHT-BRAIN+AND+MIND+CLINIC/data=!4m5!3m4!1s0x390fed9c1b5f9719:0xb46a8033ba986d7c!8m2!3d30.7356596!4d76.7354025?authuser=0&hl=en&rclk=1,30.7356596,76.7354025
Dr Virk Clinic - Dr Virk J.S,Pediatrician,"3338, Sector 21 D, Sector 21, Chandigarh, 160022, India",https://www.google.co.kr/maps/place/Dr+Virk+Clinic+-+Dr+Virk+J.S/data=!4m5!3m4!1s0x390fed211fee5e51:0x390e13d54f77ec3c!8m2!3d30.7277046!4d76.7754838?authuser=0&hl=en&rclk=1,30.7277046,76.7754838
Pain Care Clinic,Chiropractor,"3089, Sector 47 D, Sector 47, Chandigarh, 160047, India",https://www.google.co.kr/maps/place/Pain+Care+Clinic/data=!4m5!3m4!1s0x390fee8d5d09f8fd:0x84af5c7b05626eee!8m2!3d30.694257!4d76.7638659?authuser=0&hl=en&rclk=1,30.694257,76.7638659
Dr Aseem Goyal - Fracture Specialist In Chandigarh,Hospital,"SCO 10, Sector 27D, Sector 27, Chandigarh, 160019, India",https://www.google.co.kr/maps/place/Dr+Aseem+Goyal+-+Fracture+Specialist+In+Chandigarh/data=!4m5!3m4!1s0x390fed03aa0f9349:0xc3dfe780adaf0c5c!8m2!3d30.7248499!4d76.7963295?authuser=0&hl=en&rclk=1,30.7248499,76.7963295
Get Well Clinic - 2,Hospital,"1st Flor, Two Bay, Scf 6 Sector 20 C, Sector-18, Sector-18, Chandigarh, 160018, India",https://www.google.co.kr/maps/place/Get+Well+Clinic+-+2/data=!4m5!3m4!1s0x390fed0faaaaaaab:0xc70a854036b827d6!8m2!3d30.7347851!4d76.7884713?authuser=0&hl=en&rclk=1,30.7347851,76.7884713
Dr Sumeet Inder?ï¿½s Psychiatry Clinic,Psychiatrist,"#1526, Sector-34D, Chandigarh, 160022, India",https://www.google.co.kr/maps/place/Dr+Sumeet+Inder%E2%80%99s+Psychiatry+Clinic/data=!4m5!3m4!1s0x390fedb53a1d9cb3:0x4bac6213254072fe!8m2!3d30.7183228!4d76.758533?authuser=0&hl=en&rclk=1,30.7183228,76.758533
Dr Gurpreet Bhatia Clinic,Doctor,"251, Sector 37A, Sector 37, Chandigarh, 160036, India",https://www.google.co.kr/maps/place/Dr+Gurpreet+Bhatia+Clinic/data=!4m5!3m4!1s0x390fedebc1588257:0xe0e6495541423f0a!8m2!3d30.7434258!4d76.7520487?authuser=0&hl=en&rclk=1,30.7434258,76.7520487
Dr Vishal Sharma | Chest Specialist| Best Pulmonologist Panchkula| Healthy Chest & Sleep Clinic,Pulmonologist,"SCO 909, NAC Manimajra Housing Board Chownk, near Mirchias Diagnostic Centre, Chandigarh, 160101, India",https://www.google.co.kr/maps/place/Dr+Vishal+Sharma+%7C+Chest+Specialist%7C+Best+Pulmonologist+Panchkula%7C+Healthy+Chest+%26+Sleep+Clinic/data=!4m5!3m4!1s0x390f93ecf6b24b01:0xf8df1479b3d2e559!8m2!3d30.7071198!4d76.836401?authuser=0&hl=en&rclk=1,30.7071198,76.836401
Sunil Homeo Clinic,Medical clinic,"SCF-1, Bridge Market, Sector 9, Chandigarh, 160009, India",https://www.google.co.kr/maps/place/Sunil+Homeo+Clinic/data=!4m5!3m4!1s0x390fed0baaaaaaab:0xa119b9edd0707359!8m2!3d30.7398339!4d76.782702?authuser=0&hl=en&rclk=1,30.7398339,76.782702
Khushi Clinic,Doctor,"Transport Area, Sector 26 East, Chandigarh, 160101, India",https://www.google.co.kr/maps/place/Khushi+Clinic/data=!4m5!3m4!1s0x390fed54ebfc9b23:0x2e4a9a5e96f684cf!8m2!3d30.7148781!4d76.8155213?authuser=0&hl=en&rclk=1,30.7148781,76.8155213
Chandigarh ENT Clinic - Dr. Rishi Raj,Otolaryngologist,"House No.5, Sector 19-A, Chandigarh 160019, India",https://www.google.co.kr/maps/place/Chandigarh+ENT+Clinic+-+Dr.+Rishi+Raj/data=!4m5!3m4!1s0x390fed053386d12f:0x2d6badf4cc68059a!8m2!3d30.7303546!4d76.7913242?authuser=0&hl=en&rclk=1,30.7303546,76.7913242
"Dr Aditi's Homoeo Health, #1 Best Homeopathic Doctor in Chandigarh",Doctor,"SCO 105 , Ground Floor, near Bank Of Maharashtra, Sector 47, C, Chandigarh 160047, India","https://www.google.co.kr/maps/place/Dr+Aditi's+Homoeo+Health,+%231+Best+Homeopathic+Doctor+in+Chandigarh/data=!4m5!3m4!1s0x390fec6795555555:0xab1082a97418b03d!8m2!3d30.6937795!4d76.7711801?authuser=0&hl=en&rclk=1",30.6937795,76.7711801
Callidora Laser Clinic of India,Hospital,"Fortis Hospital Mohali, Sector 62, Sahibzada Ajit Singh Nagar, Chandigarh 160062, India",https://www.google.co.kr/maps/place/Callidora+Laser+Clinic+of+India/data=!4m5!3m4!1s0x390fef0ca0d46ce7:0xd822ce649c665e18!8m2!3d30.6959026!4d76.729999?authuser=0&hl=en&rclk=1,30.6959026,76.729999
Healing Touch Chiropractic Clinic,Chiropractor,"House No. 227, Sector 9C, 9C, Sector 9, Chandigarh, 160009, India",https://www.google.co.kr/maps/place/Healing+Touch+Chiropractic+Clinic/data=!4m5!3m4!1s0x390fed1224c3bb9f:0xd226a07ab92b5aee!8m2!3d30.7422533!4d76.7921939?authuser=0&hl=en&rclk=1,30.7422533,76.7921939
Dr Seema Wadhwa - Best Gynecologist in Chandigarh | Best Obstetrician in Chandigarh | Best Laparoscopic Specialist In Chandigarh,Obstetrician-gynecologist,"House, 1014, 27B, Sector 27B, Chandigarh, 160019, India",https://www.google.co.kr/maps/place/Dr+Seema+Wadhwa+-+Best+Gynecologist+in+Chandigarh+%7C+Best+Obstetrician+in+Chandigarh+%7C+Best+Laparoscopic+Specialist+In+Chandigarh/data=!4m5!3m4!1s0x390fed0584659b37:0x2f3548f132ca197d!8m2!3d30.7227917!4d76.8022581?authuser=0&hl=en&rclk=1,30.7227917,76.8022581
Clinic,Hospital,"5484, Maloya, Chandigarh, 160025, India",https://www.google.co.kr/maps/place/Clinic/data=!4m5!3m4!1s0x390fee1d58dee3ff:0x2d0db578eb77a49!8m2!3d30.75869!4d76.7211007?authuser=0&hl=en&rclk=1,30.75869,76.7211007
Dr Neeraj Nagpal,Gastroenterologist,"1184, Sector 21B, Sector 21, Chandigarh, 160022, India",https://www.google.co.kr/maps/place/Dr+Neeraj+Nagpal/data=!4m5!3m4!1s0x390feda6178c691f:0xe4cfb4fe6ae31852!8m2!3d30.7273931!4d76.7814651?authuser=0&hl=en&rclk=1,30.7273931,76.7814651
Dr. Jaspreet Singh Sran,Orthopedic surgeon,"House No 1820, 34D, Sector 34, Chandigarh, 160022, India",https://www.google.co.kr/maps/place/Dr.+Jaspreet+Singh+Sran/data=!4m5!3m4!1s0x390fedb4f3e90cd3:0x43c1eca8b50a02cb!8m2!3d30.720095!4d76.760839?authuser=0&hl=en&rclk=1,30.720095,76.760839
Poly Clinic,Hospital,"Sector 22C, Sector 22-D, Sector 21, Chandigarh, 160022, India",https://www.google.co.kr/maps/place/Poly+Clinic/data=!4m5!3m4!1s0x390feda5ba45f359:0x53ece89e688b7a11!8m2!3d30.7322314!4d76.7721082?authuser=0&hl=en&rclk=1,30.7322314,76.7721082
Medicare Clinic,Medical clinic,"Shop No. 6, Bara Complex, Market, Buterla, Buterla Village, Sector 41B, Chandigarh, 160036, India",https://www.google.co.kr/maps/place/Medicare+Clinic/data=!4m5!3m4!1s0x390feddc05947e85:0x81e5d2a047e25c71!8m2!3d30.7330596!4d76.7400762?authuser=0&hl=en&rclk=1,30.7330596,76.7400762
Dr Bhatia Sanjeev,Doctor,"2164, Sector 21C, Sector 21, Chandigarh, 160022, India",https://www.google.co.kr/maps/place/Dr+Bhatia+Sanjeev/data=!4m5!3m4!1s0x390fedab96d01b71:0xe117c28d7654a9a9!8m2!3d30.7240551!4d76.7753319?authuser=0&hl=en&rclk=1,30.7240551,76.7753319
Dr. Varun Gupta - Laser Piles | Circumcision | Hernia | Fistula | Gall Stone | Circumcision | Gynecomastia,Surgeon,"1599, 22B, Sector 22, Chandigarh, 160022, India",https://www.google.co.kr/maps/place/Dr.+Varun+Gupta+-+Laser+Piles+%7C+Circumcision+%7C+Hernia+%7C+Fistula+%7C+Gall+Stone+%7C+Circumcision+%7C+Gynecomastia/data=!4m5!3m4!1s0x390fedd49b898499:0x4b0bfdfc6d99c248!8m2!3d30.7331194!4d76.7752459?authuser=0&hl=en&rclk=1,30.7331194,76.7752459
Virk clinic and vaccination centre,Pediatrician,"3338, Sector 21D, Sector 21A, Sector 21, Chandigarh, 160022, India",https://www.google.co.kr/maps/place/Virk+clinic+and+vaccination+centre/data=!4m5!3m4!1s0x390fed7fc72911ab:0xe8b247fa1e24127e!8m2!3d30.7296028!4d76.7758506?authuser=0&hl=en&rclk=1,30.7296028,76.7758506
Iqbal Clinic,Medical clinic,"18A, Sector 18, Chandigarh, 160018, India",https://www.google.co.kr/maps/place/Iqbal+Clinic/data=!4m5!3m4!1s0x390fed0565acf049:0x27497170a77f933d!8m2!3d30.7347851!4d76.7884713?authuser=0&hl=en&rclk=1,30.7347851,76.7884713
Rejuvenation Clinic,Medical spa,"Scf 190 2nd Floor, Sector 7-C, Chandigarh, 160009, India",https://www.google.co.kr/maps/place/Rejuvenation+Clinic/data=!4m5!3m4!1s0x390fed6a2445b6ab:0x72fc1e4f0626fcfc!8m2!3d30.7325625!4d76.8038575?authuser=0&hl=en&rclk=1,30.7325625,76.8038575
CAREs Clinic,Doctor,"SCF 15, Ground Floor, opposite Shri Durga Mata Mandir, Phase 6, Sahibzada Ajit Singh Nagar, 160055, India",https://www.google.co.kr/maps/place/CAREs+Clinic/data=!4m5!3m4!1s0x390fefb661c2e935:0x19fecd43aaa2b24b!8m2!3d30.7382336!4d76.7151897?authuser=0&hl=en&rclk=1,30.7382336,76.7151897
Dr Vandana MittaI - Best Gynecologist In Chandigarh,Obstetrician-gynecologist,"#2125, Sector 21C, Chandigarh, 160022, India",https://www.google.co.kr/maps/place/Dr+Vandana+MittaI+-+Best+Gynecologist+In+Chandigarh/data=!4m5!3m4!1s0x390fed99d73f1f77:0xbdf0791ecf7760c1!8m2!3d30.7241518!4d76.7749903?authuser=0&hl=en&rclk=1,30.7241518,76.7749903
Alive Wellness Clinics,Wellness center,"1st Floor, SCO 50-51, Madhya Marg, 9-D, Chandigarh, 160009, India",https://www.google.co.kr/maps/place/Alive+Wellness+Clinics/data=!4m5!3m4!1s0x390fed25216db52b:0x1bf8660f3ad10c3!8m2!3d30.7446121!4d76.788568?authuser=0&hl=en&rclk=1,30.7446121,76.788568
"Ortho Care, The Bone and Joint Centre",Hospital,"1203, Jan Marg, Sector 42 B, 42B, Sector 42, Chandigarh, 160036, India","https://www.google.co.kr/maps/place/Ortho+Care,+The+Bone+and+Joint+Centre/data=!4m5!3m4!1s0x390fedcf2074be87:0x97700488797c097a!8m2!3d30.7247277!4d76.7493497?authuser=0&hl=en&rclk=1",30.7247277,76.7493497
Kapoor Dental Clinic,Hospital,"167, Sarovar Path, 33A, Sector 33, Chandigarh, 160020, India",https://www.google.co.kr/maps/place/Kapoor+Dental+Clinic/data=!4m5!3m4!1s0x390fec52f4d5f4e5:0xee2edce6c02a1469!8m2!3d30.7160818!4d76.7697105?authuser=0&hl=en&rclk=1,30.7160818,76.7697105
Best Eye Specialist In Chandigarh -Bansal Eye & Retina Centre,Doctor,"House number 3878, Sector 32D, Chandigarh, 160030, India",https://www.google.co.kr/maps/place/Best+Eye+Specialist+In+Chandigarh+-Bansal+Eye+%26+Retina+Centre/data=!4m5!3m4!1s0x390fec50ba068037:0x6848b0bb70d59ea7!8m2!3d30.7088934!4d76.7732418?authuser=0&hl=en&rclk=1,30.7088934,76.7732418
City Clinic,Hospital,"#130, Sector 56, Chandigarh, 160055, India",https://www.google.co.kr/maps/place/City+Clinic/data=!4m5!3m4!1s0x390fee147cf6f505:0x68c4af9762016957!8m2!3d30.7387907!4d76.7157828?authuser=0&hl=en&rclk=1,30.7387907,76.7157828
Khullar clinic Chandigarh,Drug testing service,"Booth no 339 sector 44 D, Chandigarh, 160043, India",https://www.google.co.kr/maps/place/Khullar+clinic+Chandigarh/data=!4m5!3m4!1s0x390fec3458099975:0xad926f79a2c81326!8m2!3d30.714188!4d76.753067?authuser=0&hl=en&rclk=1,30.714188,76.753067
Dr. Kavita's Physiotherapy,Physical therapy clinic,"House No, 5942, Modern Housing Complex, Sector 13, Chandigarh, 160101, India",https://www.google.co.kr/maps/place/Dr.+Kavita's+Physiotherapy/data=!4m5!3m4!1s0x390fedb34fb32875:0xba5a9ea31899dce7!8m2!3d30.7131567!4d76.8275552?authuser=0&hl=en&rclk=1,30.7131567,76.8275552
ECHS,Medical clinic,"Sector 47 A, near Government High School, Chandigarh, 160047, India",https://www.google.co.kr/maps/place/ECHS/data=!4m5!3m4!1s0x390fecfae845bc49:0x5ac4ea2e05532971!8m2!3d30.7005997!4d76.7707587?authuser=0&hl=en&rclk=1,30.7005997,76.7707587
Apollo Clinic,Hospital,"PQRR+4X6, Sector 8C, Sector 8, Chandigarh, 160008, India",https://www.google.co.kr/maps/place/Apollo+Clinic/data=!4m5!3m4!1s0x390fed8010eb27bd:0x41bb80250c995c33!8m2!3d30.7402808!4d76.792383?authuser=0&hl=en&rclk=1,30.7402808,76.792383
Medicos Centre,Diagnostic center,"SCO 801-802 Opposite Parade Ground, Sector 22A, Chandigarh, 160022, India",https://www.google.co.kr/maps/place/Medicos+Centre/data=!4m5!3m4!1s0x390feda4a4306505:0xedf57ac0d1f0ce61!8m2!3d30.7390088!4d76.7743492?authuser=0&hl=en&rclk=1,30.7390088,76.7743492
Neurotherapy & Physiotherapy Clinic,Physical therapy clinic,"NEUROTHERAPY & PHYSIOTHERAPY Clinic, Sant Namdev Bhawan, Sector 21 C, near #2001, Chandigarh 160022, India",https://www.google.co.kr/maps/place/Neurotherapy+%26+Physiotherapy+Clinic/data=!4m5!3m4!1s0x390fedd0305fffdb:0x91ea283b7428cbfe!8m2!3d30.7263004!4d76.7763806?authuser=0&hl=en&rclk=1,30.7263004,76.7763806
Dr. Gursimran Singh - Best Surgeon in Chandigarh,Surgeon,"Sco 170-171, madhya Marg, Sector 9c, Apollo Clinic Chandigarh, Chandigarh, 160017, India",https://www.google.co.kr/maps/place/Dr.+Gursimran+Singh+-+Best+Surgeon+in+Chandigarh/data=!4m5!3m4!1s0x390fed0d64aa7d0d:0x79590d34c86c3586!8m2!3d30.741406!4d76.790993?authuser=0&hl=en&rclk=1,30.741406,76.790993
Dr G D Rattan Ent Clinic,Doctor,"House No 1104, near Landmark Hospital, Sector 33C, Sector 33, Chandigarh, 160036, India",https://www.google.co.kr/maps/place/Dr+G+D+Rattan+Ent+Clinic/data=!4m5!3m4!1s0x390fec523fffffff:0x58ac1c1f1aa0b889!8m2!3d30.7121922!4d76.7709603?authuser=0&hl=en&rclk=1,30.7121922,76.7709603
"PATHAK CLINIC, #25, Sector 21-A, Chandigarh, India",Medical Center,"#25 A, Sector 21, Chandigarh, 160022, India","https://www.google.co.kr/maps/place/PATHAK+CLINIC,+%2325,+Sector+21-A,+Chandigarh,+India/data=!4m5!3m4!1s0x390fed459a72b597:0xbe729ba23c9cee11!8m2!3d30.7277673!4d76.7760287?authuser=0&hl=en&rclk=1",30.7277673,76.7760287
vandna clinic,Hospital,"MQRR+3HM, Phase-2, Ram Darbar, Chandigarh, 160002, India",https://www.google.co.kr/maps/place/vandna+clinic/data=!4m5!3m4!1s0x390fec91d5eeaa1b:0xcc22ecb2a3dffb47!8m2!3d30.6902159!4d76.7914184?authuser=0&hl=en&rclk=1,30.6902159,76.7914184
Dietitian Priyanka - Dietitian In Chandigarh | Weight Loss & Weight Gain | Best Health Expert,Nutritionist,"Cabin no 103 first floor Sco no 1066, 1067, near Piccadilly Hotel, 22B, Chandigarh, 160022, India",https://www.google.co.kr/maps/place/Dietitian+Priyanka+-+Dietitian+In+Chandigarh+%7C+Weight+Loss+%26+Weight+Gain+%7C+Best+Health+Expert/data=!4m5!3m4!1s0x390feda438744679:0xce856e483dbdc693!8m2!3d30.7330141!4d76.7777132?authuser=0&hl=en&rclk=1,30.7330141,76.7777132
Dr. Kanchan Clinic,Hospital,"403, Hallomajra Chowk, Industrial Area Phase I, Chandigarh, 160101, India",https://www.google.co.kr/maps/place/Dr.+Kanchan+Clinic/data=!4m5!3m4!1s0x390fec94416b20f3:0xd7c262509cdcf535!8m2!3d30.6951951!4d76.7988256?authuser=0&hl=en&rclk=1,30.6951951,76.7988256
Gynecology Clinic- Paras Bliss Hospital Panchkula,Maternity hospital,"Paras Bliss, Panchkula Room No. 31 Mansa Devi Complex, Swastik Vihar,, Phase ??1,Sector -5, MDC, Panchkula, Haryana 134109, India",https://www.google.co.kr/maps/place/Gynecology+Clinic-+Paras+Bliss+Hospital+Panchkula/data=!4m5!3m4!1s0x390f93ebfc2fb5db:0x4f014c12d4c12fca!8m2!3d30.717028!4d76.85148?authuser=0&hl=en&rclk=1,30.717028,76.85148
"Anticlock Medispa- Botox, Fillers, Coolsculpting, Ultherapy, Hydrafacial & Soprano Titanium Hair Removal laser",Plastic surgery clinic,"Anticlock Medispa, #1508, Sector 33 D, Chandigarh 160033, India","https://www.google.co.kr/maps/place/Anticlock+Medispa-+Botox,+Fillers,+Coolsculpting,+Ultherapy,+Hydrafacial+%26+Soprano+Titanium+Hair+Removal+laser/data=!4m5!3m4!1s0x390fec520cdc35b3:0xdf4fd7cd8fe230a9!8m2!3d30.7117757!4d76.7658147?authuser=0&hl=en&rclk=1",30.7117757,76.7658147
Gleuhr Skin Clinic,Nutritionist,"House no. 3278, Sector 21 D, Sector 21, Chandigarh, 160022, India",https://www.google.co.kr/maps/place/Gleuhr+Skin+Clinic/data=!4m5!3m4!1s0x390feda91555555f:0x78e085314059bcc7!8m2!3d30.7276292!4d76.7744553?authuser=0&hl=en&rclk=1,30.7276292,76.7744553
Excel Orthotech,Surgical center,"SCO 1100-01, Cabin No 16, 1st Floor, Himalaya Marg, 17G, 22B, Chandigarh, 160022, India",https://www.google.co.kr/maps/place/Excel+Orthotech/data=!4m5!3m4!1s0x390feda455555555:0x25e8f22912c2d3c6!8m2!3d30.7318359!4d76.7764852?authuser=0&hl=en&rclk=1,30.7318359,76.7764852
"Dr bhatia sanjeev gall stone, hernia,piles ,diabetes foot surgeon",Doctor,"2164, Badheri, Sector 21, Chandigarh, 160022, India","https://www.google.co.kr/maps/place/Dr+bhatia+sanjeev+gall+stone,+hernia,piles+,diabetes+foot+surgeon/data=!4m5!3m4!1s0x390feddf516698a5:0xab98fd70f5607e65!8m2!3d30.7240757!4d76.7753641?authuser=0&hl=en&rclk=1",30.7240757,76.7753641
Chadha Clinic & Clinical Laboratory,Medical laboratory,"H.No. 2308, 35C, Sector 35, Chandigarh, 160022, India",https://www.google.co.kr/maps/place/Chadha+Clinic+%26+Clinical+Laboratory/data=!4m5!3m4!1s0x390fedb5cfffffff:0xcd1fe4da90d0ca47!8m2!3d30.7243756!4d76.7592175?authuser=0&hl=en&rclk=1,30.7243756,76.7592175
Talwar clinic chd,Doctor,"1234, Himalaya Marg, 22B, Sector 22, Chandigarh, 160022, India",https://www.google.co.kr/maps/place/Talwar+clinic+chd/data=!4m5!3m4!1s0x390fedbdc46ad38b:0x5da7bf999e181823!8m2!3d30.7355279!4d76.7766787?authuser=0&hl=en&rclk=1,30.7355279,76.7766787
Diet Clinic / Weight Loss -Dietician Sheela / Gagan Anand,Nutritionist,"House Number: 1336, Sector 18-C, Chandigarh, 160018, India",https://www.google.co.kr/maps/place/Diet+Clinic+%2F+Weight+Loss+-Dietician+Sheela+%2F+Gagan+Anand/data=!4m5!3m4!1s0x390fed201f30e455:0x4c8669745c1c2376!8m2!3d30.7309487!4d76.7852303?authuser=0&hl=en&rclk=1,30.7309487,76.7852303
Beauty & Fitness Clinic,Health,"House No 1104, Sector-34c, Sector-22, Sector-22, Chandigarh, 160022, India",https://www.google.co.kr/maps/place/Beauty+%26+Fitness+Clinic/data=!4m5!3m4!1s0x390feda4a4306505:0xb55151a1b925562!8m2!3d30.7352147!4d76.7692208?authuser=0&hl=en&rclk=1,30.7352147,76.7692208
NDDRC,Psychiatrist,"Sector 16-23 Dividing Road Opposite Cricket Stadium Sector 23-B, Chandigarh 160023, India",https://www.google.co.kr/maps/place/NDDRC/data=!4m5!3m4!1s0x390feda20d82c65f:0xbf3419fe9e9247fc!8m2!3d30.7408872!4d76.7728304?authuser=0&hl=en&rclk=1,30.7408872,76.7728304
Medicover Fertility - Chandigarh,Fertility clinic,"SCO 809 & 810, Sector 22 A Opp. Parade Ground Sector, 22A, Chandigarh, 160022, India",https://www.google.co.kr/maps/place/Medicover+Fertility+-+Chandigarh/data=!4m5!3m4!1s0x390fed89967effb5:0x69913c82533b56a0!8m2!3d30.7387214!4d76.7746007?authuser=0&hl=en&rclk=1,30.7387214,76.7746007
"Dr Sandeep Dhavan, Gastro, Liver & Endoscopy Centre - Gastroenterologist & Liver doctor in Chandigarh",Gastroenterologist,"House no 88, Sector 16 A, Sector 16, Chandigarh, 160015, India","https://www.google.co.kr/maps/place/Dr+Sandeep+Dhavan,+Gastro,+Liver+%26+Endoscopy+Centre+-+Gastroenterologist+%26+Liver+doctor+in+Chandigarh/data=!4m5!3m4!1s0x390feda6178c691f:0x7787494a604e451!8m2!3d30.749626!4d76.7777714?authuser=0&hl=en&rclk=1",30.749626,76.7777714
Chandigarh clinic,Medical clinic,"1 ground Floor Shubh homes, Dhakoli, Zirakpur, Punjab 160104, India",https://www.google.co.kr/maps/place/Chandigarh+clinic/data=!4m5!3m4!1s0x390f954cedc340f5:0x1aa70da372935fda!8m2!3d30.6517228!4d76.8533099?authuser=0&hl=en&rclk=1,30.6517228,76.8533099
Ayurvedic Doctor in Chandigarh - Best Nadi Vaidya,Ayurvedic clinic,"SCO 1034 2nd Floor, 22B, Chandigarh, 160022, India",https://www.google.co.kr/maps/place/Ayurvedic+Doctor+in+Chandigarh+-+Best+Nadi+Vaidya/data=!4m5!3m4!1s0x390fed5c3abc7d43:0x7660437f8ac9da86!8m2!3d30.7347078!4d76.7778471?authuser=0&hl=en&rclk=1,30.7347078,76.7778471
care,Medical clinic,"547, Udyan Path, Sector 16 D, Sector 16, Chandigarh, 160015, India",https://www.google.co.kr/maps/place/care/data=!4m5!3m4!1s0x390fed992c3ce3a7:0x31dd1fa4ee67123b!8m2!3d30.7450355!4d76.7737097?authuser=0&hl=en&rclk=1,30.7450355,76.7737097
Harmukh Clinic,,"12B, Sector 34 Market Rd, Sub. City Center, Sector 34B, Sector 34, Chandigarh, 160022, India",https://www.google.co.kr/maps/place/Harmukh+Clinic/data=!4m5!3m4!1s0x390fedb2ce728625:0x2aa9c89f36175081!8m2!3d30.7187719!4d76.7662142?authuser=0&hl=en&rclk=1,30.7187719,76.7662142
Dr. Preeti Jindal,Fertility clinic,"A5-A7, Bestech Business Tower, Sector 66, Sahibzada Ajit Singh Nagar, Punjab 140308, India",https://www.google.co.kr/maps/place/Dr.+Preeti+Jindal/data=!4m5!3m4!1s0x390fedb84c3c50df:0x98b1674a1d253b4b!8m2!3d30.6764421!4d76.7399679?authuser=0&hl=en&rclk=1,30.6764421,76.7399679
National Skin Hospital,Hospital,"Mansa Devi Complex, SCO 142, Sector 5, Panchkula, Haryana 134108, India",https://www.google.co.kr/maps/place/National+Skin+Hospital/data=!4m5!3m4!1s0x390f93162c6b1a4f:0xbcbedd3170960308!8m2!3d30.71278!4d76.849628?authuser=0&hl=en&rclk=1,30.71278,76.849628
Dr. Batra.,Occupational medical physician,"House no- 678, Sector 7, Panchkula, Haryana 134109, India",https://www.google.co.kr/maps/place/Dr.+Batra./data=!4m5!3m4!1s0x390fed1e40000001:0xfd5971e953b1239e!8m2!3d30.70533!4d76.844518?authuser=0&hl=en&rclk=1,30.70533,76.844518
MRI Chandigarh,Diagnostic center,"32C, Sector 32, Chandigarh, 160047, India",https://www.google.co.kr/maps/place/MRI+Chandigarh/data=!4m5!3m4!1s0x390fed58edb79b2d:0xcedc6eae6e1a3860!8m2!3d30.7057074!4d76.7750055?authuser=0&hl=en&rclk=1,30.7057074,76.7750055
Dr Sandeep Pal (Gastro & Liver Doctor ),Gastroenterologist,"Healing Hospital, SCO 18-19, Sector 34A, Chandigarh, 160022, India",https://www.google.co.kr/maps/place/Dr+Sandeep+Pal+(Gastro+%26+Liver+Doctor+)/data=!4m5!3m4!1s0x390fed1b733ad20b:0x1f2c859ef2da97af!8m2!3d30.7247455!4d76.7689576?authuser=0&hl=en&rclk=1,30.7247455,76.7689576
Tejasvi Ayurveda. Best Ayurvedic clinic in Chandigarh| Liver treatment in Chandigarh| Stone treatment in Chandigarh| PCOD Treatment in Chandigarh| weightloss| Thyroid,Ayurvedic clinic,"Sco 324, first floor, beside Bank of India, Sector 40D, Chandigarh 160036, India",https://www.google.co.kr/maps/place/Tejasvi+Ayurveda.+Best+Ayurvedic+clinic+in+Chandigarh%7C+Liver+treatment+in+Chandigarh%7C+Stone+treatment+in+Chandigarh%7C+PCOD+Treatment+in+Chandigarh%7C+weightloss%7C+Thyroid/data=!4m5!3m4!1s0x390fedb205abea85:0x8694edf7d1594284!8m2!3d30.7392607!4d76.7313641?authuser=0&hl=en&rclk=1,30.7392607,76.7313641
Noor Diagnostics Care (DNA Labs India),Paternity testing service,"No 97 18, Booths, 35 Market Rd, Market 35 D, Sector 35D, Sector 35, Chandigarh, 160018, India",https://www.google.co.kr/maps/place/Noor+Diagnostics+Care+(DNA+Labs+India)/data=!4m5!3m4!1s0x390fed13db311bf1:0x3bb1a5348609efd4!8m2!3d30.731035!4d76.786308?authuser=0&hl=en&rclk=1,30.731035,76.786308
Mukat Hospital & Heart Institute,General hospital,"47, S.C.O, 49, Dakshin Marg, Sector 34A, Chandigarh, 160022, India",https://www.google.co.kr/maps/place/Mukat+Hospital+%26+Heart+Institute/data=!4m5!3m4!1s0x390fedb315555551:0x31a8410f96dd6b9!8m2!3d30.7229206!4d76.7705566?authuser=0&hl=en&rclk=1,30.7229206,76.7705566
Grecian Super Specialty Hospital,Hospital,"Phase 9, Sahibzada Ajit Singh Nagar, Punjab 160062, India",https://www.google.co.kr/maps/place/Grecian+Super+Specialty+Hospital/data=!4m5!3m4!1s0x390fee61c0000001:0xd304c964b8144afd!8m2!3d30.6911695!4d76.7230479?authuser=0&hl=en&rclk=1,30.6911695,76.7230479
Medicos Centre Mohali,Diagnostic center,"SCF 117, Phase 7, Sector 61, Sahibzada Ajit Singh Nagar, Chandigarh 160062, India",https://www.google.co.kr/maps/place/Medicos+Centre+Mohali/data=!4m5!3m4!1s0x390fee9b5af6bd7f:0x2395db715000a907!8m2!3d30.7024698!4d76.7273938?authuser=0&hl=en&rclk=1,30.7024698,76.7273938
"Dr R P Bansal - Best Pediatrician & Child Specialist in Chandigarh, vaccination centre for children and adults",Pediatrician,"Sco 183 First Floor, Main Market, Chandigarh Sector 34c, near Polka, Chandigarh, 160022, India","https://www.google.co.kr/maps/place/Dr+R+P+Bansal+-+Best+Pediatrician+%26+Child+Specialist+in+Chandigarh,+vaccination+centre+for+children+and+adults/data=!4m5!3m4!1s0x390fedb315555555:0x3b19424812d25a1d!8m2!3d30.7178377!4d76.7667326?authuser=0&hl=en&rclk=1",30.7178377,76.7667326
Chandigarh Clinical Laboratories Pvt. Ltd.,Diagnostic center,"SCO :- 09, Sector 16 D, Chandigarh, 160015, India",https://www.google.co.kr/maps/place/Chandigarh+Clinical+Laboratories+Pvt.+Ltd./data=!4m5!3m4!1s0x390fedd512306c0b:0x578a6b95d54d022c!8m2!3d30.7457894!4d76.7732699?authuser=0&hl=en&rclk=1,30.7457894,76.7732699
Dr Munish NeuroPsychaitrist @CMC,Psychiatrist,"Shopping Plaza, 17C, Sector 17, Chandigarh, 160017, India",https://www.google.co.kr/maps/place/Dr+Munish+NeuroPsychaitrist+@CMC/data=!4m5!3m4!1s0x390fed0b1e0b56d7:0xd0cededa38dd3bd2!8m2!3d30.740922!4d76.78279?authuser=0&hl=en&rclk=1,30.740922,76.78279
"AllergyDoc ENT & Allergy Centre, Best Allergy Specialist in Chandigarh, Allergy Vaccination, Allergy Treatment, Allergy Doctor",Otolaryngologist,"House number 322, Kissan Bhawan, 35A, Sector 35, Chandigarh, 160022, India","https://www.google.co.kr/maps/place/AllergyDoc+ENT+%26+Allergy+Centre,+Best+Allergy+Specialist+in+Chandigarh,+Allergy+Vaccination,+Allergy+Treatment,+Allergy+Doctor/data=!4m5!3m4!1s0x390fedea45555555:0xd7ddc58a1c60afac!8m2!3d30.7301625!4d76.7628168?authuser=0&hl=en&rclk=1",30.7301625,76.7628168
Dr Ashit Syngle,Rheumatologist,"547, 160016, Sector 16 D, Sector 16, Chandigarh, 160016, India",https://www.google.co.kr/maps/place/Dr+Ashit+Syngle/data=!4m5!3m4!1s0x390fed9a88828b4f:0xf27039cbc6342c19!8m2!3d30.7448496!4d76.7739176?authuser=0&hl=en&rclk=1,30.7448496,76.7739176
Prime Healthcare,Hospital,"SCO 10, Sector 27D, Sector 27, Chandigarh, 160019, India",https://www.google.co.kr/maps/place/Prime+Healthcare/data=!4m5!3m4!1s0x390fed1cf6e226b3:0x8f66082e941d9039!8m2!3d30.7248499!4d76.7963295?authuser=0&hl=en&rclk=1,30.7248499,76.7963295
"Dr. Mangla Dogra (Best Gynaecologist in Chandigarh, Mohali | Female Gynecologist in Chandigarh | Dogra Nursing Home & Endoscopy Centre)",Obstetrician-gynecologist,"No-8, Madhya Marg, opp. Peshavari Store, 19A, Sector 19A, Chandigarh, 160019, India","https://www.google.co.kr/maps/place/Dr.+Mangla+Dogra+(Best+Gynaecologist+in+Chandigarh,+Mohali+%7C+Female+Gynecologist+in+Chandigarh+%7C+Dogra+Nursing+Home+%26+Endoscopy+Centre)/data=!4m5!3m4!1s0x390fed23bfffffff:0x6b24b55ac257b71!8m2!3d30.729968!4d76.7915308?authuser=0&hl=en&rclk=1",30.729968,76.7915308
Mehar SuJok Therapy Center,Doctor,"Sector 18A, 18A, Sector 11, Chandigarh, 160018, India",https://www.google.co.kr/maps/place/Mehar+SuJok+Therapy+Center/data=!4m5!3m4!1s0x390fed0e65555555:0x4f4c343f046ed228!8m2!3d30.7369545!4d76.7892097?authuser=0&hl=en&rclk=1,30.7369545,76.7892097
Dr Chandra Hospital,Hospital,"3311 Sector 19, Sector-26, Sector-26, Chandigarh, 160019, India",https://www.google.co.kr/maps/place/Dr+Chandra+Hospital/data=!4m5!3m4!1s0x390fed23bfffffff:0x1cafa8d3712a469e!8m2!3d30.7296617!4d76.8072196?authuser=0&hl=en&rclk=1,30.7296617,76.8072196
Finishing TouchÂ® Chandigarh,Hair replacement service,"Sco- 76-77, 2nd. Floor, above Mochi, 17C, Chandigarh, 160017, India",https://www.google.co.kr/maps/place/Finishing+Touch%C2%AE+Chandigarh/data=!4m5!3m4!1s0x390fed0274b90c39:0x88ea8a9426f960eb!8m2!3d30.7396765!4d76.7827515?authuser=0&hl=en&rclk=1,30.7396765,76.7827515
"Post Delivery Weight Reduction Clinic,Paras Bliss Hospital Panchkula",Maternity hospital,"Room No: 2, Paras Bliss, Panchkula Mansa Devi Complex, Swastik Vihar, Phase, ??1,, Sector -5, MDC, Panchkula, Haryana 134109, India","https://www.google.co.kr/maps/place/Post+Delivery+Weight+Reduction+Clinic,Paras+Bliss+Hospital+Panchkula/data=!4m5!3m4!1s0x390f9393846fcf05:0x1bf6b6b1a79e196c!8m2!3d30.717056!4d76.851448?authuser=0&hl=en&rclk=1",30.717056,76.851448
Dr. T S Bajwa,Doctor,"2149, Himalaya Marg, 35C, Sector 35, Chandigarh, 160022, India",https://www.google.co.kr/maps/place/Dr.+T+S+Bajwa/data=!4m5!3m4!1s0x390fedb418dffcb7:0x2783f519a6acb8c!8m2!3d30.7230735!4d76.7612391?authuser=0&hl=en&rclk=1,30.7230735,76.7612391
Hope Clinic & Maternity Centre Pvt.Ltd,Hospital,"SCO 1066-1067 Aerodale Market, New, Sector 123, Sunny Enclave, Sahibzada Ajit Singh Nagar, Punjab 140301, India",https://www.google.co.kr/maps/place/Hope+Clinic+%26+Maternity+Centre+Pvt.Ltd/data=!4m5!3m4!1s0x390feeaf44e7f441:0xd2725095532305a2!8m2!3d30.7574309!4d76.6775952?authuser=0&hl=en&rclk=1,30.7574309,76.6775952
Breast clinic,Hospital,"house no 2164, Sector 21C, Sector 19, Chandigarh, 160019, India",https://www.google.co.kr/maps/place/Breast+clinic/data=!4m5!3m4!1s0x390fedc8f401f8af:0x963afe6368ac5e30!8m2!3d30.7247527!4d76.7904974?authuser=0&hl=en&rclk=1,30.7247527,76.7904974
Dr. Rahul Gupta - Best Gastroenterologist in Chandigarh,Gastroenterologist,"Sco 170-171, madhya Marg, Sector 9c, Apollo Clinic Chandigarh, Chandigarh, 160017, India",https://www.google.co.kr/maps/place/Dr.+Rahul+Gupta+-+Best+Gastroenterologist+in+Chandigarh/data=!4m5!3m4!1s0x390fed0d64aa7d0d:0x7c084f172eb7894!8m2!3d30.741406!4d76.790993?authuser=0&hl=en&rclk=1,30.741406,76.790993
ECHS Polyclinic Mohali,Medical clinic,"Near Dara Studio 56A, Phase 6, Sector 56A, Sahibzada Ajit Singh Nagar, 160055, India",https://www.google.co.kr/maps/place/ECHS+Polyclinic+Mohali/data=!4m5!3m4!1s0x390fee3fae689fd7:0x11df8019f1729754!8m2!3d30.7373492!4d76.7082632?authuser=0&hl=en&rclk=1,30.7373492,76.7082632
Indian Medical Association,Medical group,"Dr.P.N.Chhuttani Memorial IMA Complex, near church, 35B, Sector 35, Chandigarh, 160022, India",https://www.google.co.kr/maps/place/Indian+Medical+Association/data=!4m5!3m4!1s0x390fedb6c96c1b69:0xbc193bf51f8e88e8!8m2!3d30.7254119!4d76.7622327?authuser=0&hl=en&rclk=1,30.7254119,76.7622327
Medical Centre,Medical Center,"Sco 17 Sector 34, Sector-26, Sector-26, Chandigarh, 160019, India",https://www.google.co.kr/maps/place/Medical+Centre/data=!4m5!3m4!1s0x390fed23bfffffff:0xf562cc88fd699c36!8m2!3d30.7296617!4d76.8072196?authuser=0&hl=en&rclk=1,30.7296617,76.8072196
"Dr Rajdeep Singh, Gastro, Liver & Endoscopy Centre - Best Gastroenterologist & Liver Specialist Chandigarh",Gastroenterologist,"House No. 3031, 19D, Sector 19, Chandigarh, 160019, India","https://www.google.co.kr/maps/place/Dr+Rajdeep+Singh,+Gastro,+Liver+%26+Endoscopy+Centre+-+Best+Gastroenterologist+%26+Liver+Specialist+Chandigarh/data=!4m5!3m4!1s0x390fed044c7637e7:0x1585ba0e48773233!8m2!3d30.7286127!4d76.7876463?authuser=0&hl=en&rclk=1",30.7286127,76.7876463
Fortis hospital,Hospital,"MQHQ+89Q, Chandigarh Airport Area, Chandigarh, 160003, India",https://www.google.co.kr/maps/place/Fortis+hospital/data=!4m5!3m4!1s0x390fede1040a7ca7:0x4865d99d3ac9840e!8m2!3d30.6783321!4d76.7884713?authuser=0&hl=en&rclk=1,30.6783321,76.7884713
Sant Namdev Bhawan Homoeopathic clinic,Medical Center,"PQGG+FJ9, 21C, Sector 21, Chandigarh, 160022, India",https://www.google.co.kr/maps/place/Sant+Namdev+Bhawan+Homoeopathic+clinic/data=!4m5!3m4!1s0x390feda973204037:0xdf33318cca2db38c!8m2!3d30.7261537!4d76.7766212?authuser=0&hl=en&rclk=1,30.7261537,76.7766212
Cloudnine Hospital (Paras/Pure Bliss) - Panchkula,Maternity hospital,"Room 4C,Sector -5,Swastik Vihar, Mansa Devi Complex, Panchkula, Haryana 134109, India",https://www.google.co.kr/maps/place/Cloudnine+Hospital+(Paras%2FPure+Bliss)+-+Panchkula/data=!4m5!3m4!1s0x390f931e90d77661:0xa3c4b4b48acc4d7d!8m2!3d30.716996!4d76.851485?authuser=0&hl=en&rclk=1,30.716996,76.851485
"Dr Alok Sharma , consultant Physician and chest Specialist",Pulmonologist,"Parade Ground, SCO 816, sec 22a, opposit, Chandigarh, 160022, India","https://www.google.co.kr/maps/place/Dr+Alok+Sharma+,+consultant+Physician+and+chest+Specialist/data=!4m5!3m4!1s0x390feda6178c691f:0x58f56ff7a595a3be!8m2!3d30.7320385!4d76.7726334?authuser=0&hl=en&rclk=1",30.7320385,76.7726334
Harman Clinic,Health consultant,"3164, 23D, Sector 23, Chandigarh, 160023, India",https://www.google.co.kr/maps/place/Harman+Clinic/data=!4m5!3m4!1s0x390fedaa936a7167:0x20b11974b6bae047!8m2!3d30.7385261!4d76.7644495?authuser=0&hl=en&rclk=1,30.7385261,76.7644495
Doctor Gyne,Doctor,"322, Ward Number IV, Sector 21A, Sector 21, Chandigarh, 160022, India",https://www.google.co.kr/maps/place/Doctor+Gyne/data=!4m5!3m4!1s0x390fed8040fd8be9:0xc6702ce935061a85!8m2!3d30.730598!4d76.7801407?authuser=0&hl=en&rclk=1,30.730598,76.7801407
Miscarriage Prevention Clinic- Paras Bliss Hospital Panchkula,Private hospital,"Paras Bliss,- Swastik Vihar,Phase ??1, Sector -5, Mansa Devi Complex, Panchkula, Haryana 134109, India",https://www.google.co.kr/maps/place/Miscarriage+Prevention+Clinic-+Paras+Bliss+Hospital+Panchkula/data=!4m5!3m4!1s0x390f93ebfffffffb:0x635a8408ae79afbb!8m2!3d30.717065!4d76.851373?authuser=0&hl=en&rclk=1,30.717065,76.851373
Dr. GUPTA'S CLINIC & E.E.G CENTRE,Neurologist,"Computerized Brain Graph, SCO 35, 19D, Peshawari Market, Chandigarh, 160019, India",https://www.google.co.kr/maps/place/Dr.+GUPTA'S+CLINIC+%26+E.E.G+CENTRE/data=!4m5!3m4!1s0x390fed94bf12b613:0xd84d1a5534476ba7!8m2!3d30.7270987!4d76.7891924?authuser=0&hl=en&rclk=1,30.7270987,76.7891924
Pandhi Hospital,Hospital,"1151, 36 C, Near Park, Sector 36, Chandigarh, 160036, India",https://www.google.co.kr/maps/place/Pandhi+Hospital/data=!4m5!3m4!1s0x390fedc8c0367197:0x296beed0797897ec!8m2!3d30.726711!4d76.752333?authuser=0&hl=en&rclk=1,30.726711,76.752333
Metropolis Healthcare LTD,Diagnostic center,"H.No. -1, Sector 11, Opp - New Opd Pgi, Chandigarh, Chandigarh, 160012, India",https://www.google.co.kr/maps/place/Metropolis+Healthcare+LTD/data=!4m5!3m4!1s0x390feda79b52bf19:0x179fcd9f4b82554c!8m2!3d30.7335003!4d76.779066?authuser=0&hl=en&rclk=1,30.7335003,76.779066
"Dr Jatinder Singla Best Orthopedic Chandigarh, Knee & Partial Knee Surgeon",Orthopedic surgeon,"House No - 3 , Sector - 19 A, Chandigarh 160019, India","https://www.google.co.kr/maps/place/Dr+Jatinder+Singla+Best+Orthopedic+Chandigarh,+Knee+%26+Partial+Knee+Surgeon/data=!4m5!3m4!1s0x390fed9016936b71:0x6e13edb668b82c74!8m2!3d30.730508!4d76.791125?authuser=0&hl=en&rclk=1",30.730508,76.791125
Hospital,Hospital,"Sector 9C, Sector 32D, Sector 46, Chandigarh, 160047, India",https://www.google.co.kr/maps/place/Hospital/data=!4m5!3m4!1s0x390fedc511ea907b:0x128b2d5dd82f719b!8m2!3d30.7076048!4d76.7744792?authuser=0&hl=en&rclk=1,30.7076048,76.7744792
Poorvi Diagnostic,Diagnostic center,"Sco 6, 1st Floor, Sector 24-c, Sector 24-c, Chandigarh, 160023, India",https://www.google.co.kr/maps/place/Poorvi+Diagnostic/data=!4m5!3m4!1s0x390fed943fffffff:0x645f2c11c1f595bb!8m2!3d30.7446536!4d76.7610647?authuser=0&hl=en&rclk=1,30.7446536,76.7610647
Jiyyo Mitra??e-Clinics | Headquarters | India | Asia Pacific,Health consultant,"2nd Floor, STPI Incubation Centre Plot No - C - 184, Sector 75, Sahibzada Ajit Singh Nagar, Punjab 160017, India",https://www.google.co.kr/maps/place/Jiyyo+Mitra%E2%84%A2+e-Clinics+%7C+Headquarters+%7C+India+%7C+Asia+Pacific/data=!4m5!3m4!1s0x390fee57aaaaaa93:0xf9f90dcdf0a0b61f!8m2!3d30.7038638!4d76.6920219?authuser=0&hl=en&rclk=1,30.7038638,76.6920219
MRI Scan Chandigarh,Medical diagnostic imaging center,"3rd floor, SCO 50-51, Chandigarh 160022, India",https://www.google.co.kr/maps/place/MRI+Scan+Chandigarh/data=!4m5!3m4!1s0x390fed44f57cf153:0x3bc1382ccfd84537!8m2!3d30.7229685!4d76.770392?authuser=0&hl=en&rclk=1,30.7229685,76.770392
Global Health Care,Hospital,"House No, 2164, Sector 21C, Sector 21, Chandigarh, 160022, India",https://www.google.co.kr/maps/place/Global+Health+Care/data=!4m5!3m4!1s0x390feda945d113a3:0x9d401786a3487a2f!8m2!3d30.7259498!4d76.77492?authuser=0&hl=en&rclk=1,30.7259498,76.77492
Healthy Heart - The Best Cardiologist in Tricity | Echo | TMT | Holter | Stress Echo | ECG | Angiography | PTCA | NICU | Orthopedic Surgeon | Trauma | Angioplasty in Chandigarh,Cardiologist,"No.2551 Ground Floor, 20C, Sector 20, Chandigarh, 160020, India",https://www.google.co.kr/maps/place/Healthy+Heart+-+The+Best+Cardiologist+in+Tricity+%7C+Echo+%7C+TMT+%7C+Holter+%7C+Stress+Echo+%7C+ECG+%7C+Angiography+%7C+PTCA+%7C+NICU+%7C+Orthopedic+Surgeon+%7C+Trauma+%7C+Angioplasty+in+Chandigarh/data=!4m5!3m4!1s0x390fecff85555515:0xd216cdf57f048f7a!8m2!3d30.721306!4d76.778405?authuser=0&hl=en&rclk=1,30.721306,76.778405
simran's diet and fitness clinic,Nutritionist,"house no.1037, Sector 21B, Sector 21, Chandigarh, 160022, India",https://www.google.co.kr/maps/place/simran's+diet+and+fitness+clinic/data=!4m5!3m4!1s0x390fedd912d486b3:0x750506cf245c4639!8m2!3d30.7276172!4d76.7805384?authuser=0&hl=en&rclk=1,30.7276172,76.7805384
Fortis Hospital Mohali,Hospital,"Sector 62, Sahibzada Ajit Singh Nagar, Punjab 160062, India",https://www.google.co.kr/maps/place/Fortis+Hospital+Mohali/data=!4m5!3m4!1s0x390fee9f04ed85e1:0x63296ed41f02307d!8m2!3d30.6952387!4d76.7314157?authuser=0&hl=en&rclk=1,30.6952387,76.7314157
Lavleen Kaur's Diet Insight??Nutritionist,"SCO 1130-31, 1st floor, 22B, Chandigarh, 160022, India",https://www.google.co.kr/maps/place/Lavleen+Kaur's+Diet+Insight%E2%84%A2/data=!4m5!3m4!1s0x390feda929b784d1:0x5e68249fb4d35b2e!8m2!3d30.7306685!4d76.7745507?authuser=0&hl=en&rclk=1,,,
Virdi Eye Hospital,Hospital,"SCO 226-227, Sector No 34A, Dakshin Marg, near Patania Petrol Pump, Chandigarh 160022, India",https://www.google.co.kr/maps/place/Virdi+Eye+Hospital/data=!4m5!3m4!1s0x390feda455555555:0x39585fa378739e7d!8m2!3d30.7195716!4d76.7684386?authuser=0&hl=en&rclk=1,30.7195716,76.7684386
Car Clinic,Auto repair shop,"PPFG+MHM, Phase 2, Sector 54, Chandigarh, 160059, India",https://www.google.co.kr/maps/place/Car+Clinic/data=!4m5!3m4!1s0x390fee7a6aaaaaab:0x9178cb30ed48ce2e!8m2!3d30.7242148!4d76.7264242?authuser=0&hl=en&rclk=1,30.7242148,76.7264242
Ritu's Health & Wellness Clinic,Nutritionist,"SCO 145-146, 2nd floor, Sector 8C, Chandigarh, 160019, India",https://www.google.co.kr/maps/place/Ritu's+Health+%26+Wellness+Clinic/data=!4m5!3m4!1s0x390fed2214344e05:0x52aec8801a191926!8m2!3d30.7362506!4d76.795277?authuser=0&hl=en&rclk=1,30.7362506,76.795277
Weight Loss Centre & Homeopathic Clinic - Ekatva,Weight loss service,"37, Level, SCF, 1, 19D, Chandigarh, 160019, India",https://www.google.co.kr/maps/place/Weight+Loss+Centre+%26+Homeopathic+Clinic+-+Ekatva/data=!4m5!3m4!1s0x390fed98a9977445:0x1fbb8e7775a6ec6!8m2!3d30.7295464!4d76.791291?authuser=0&hl=en&rclk=1,30.7295464,76.791291
Dietitian Shreya's Family Diet Clinic,Nutritionist,"Sco 369- 370 ,First Floor , Second Floor, 35B, Chandigarh, 160034, India",https://www.google.co.kr/maps/place/Dietitian+Shreya's+Family+Diet+Clinic/data=!4m5!3m4!1s0x390fedb4101553f7:0x96a688af3e648162!8m2!3d30.7238209!4d76.7633621?authuser=0&hl=en&rclk=1,30.7238209,76.7633621
Physiotherapy Matterz,Physical therapist,"House no 3002, 19D, Sector 19, Chandigarh, 160019, India",https://www.google.co.kr/maps/place/Physiotherapy+Matterz/data=!4m5!3m4!1s0x390fed03921ad435:0xd27292270e03d2c3!8m2!3d30.725453!4d76.787355?authuser=0&hl=en&rclk=1,30.725453,76.787355
Healing Hospital- Best Super Speciality Hospital in Chandigarh,Hospital,"SCO 16-17-18-19-20, Sub. City Center, Sector 34A, Sector 35, Chandigarh, 160022, India",https://www.google.co.kr/maps/place/Healing+Hospital-+Best+Super+Speciality+Hospital+in+Chandigarh/data=!4m5!3m4!1s0x390fedae06440b71:0x96f0b99e412a2f99!8m2!3d30.7245935!4d76.7688916?authuser=0&hl=en&rclk=1,30.7245935,76.7688916
HEADMASTERS Salon & Spa Chandigarh,Hair salon,"SCO 18 & 19, Madhya Marg, Sector 8C, Chandigarh, 160009, India",https://www.google.co.kr/maps/place/HEADMASTERS+Salon+%26+Spa+Chandigarh/data=!4m5!3m4!1s0x390fed0d815cd345:0x15eebca692f0e91f!8m2!3d30.7400781!4d76.7926221?authuser=0&hl=en&rclk=1,30.7400781,76.7926221
