Company_Name,Category,Address,Url,Latitude,Longitude,State
"ILS Hospitals, Agartala",General hospital,"Capital Complex Extension P.O - New Secretariat, Agartala, Tripura 799010, India","https://www.google.co.kr/maps/place/ILS+Hospitals,+Agartala/data=!4m5!3m4!1s0x3753f14d1a5ccdad:0x1d6e81bdd9eaa78c!8m2!3d23.867536!4d91.289606?authuser=0&hl=en&rclk=1",23.867536,91.289606,Tripura
"Dhalai District Hospital,Kulai",Government hospital,"Dist, Purba Nalichhara, Tripura 799278, India","https://www.google.co.kr/maps/place/Dhalai+District+Hospital,Kulai/data=!4m5!3m4!1s0x3753d2adfeff58f7:0x279d18e725b96237!8m2!3d23.9548798!4d91.8252288?authuser=0&hl=en&rclk=1",23.9548798,91.8252288,Tripura
"District Hospital, Dharmanagar, North Tripura",Hospital,"95Q5+X43, Chandrapur, Dharmanagar, Tripura 799251, India","https://www.google.co.kr/maps/place/District+Hospital,+Dharmanagar,+North+Tripura/data=!4m5!3m4!1s0x3751ecc77c92b9cb:0x5104dc9375ae5e91!8m2!3d24.3898786!4d92.1578064?authuser=0&hl=en&rclk=1",24.3898786,92.1578064,Tripura
District Hospital - Gomati Tripura,Hospital,"Dist omati, Shillong - Agartala - Sabrum Rd, Radhakishorepur R.F., Tripura 799114, India",https://www.google.co.kr/maps/place/District+Hospital+-+Gomati+Tripura/data=!4m5!3m4!1s0x375399e583b72c25:0xbc41d9612b1118fb!8m2!3d23.5544771!4d91.4556067?authuser=0&hl=en&rclk=1,23.5544771,91.4556067,Tripura
"District Hospital,South Tripura",Hospital,"Trijunction, Bagafa Rd, Santirbazar, Tripura 799144, India","https://www.google.co.kr/maps/place/District+Hospital,South+Tripura/data=!4m5!3m4!1s0x37530bc61ae650f3:0xca315a423254c0ed!8m2!3d23.3142658!4d91.5831544?authuser=0&hl=en&rclk=1",23.3142658,91.5831544,Tripura
Tripura Sundari Hospital,Hospital,"Dak Bunglow Rd, Udaipur, Tripura 799120, India",https://www.google.co.kr/maps/place/Tripura+Sundari+Hospital/data=!4m5!3m4!1s0x375398415bcc178d:0x4a83d9c618fab71c!8m2!3d23.5363599!4d91.4974344?authuser=0&hl=en&rclk=1,23.5363599,91.4974344,Tripura
Bishramganj Hospital,Hospital,"Shillong - Agartala - Sabrum Rd, Hospital Tilla, Bishramganj, Tripura 799103, India",https://www.google.co.kr/maps/place/Bishramganj+Hospital/data=!4m5!3m4!1s0x37538fc9802ba47b:0x943e69abc4dd1180!8m2!3d23.6088299!4d91.3507393?authuser=0&hl=en&rclk=1,23.6088299,91.3507393,Tripura
Bishalgarh Sub-Divisional Hospital,Hospital,"M7MH+5QF, Office Tila, Bishalgarh, Tripura 799102, India",https://www.google.co.kr/maps/place/Bishalgarh+Sub-Divisional+Hospital/data=!4m5!3m4!1s0x37538bed87e400b1:0x506401e514f934f6!8m2!3d23.682927!4d91.2794191?authuser=0&hl=en&rclk=1,23.682927,91.2794191,Tripura
ASR Hospitas PVT Ltd.,Hospital,"Ground floor, Times 24 Building, Hari Ganga Basak Rd, opposite of Sarkar Nursing Home, Agartala, Tripura 799001, India",https://www.google.co.kr/maps/place/ASR+Hospitas+PVT+Ltd./data=!4m5!3m4!1s0x3753f47255555555:0x90de12582fab0ddf!8m2!3d23.8297485!4d91.2776009?authuser=0&hl=en&rclk=1,23.8297485,91.2776009,Tripura
Agartala Nursing Home,Hospital,"Mantribari Rd, Battala, Agartala, Tripura 799001, India",https://www.google.co.kr/maps/place/Agartala+Nursing+Home/data=!4m5!3m4!1s0x3753f412b72e1a53:0xfb08ec0bdbae4f29!8m2!3d23.829997!4d91.2785489?authuser=0&hl=en&rclk=1,23.829997,91.2785489,Tripura
Venkataesware Hospitals,Hospital,"Chittaranjan Road, Agartala, Tripura 799004, India",https://www.google.co.kr/maps/place/Venkataesware+Hospitals/data=!4m5!3m4!1s0x3753f40b26be7f9b:0x5f2d34da1263ca42!8m2!3d23.8303726!4d91.2864518?authuser=0&hl=en&rclk=1,23.8303726,91.2864518,Tripura
Hospital,General hospital,"F8MH+8HJ, Telkajla, Tripura 799115, India",https://www.google.co.kr/maps/place/Hospital/data=!4m5!3m4!1s0x37538487dd6e718b:0x2abafbacd90880d!8m2!3d23.4833315!4d91.3288827?authuser=0&hl=en&rclk=1,23.4833315,91.3288827,Tripura
Vatenary Hospital,Hospital,"Q6GM+5V6, Pandabpur, Tripura 799003, India",https://www.google.co.kr/maps/place/Vatenary+Hospital/data=!4m5!3m4!1s0x3753f5393a1a5d0d:0x2a109942f1e12c5a!8m2!3d23.7754201!4d91.2346334?authuser=0&hl=en&rclk=1,23.7754201,91.2346334,Tripura
Kanchanmala Hospital,Hospital,"P8P8+9CV, Kanchanmala, Tripura 799130, India",https://www.google.co.kr/maps/place/Kanchanmala+Hospital/data=!4m5!3m4!1s0x37538cc2f05430e1:0xd74571c61898f85e!8m2!3d23.7359767!4d91.316058?authuser=0&hl=en&rclk=1,23.7359767,91.316058,Tripura
Karbook Hospital,Hospital,"Ichhachhari, Tripura 799144, India",https://www.google.co.kr/maps/place/Karbook+Hospital/data=!4m5!3m4!1s0x375300cd3ce1bfb5:0xeb125d6bec9cd582!8m2!3d23.3389733!4d91.7549412?authuser=0&hl=en&rclk=1,23.3389733,91.7549412,Tripura
MODERN PSYCHIATRY HOSPITAL,Hospital,"Narsingarh, Singarbil, Tripura 799009, India",https://www.google.co.kr/maps/place/MODERN+PSYCHIATRY+HOSPITAL/data=!4m5!3m4!1s0x3753f7aa1e692e0f:0xcdd649692c1bb3ea!8m2!3d23.906836!4d91.2496406?authuser=0&hl=en&rclk=1,23.906836,91.2496406,Tripura
AOD Hospital,Hospital,"J86X+6V6, Hospital Tilla, Bishramganj, Tripura 799103, India",https://www.google.co.kr/maps/place/AOD+Hospital/data=!4m5!3m4!1s0x37538fcbb6aaaaab:0xcd8eae6813ab6e8c!8m2!3d23.610538!4d91.349637?authuser=0&hl=en&rclk=1,23.610538,91.349637,Tripura
District Hospital,Hospital,"Tepania, Tripura, India",https://www.google.co.kr/maps/place/District+Hospital/data=!4m5!3m4!1s0x375399ef09851167:0xb2b3ef64c653b1a!8m2!3d23.5522721!4d91.4556718?authuser=0&hl=en&rclk=1,23.5522721,91.4556718,Tripura
IGM Hospital (New Building Under Construction),Hospital,"Dhaleswar A.A.Road, RMS Chowmuhani, Dhaleswar, Agartala, Tripura 799001, India",https://www.google.co.kr/maps/place/IGM+Hospital+(New+Building+Under+Construction)/data=!4m5!3m4!1s0x3753f4130f9259a9:0x931ed63a7c8ba5e9!8m2!3d23.8317582!4d91.2764217?authuser=0&hl=en&rclk=1,23.8317582,91.2764217,Tripura
Takarjala Hospital,Hospital,"PC4C+FHJ, Takarjala, Tripura 799045, India",https://www.google.co.kr/maps/place/Takarjala+Hospital/data=!4m5!3m4!1s0x375393a1020654a7:0xadc2662d5e80c539!8m2!3d23.706202!4d91.4213961?authuser=0&hl=en&rclk=1,23.706202,91.4213961,Tripura
HOSPITAL,Hospital,"Ampinagar, Tripura 799101, India",https://www.google.co.kr/maps/place/HOSPITAL/data=!4m5!3m4!1s0x3753b9767c84a177:0x63387fd8014147db!8m2!3d23.6767456!4d91.6350713?authuser=0&hl=en&rclk=1,23.6767456,91.6350713,Tripura
Belonia Sub Divisional Hospital,Hospital,"Belonia, Tripura 799155, India",https://www.google.co.kr/maps/place/Belonia+Sub+Divisional+Hospital/data=!4m5!3m4!1s0x375373beaaaaaaab:0x3d97bcb481051caf!8m2!3d23.2504915!4d91.4676394?authuser=0&hl=en&rclk=1,23.2504915,91.4676394,Tripura
Hospital Kumarghat,Hospital,"527R+96H, Pabiachhara part, Tripura 799264, India",https://www.google.co.kr/maps/place/Hospital+Kumarghat/data=!4m5!3m4!1s0x375189bb0b8778ed:0x30f40d2af2a6c553!8m2!3d24.1634256!4d92.0406089?authuser=0&hl=en&rclk=1,24.1634256,92.0406089,Tripura
Makunda Christian Missionary Hospital,Hospital,"Kamacherra, Ambassa, Tripura, India",https://www.google.co.kr/maps/place/Makunda+Christian+Missionary+Hospital/data=!4m5!3m4!1s0x375232cb15f32d37:0x7fc0cb423e491f5c!8m2!3d23.9148029!4d91.833079?authuser=0&hl=en&rclk=1,23.9148029,91.833079,Tripura
RGM Hospital Kailashahar,Government hospital,"near RGM Hospital, Kailashahar, Tripura 799277, India",https://www.google.co.kr/maps/place/RGM+Hospital+Kailashahar/data=!4m5!3m4!1s0x37518fe23286765b:0xbea7480dd368058!8m2!3d24.3182016!4d92.0021923?authuser=0&hl=en&rclk=1,24.3182016,92.0021923,Tripura
Bishramganj grouth centre,Hospital,"Agartala - Sabrum Rd, Bishramganj, Tripura 799103, India",https://www.google.co.kr/maps/place/Bishramganj+grouth+centre/data=!4m5!3m4!1s0x37538fb6744a45a5:0x31d8e4ff542b3b71!8m2!3d23.6085129!4d91.3454999?authuser=0&hl=en&rclk=1,23.6085129,91.3454999,Tripura
District Hospital Khowai,Hospital,"3JC3+H3P, Khowai, Tripura 799202, India",https://www.google.co.kr/maps/place/District+Hospital+Khowai/data=!4m5!3m4!1s0x3753d933e79b708f:0xf75716fbd70b9131!8m2!3d24.0714562!4d91.6027164?authuser=0&hl=en&rclk=1,24.0714562,91.6027164,Tripura
Makunda Christian Leprosy & General Hospital,Hospital,"WR8M+26X, Raipasa, Tripura 799204, India",https://www.google.co.kr/maps/place/Makunda+Christian+Leprosy+%26+General+Hospital/data=!4m5!3m4!1s0x375232cb17c8890b:0xae85853f6172632b!8m2!3d23.9151235!4d91.8331185?authuser=0&hl=en&rclk=1,23.9151235,91.8331185,Tripura
St. Joseph's Hospital,Hospital,"DC Para Main Rd, Bodhjung Nagar, Agartala, Tripura 799008, India",https://www.google.co.kr/maps/place/St.+Joseph's+Hospital/data=!4m5!3m4!1s0x3753f178a0679c73:0xdfef3816636611b6!8m2!3d23.8600693!4d91.3275701?authuser=0&hl=en&rclk=1,23.8600693,91.3275701,Tripura
Regional Cancer Institute,Hospital,"Kunjaban, Agartala, Tripura 799006, India",https://www.google.co.kr/maps/place/Regional+Cancer+Institute/data=!4m5!3m4!1s0x3753f1516d4a4b9f:0x9cb5ffa8caab4b3!8m2!3d23.8607129!4d91.2945913?authuser=0&hl=en&rclk=1,23.8607129,91.2945913,Tripura
"ECHS POLYCLINIC, AGARTALA",Hospital,"V7JV+788, Salbagan, Agartala, Tripura 799012, India","https://www.google.co.kr/maps/place/ECHS+POLYCLINIC,+AGARTALA/data=!4m5!3m4!1s0x3753f13422828c1b:0x8d2704ebb67b73a3!8m2!3d23.8806564!4d91.2933417?authuser=0&hl=en&rclk=1",23.8806564,91.2933417,Tripura
DR. ARINDAM DATTA CLINIC,Hospital,"Pragati Rd, Krishna Nagar, Agartala, Tripura 799002, India",https://www.google.co.kr/maps/place/DR.+ARINDAM+DATTA+CLINIC/data=!4m5!3m4!1s0x3753f5abe4094825:0x2a8a830d46ab89b2!8m2!3d23.8414161!4d91.278033?authuser=0&hl=en&rclk=1,23.8414161,91.278033,Tripura
Madhupur Primary Health Centre,Hospital,"799102, Madhupur, Tripura, India",https://www.google.co.kr/maps/place/Madhupur+Primary+Health+Centre/data=!4m5!3m4!1s0x37538a8fde0f9113:0x3d53a62f1c3d4d4d!8m2!3d23.7221928!4d91.2227074?authuser=0&hl=en&rclk=1,23.7221928,91.2227074,Tripura
Melaghar Hospital,Hospital,"Melaghar, Tripura 799115, India",https://www.google.co.kr/maps/place/Melaghar+Hospital/data=!4m5!3m4!1s0x3753848b7ea00b7d:0xd79a68a9289e1997!8m2!3d23.4931504!4d91.3322321?authuser=0&hl=en&rclk=1,23.4931504,91.3322321,Tripura
Hospital,Hospital,"Melaghar - Sonamura Rd, Ghrantali, Tripura 799115, India",https://www.google.co.kr/maps/place/Hospital/data=!4m5!3m4!1s0x37538508be176679:0xdf811688d2855325!8m2!3d23.4963867!4d91.3054678?authuser=0&hl=en&rclk=1,23.4963867,91.3054678,Tripura
Veterinary Hospital,Hospital,"NEEPCO Road, opposite to, Annada Spices Factory, R.K. Nagar, Bodhjung Nagar, Agartala, Tripura 799008, India",https://www.google.co.kr/maps/place/Veterinary+Hospital/data=!4m5!3m4!1s0x3753f17224a40575:0xd587ccfbb0f7a1e0!8m2!3d23.8678021!4d91.3496312?authuser=0&hl=en&rclk=1,23.8678021,91.3496312,Tripura
"Dakshin Rani,Health Centre,tripura",Hospital,"F92V+3H2, Uttar taibadul, Tripura 799105, India","https://www.google.co.kr/maps/place/Dakshin+Rani,Health+Centre,tripura/data=!4m5!3m4!1s0x37539d2f86c7cbb9:0xab173af55823541!8m2!3d23.450143!4d91.3938803?authuser=0&hl=en&rclk=1",23.450143,91.3938803,Tripura
Jalabasa Hospital,Hospital,"Jalabasa, Pekuchhara, Tripura 799260, India",https://www.google.co.kr/maps/place/Jalabasa+Hospital/data=!4m5!3m4!1s0x3751f307d55cf59b:0xd512f6811ff6e6ad!8m2!3d24.2591773!4d92.1819341?authuser=0&hl=en&rclk=1,24.2591773,92.1819341,Tripura
Baikhora Hospital,Hospital,"Baikhora, Tripura 799142, India",https://www.google.co.kr/maps/place/Baikhora+Hospital/data=!4m5!3m4!1s0x37530c7318158985:0xb1543dbe7ef01b15!8m2!3d23.2709341!4d91.5777122?authuser=0&hl=en&rclk=1,23.2709341,91.5777122,Tripura
Sanicherra P.H.C. ‡¶∂‡¶®‡¶ø‡¶õ‡¶°‡¶º‡¶æ ‡¶™‡ßç‡¶∞‡¶æ‡¶•‡¶Æ‡¶ø‡¶ï ‡¶∏‡ßç‡¶¨‡¶æ‡¶∏‡ßç‡¶•‡ßç‡¶Ø ‡¶ï‡ßá‡¶®‡ßç‡¶¶‡ßç‡¶∞,Hospital,"96HJ+C85, Dharmanagar, Tripura 799262, India",https://www.google.co.kr/maps/place/Sanicherra+P.H.C.+%E0%A6%B6%E0%A6%A8%E0%A6%BF%E0%A6%9B%E0%A6%A1%E0%A6%BC%E0%A6%BE+%E0%A6%AA%E0%A7%8D%E0%A6%B0%E0%A6%BE%E0%A6%A5%E0%A6%AE%E0%A6%BF%E0%A6%95+%E0%A6%B8%E0%A7%8D%E0%A6%AC%E0%A6%BE%E0%A6%B8%E0%A7%8D%E0%A6%A5%E0%A7%8D%E0%A6%AF+%E0%A6%95%E0%A7%87%E0%A6%A8%E0%A7%8D%E0%A6%A6%E0%A7%8D%E0%A6%B0/data=!4m5!3m4!1s0x3751ee9b2108e969:0xfd13bbd5dddbdfd!8m2!3d24.3785129!4d92.2308481?authuser=0&hl=en&rclk=1,24.3785129,92.2308481,Tripura
Mohanpur Hospital,Government hospital,"X9CC+GX9, Sidhai Mohanpur, Tripura 799211, India",https://www.google.co.kr/maps/place/Mohanpur+Hospital/data=!4m5!3m4!1s0x3753e549df4345f3:0xe485ec026ad3e86e!8m2!3d23.9712836!4d91.372488?authuser=0&hl=en&rclk=1,23.9712836,91.372488,Tripura
Unity Gastro & Liver Hospital,Hospital,"17, Thakur Pally Rd, opp. CNG Pump station, Kadamtali, Padma Pukur, Krishna Nagar, Agartala, Tripura 799001, India",https://www.google.co.kr/maps/place/Unity+Gastro+%26+Liver+Hospital/data=!4m5!3m4!1s0x3753f58080a0b617:0x2468143bfeefff3!8m2!3d23.8342447!4d91.2764067?authuser=0&hl=en&rclk=1,23.8342447,91.2764067,Tripura
Mortuary GBP Hospital,Government hospital,"V75R+GWQ, Kunjaban, Agartala, Tripura 799006, India",https://www.google.co.kr/maps/place/Mortuary+GBP+Hospital/data=!4m5!3m4!1s0x3753f1547689c3ed:0x72af8b344a42501a!8m2!3d23.85884!4d91.2923634?authuser=0&hl=en&rclk=1,23.85884,91.2923634,Tripura
"Dasharath Deb Memorial Primary Health Center, Ratanpur Hospital",Hospital,"2GVC+X9C, Ratanpur, Tripura 799201, India","https://www.google.co.kr/maps/place/Dasharath+Deb+Memorial+Primary+Health+Center,+Ratanpur+Hospital/data=!4m5!3m4!1s0x3753de01d7e4596b:0x2c0d661aaf08970f!8m2!3d24.0449453!4d91.5208876?authuser=0&hl=en&rclk=1",24.0449453,91.5208876,Tripura
Teliamura Subdivision Hospital,Hospital,"Ompi Road, Teliamura, Tripura 799205, India",https://www.google.co.kr/maps/place/Teliamura+Subdivision+Hospital/data=!4m5!3m4!1s0x3753c66394386bd1:0x1fd5503692ef06a3!8m2!3d23.8337088!4d91.6410516?authuser=0&hl=en&rclk=1,23.8337088,91.6410516,Tripura
Yashoda Hospitals Medical Information Centre,Medical Center,"Yashoda Hospitals Medical Center KPS Mansion (02nd Floor), Above Life Care Pharmacy Krishna Nagar, Main Road, W, Agartala, Tripura 799001, India",https://www.google.co.kr/maps/place/Yashoda+Hospitals+Medical+Information+Centre/data=!4m5!3m4!1s0x3753f5c62016aa1d:0xa889590f365c457e!8m2!3d23.8385453!4d91.2714441?authuser=0&hl=en&rclk=1,23.8385453,91.2714441,Tripura
Government Ayurvedic Hospital,Hospital,"R7HG+JFJ, Rabindra palli, Battala, Agartala, Tripura 799001, India",https://www.google.co.kr/maps/place/Government+Ayurvedic+Hospital/data=!4m5!3m4!1s0x3753f46ccbfa6b2d:0x41076235fb0378a7!8m2!3d23.8290943!4d91.2761414?authuser=0&hl=en&rclk=1,23.8290943,91.2761414,Tripura
Gandacherra Sub Divisional Hospital,Hospital,"JR39+X49, Gandacherra, Tripura 799284, India",https://www.google.co.kr/maps/place/Gandacherra+Sub+Divisional+Hospital/data=!4m5!3m4!1s0x3753b2d94590180b:0xe6c9acae43d8f9c5!8m2!3d23.6049101!4d91.8178564?authuser=0&hl=en&rclk=1,23.6049101,91.8178564,Tripura
muhuripur hospital(P.H.C),Hospital,"hospital road, Muhuripur, India",https://www.google.co.kr/maps/place/muhuripur+hospital(P.H.C)/data=!4m5!3m4!1s0x37530db26cd3482d:0x3b2ef6c29406395f!8m2!3d23.2271825!4d91.5700854?authuser=0&hl=en&rclk=1,23.2271825,91.5700854,Tripura
Hospital Kakraban,Hospital,"799105, Kamarangatali, Tripura, India",https://www.google.co.kr/maps/place/Hospital+Kakraban/data=!4m5!3m4!1s0x37539b849d980547:0x3b68eb31ff9dd904!8m2!3d23.481174!4d91.4097268?authuser=0&hl=en&rclk=1,23.481174,91.4097268,Tripura
Thelakung Hospital,Hospital,"Thelakung, P.S- Jampuijala, Sepahijala, Tripura 799102, India",https://www.google.co.kr/maps/place/Thelakung+Hospital/data=!4m5!3m4!1s0x375395e71403d915:0xd0da9eb602ee554!8m2!3d23.6686112!4d91.5030006?authuser=0&hl=en&rclk=1,23.6686112,91.5030006,Tripura
Old Regional Cancer Hospital üè•,Hospital,"V76V+5G6, Kunjaban, Agartala, Tripura 799006, India",https://www.google.co.kr/maps/place/Old+Regional+Cancer+Hospital+%F0%9F%8F%A5/data=!4m5!3m4!1s0x3753f153e0f56343:0xc690a8e2df9bbe24!8m2!3d23.8604038!4d91.2937675?authuser=0&hl=en&rclk=1,23.8604038,91.2937675,Tripura
District Hospital Unakoti ‡¶ä‡¶®‡¶ï‡ßã‡¶ü‡¶ø ‡¶ú‡ßá‡¶≤‡¶æ ‡¶π‡¶æ‡¶∏‡¶™‡¶æ‡¶§‡¶æ‡¶≤,Hospital,"823M+R8X, Gournagar, Tripura 799279, India",https://www.google.co.kr/maps/place/District+Hospital+Unakoti+%E0%A6%8A%E0%A6%A8%E0%A6%95%E0%A7%8B%E0%A6%9F%E0%A6%BF+%E0%A6%9C%E0%A7%87%E0%A6%B2%E0%A6%BE+%E0%A6%B9%E0%A6%BE%E0%A6%B8%E0%A6%AA%E0%A6%BE%E0%A6%A4%E0%A6%BE%E0%A6%B2/data=!4m5!3m4!1s0x37518e316b5e0499:0x81c0273f737d92de!8m2!3d24.3046113!4d92.0333666?authuser=0&hl=en&rclk=1,24.3046113,92.0333666,Tripura
Amarpur Sub-Divisional Hospital,Hospital,"Amarpur-Udaipur Rd, Amarpur, Tripura 799101, India",https://www.google.co.kr/maps/place/Amarpur+Sub-Divisional+Hospital/data=!4m5!3m4!1s0x3753a509ef660475:0x3133d1d2afca907!8m2!3d23.5172003!4d91.6504433?authuser=0&hl=en&rclk=1,23.5172003,91.6504433,Tripura
AGMC Super Speciality Block,Hospital,"V76V+F4W, Kunjaban, Agartala, Tripura 799006, India",https://www.google.co.kr/maps/place/AGMC+Super+Speciality+Block/data=!4m5!3m4!1s0x3753f153c6241f7f:0x523bed47b51545be!8m2!3d23.8612271!4d91.2928274?authuser=0&hl=en&rclk=1,23.8612271,91.2928274,Tripura
Kalyanpur Hospital,Hospital,"WJJ5+VXJ, Madhya Kalyanpur, Tripura 799203, India",https://www.google.co.kr/maps/place/Kalyanpur+Hospital/data=!4m5!3m4!1s0x3753c4ba8be51a79:0x6867036bab3a1349!8m2!3d23.9322087!4d91.6098954?authuser=0&hl=en&rclk=1,23.9322087,91.6098954,Tripura
Old Hospital,Hospital,"Old, Hospital Rd, Santirbazar, Tripura 799144, India",https://www.google.co.kr/maps/place/Old+Hospital/data=!4m5!3m4!1s0x37530b09956a9a29:0xe9bf97c19304bb24!8m2!3d23.3105563!4d91.5583243?authuser=0&hl=en&rclk=1,23.3105563,91.5583243,Tripura
CHELLAGANG HOSPITAL,Hospital,"CM9J+X78, Dulumabari, Tripura 799144, India",https://www.google.co.kr/maps/place/CHELLAGANG+HOSPITAL/data=!4m5!3m4!1s0x3753a95e7a5275f3:0xca07546b0ea59dde!8m2!3d23.4199055!4d91.6807033?authuser=0&hl=en&rclk=1,23.4199055,91.6807033,Tripura
"Trauma Centre, Govind Ballabh Pant Hospital",Hospital,"V75R+RWC, Indranagar, Agartala, Tripura 799006, India","https://www.google.co.kr/maps/place/Trauma+Centre,+Govind+Ballabh+Pant+Hospital/data=!4m5!3m4!1s0x3753f40ae2eb1325:0x5fdb72001fe06bd1!8m2!3d23.8595729!4d91.2922655?authuser=0&hl=en&rclk=1",23.8595729,91.2922655,Tripura
Sonamura Gramin Hospital,Hospital,"F7M7+Q6H, Sonamura, Tripura 799131, India",https://www.google.co.kr/maps/place/Sonamura+Gramin+Hospital/data=!4m5!3m4!1s0x375386cf64875481:0xfdb57c6d5843c8ba!8m2!3d23.4844363!4d91.2631238?authuser=0&hl=en&rclk=1,23.4844363,91.2631238,Tripura
GOMATI DISTRICT HOSPITAL,Hospital,"Dr. Homroys House, near Arunachal sangha, Udaipur, Tripura 799120, India",https://www.google.co.kr/maps/place/GOMATI+DISTRICT+HOSPITAL/data=!4m5!3m4!1s0x375399564b224769:0x8e4dc7c4364ed25c!8m2!3d23.5319744!4d91.4840553?authuser=0&hl=en&rclk=1,23.5319744,91.4840553,Tripura
Jogendranagar Primary Hospital,Hospital,"R884+6VF, Subhash Nagar, Jogendra Nagar, Agartala, Tripura 799004, India",https://www.google.co.kr/maps/place/Jogendranagar+Primary+Hospital/data=!4m5!3m4!1s0x3753f3986b28a40f:0x7bfc0873452c50c!8m2!3d23.81556!4d91.3071705?authuser=0&hl=en&rclk=1,23.81556,91.3071705,Tripura
Gachirampara Hospital,Hospital,"V5XX+PF6, Gachirampara, Tripura 799271, India",https://www.google.co.kr/maps/place/Gachirampara+Hospital/data=!4m5!3m4!1s0x3752171bd3265ba1:0xe1ec11b8c5366d6c!8m2!3d23.8992963!4d92.1986282?authuser=0&hl=en&rclk=1,23.8992963,92.1986282,Tripura
CRPF hospital,Hospital,"Unnamed Road, CRPF Group Centre, Debendrachandranagar, Tripura 799210, India",https://www.google.co.kr/maps/place/CRPF+hospital/data=!4m5!3m4!1s0x3753f1195abd0425:0x14408cd5177dbc32!8m2!3d23.8937446!4d91.3126513?authuser=0&hl=en&rclk=1,23.8937446,91.3126513,Tripura
Taltala Hospital,Hospital,"Tripura 799211, India",https://www.google.co.kr/maps/place/Taltala+Hospital/data=!4m5!3m4!1s0x3753fa0ede17515b:0xe6fde3b92cf3a7d9!8m2!3d23.9555481!4d91.3013864?authuser=0&hl=en&rclk=1,23.9555481,91.3013864,Tripura
TILTHAI HOSPITAL,Hospital,"Deochara, Tripura 799260, India",https://www.google.co.kr/maps/place/TILTHAI+HOSPITAL/data=!4m5!3m4!1s0x3751f2b6af0693f9:0xbe394addb6e20b3d!8m2!3d24.3005494!4d92.1503947?authuser=0&hl=en&rclk=1,24.3005494,92.1503947,Tripura
Hrishyamukh Hospital,Hospital,"4G9H+7R7, Haripur, Tripura 799156, India",https://www.google.co.kr/maps/place/Hrishyamukh+Hospital/data=!4m5!3m4!1s0x3753133746205b2b:0x78ceb8e990ba99f3!8m2!3d23.1181611!4d91.5295557?authuser=0&hl=en&rclk=1,23.1181611,91.5295557,Tripura
Fatikroy Hospital (PHC),Hospital,"52GC+XHR, Fatikroy, Tripura 799290, India",https://www.google.co.kr/maps/place/Fatikroy+Hospital+(PHC)/data=!4m5!3m4!1s0x37518856178d7d8f:0x67fad6a03b8e1700!8m2!3d24.1774941!4d92.0214036?authuser=0&hl=en&rclk=1,24.1774941,92.0214036,Tripura
Sepahijala District Hospital,Government hospital,"J84X+82C, Bishramganj, Tripura 799103, India",https://www.google.co.kr/maps/place/Sepahijala+District+Hospital/data=!4m5!3m4!1s0x37538ff57b2a8923:0xc418233d7faa7e33!8m2!3d23.6058167!4d91.3475257?authuser=0&hl=en&rclk=1,23.6058167,91.3475257,Tripura
Laljuri Hospital,Hospital,"455X+MP8, Santipur, Tripura 799270, India",https://www.google.co.kr/maps/place/Laljuri+Hospital/data=!4m5!3m4!1s0x37521e3ead420a6d:0x2c5333dfd54c4072!8m2!3d24.1091502!4d92.1993433?authuser=0&hl=en&rclk=1,24.1091502,92.1993433,Tripura
New Teaching Hospital,Hospital,"V75R+QXX, Kunjaban, Agartala, Tripura 799006, India",https://www.google.co.kr/maps/place/New+Teaching+Hospital/data=!4m5!3m4!1s0x3753f1538fa426c9:0x12c9de07ac54fb39!8m2!3d23.8594842!4d91.292473?authuser=0&hl=en&rclk=1,23.8594842,91.292473,Tripura
Dayaram Para Hospital,Hospital,"Golaghati, Tripura 799102, India",https://www.google.co.kr/maps/place/Dayaram+Para+Hospital/data=!4m5!3m4!1s0x375392096ff630f1:0x4dc02391f029e8d3!8m2!3d23.6791025!4d91.3692979?authuser=0&hl=en&rclk=1,23.6791025,91.3692979,Tripura
"82 , health centre.",Hospital,"3XJX+WVF, Nalkata, Tripura 799288, India","https://www.google.co.kr/maps/place/82+,+health+centre./data=!4m5!3m4!1s0x37522632c491e0f1:0xd864c13ff51a4ed0!8m2!3d24.0823153!4d91.9996626?authuser=0&hl=en&rclk=1",24.0823153,91.9996626,Tripura
Panisagar CHC Hospital,Hospital,"7583+RRJ, Panisagar, Tripura 799260, India",https://www.google.co.kr/maps/place/Panisagar+CHC+Hospital/data=!4m5!3m4!1s0x3751f32898cfa827:0xfe23d85fa72289f1!8m2!3d24.2670862!4d92.1545074?authuser=0&hl=en&rclk=1,24.2670862,92.1545074,Tripura
Bimal Sinha Memorial Hospital,Government hospital,"5RWH+V8W, Noagaon, Tripura 799285, India",https://www.google.co.kr/maps/place/Bimal+Sinha+Memorial+Hospital/data=!4m5!3m4!1s0x37517f627a090b0d:0x5eb06d86eee04375!8m2!3d24.1972322!4d91.8283412?authuser=0&hl=en&rclk=1,24.1972322,91.8283412,Tripura
Kanchanpur Sub-division Hospital,Hospital,"25QX+VCH, Kanchanpur, Tripura 799270, India",https://www.google.co.kr/maps/place/Kanchanpur+Sub-division+Hospital/data=!4m5!3m4!1s0x37521ec94dffc877:0xec5a94141aa21c55!8m2!3d24.0396973!4d92.1986201?authuser=0&hl=en&rclk=1,24.0396973,92.1986201,Tripura
Integrated AYUSH Hospital,Hospital,"Kailashahar, Tripura 799277, India",https://www.google.co.kr/maps/place/Integrated+AYUSH+Hospital/data=!4m5!3m4!1s0x37518fe22b03fab3:0x25e1714cee7da209!8m2!3d24.3181897!4d92.0029832?authuser=0&hl=en&rclk=1,24.3181897,92.0029832,Tripura
Lefunga Hospital,Hospital,"Tripura 799210, India",https://www.google.co.kr/maps/place/Lefunga+Hospital/data=!4m5!3m4!1s0x3753efcfeab2ec59:0x20ed4a0047658a1!8m2!3d23.9103921!4d91.3770649?authuser=0&hl=en&rclk=1,23.9103921,91.3770649,Tripura
Hospital,Hospital,"RCRF+WV2, Paschim Barjalai, Tripura 799046, India",https://www.google.co.kr/maps/place/Hospital/data=!4m5!3m4!1s0x3753ed5aaea551c1:0x3fa67bfdc95b929a!8m2!3d23.8422637!4d91.4246379?authuser=0&hl=en&rclk=1,23.8422637,91.4246379,Tripura
Hospital,Hospital,"99QG+78X, Jagatrampur, Tripura 799131, India",https://www.google.co.kr/maps/place/Hospital/data=!4m5!3m4!1s0x37539d82e7369ae9:0x1c0af1320c20c6b!8m2!3d23.3882422!4d91.3758649?authuser=0&hl=en&rclk=1,23.3882422,91.3758649,Tripura
Chelagang Hospital,Hospital,"CMGJ+627, Dulumabari, Tripura 799144, India",https://www.google.co.kr/maps/place/Chelagang+Hospital/data=!4m5!3m4!1s0x3753a8814747d755:0xaf6119db69aa87ba!8m2!3d23.4255453!4d91.6800563?authuser=0&hl=en&rclk=1,23.4255453,91.6800563,Tripura
Mandwi hospital,Hospital,"Mandwi, Tripura 799045, India",https://www.google.co.kr/maps/place/Mandwi+hospital/data=!4m5!3m4!1s0x3753e978269bc9eb:0xfe39cf57563eac82!8m2!3d23.8629544!4d91.4805358?authuser=0&hl=en&rclk=1,23.8629544,91.4805358,Tripura
District Disability Rehabilitation Centre,Hospital,"8264+75J, Kailashahar, Tripura 799279, India",https://www.google.co.kr/maps/place/District+Disability+Rehabilitation+Centre/data=!4m5!3m4!1s0x37518fe64b4e87f7:0xca7a65907c010ed5!8m2!3d24.3107235!4d92.0054018?authuser=0&hl=en&rclk=1,24.3107235,92.0054018,Tripura
Taksapara hospital.,Hospital,"H77R+MH9, Taksapara, Tripura 799103, India",https://www.google.co.kr/maps/place/Taksapara+hospital./data=!4m5!3m4!1s0x375385fe5607f36d:0x63c32879f783fae6!8m2!3d23.5641657!4d91.2914779?authuser=0&hl=en&rclk=1,23.5641657,91.2914779,Tripura
Cattle hospital,Hospital,"R9P7+HXJ, Ranirbazar, Tripura 799035, India",https://www.google.co.kr/maps/place/Cattle+hospital/data=!4m5!3m4!1s0x3753f3511b072da1:0x7e71a53a5fdd0327!8m2!3d23.8364658!4d91.3648954?authuser=0&hl=en&rclk=1,23.8364658,91.3648954,Tripura
B.S.F Hospital,Hospital,"64XR+P75, Panisagar, Tripura 799260, India",https://www.google.co.kr/maps/place/B.S.F+Hospital/data=!4m5!3m4!1s0x37518cca17f42499:0xcc44c60517cb76c9!8m2!3d24.2492561!4d92.1407408?authuser=0&hl=en&rclk=1,24.2492561,92.1407408,Tripura
Taidu Primary Hospital,Hospital,"PMP2+9C8, Tuidu Bazar, Tripura 799101, India",https://www.google.co.kr/maps/place/Taidu+Primary+Hospital/data=!4m5!3m4!1s0x3753b8694f8a7b9f:0x476b13a9797af51!8m2!3d23.7359227!4d91.6510874?authuser=0&hl=en&rclk=1,23.7359227,91.6510874,Tripura
Hospital,Hospital,"Unnamed Road, Durlavnarayan, Tripura 799103, India",https://www.google.co.kr/maps/place/Hospital/data=!4m5!3m4!1s0x37538584621443f3:0x6bf12178c5ddbc38!8m2!3d23.5423858!4d91.3101069?authuser=0&hl=en&rclk=1,23.5423858,91.3101069,Tripura
Rupaichari Hospital,Hospital,"Gaurifa, Tripura 799145, India",https://www.google.co.kr/maps/place/Rupaichari+Hospital/data=!4m5!3m4!1s0x375319f8cab4e2e7:0x6334f09b4a24e916!8m2!3d23.0762454!4d91.693008?authuser=0&hl=en&rclk=1,23.0762454,91.693008,Tripura
Ghilatali Uposasthya Kendra(Hospital),Hospital,"WJ5P+HQV, Ghilatali, Tripura 799203, India",https://www.google.co.kr/maps/place/Ghilatali+Uposasthya+Kendra(Hospital)/data=!4m5!3m4!1s0x3753c5190033fe97:0x632796bb09dc0f15!8m2!3d23.9089792!4d91.6369139?authuser=0&hl=en&rclk=1,23.9089792,91.6369139,Tripura
Office Tilla Ayurvedic Hospital,Hospital,"RCJW+XC9, Purba Barjalai, Tripura 799045, India",https://www.google.co.kr/maps/place/Office+Tilla+Ayurvedic+Hospital/data=!4m5!3m4!1s0x3753ebf44a75204b:0xae6bec91025fbc97!8m2!3d23.8324107!4d91.4461004?authuser=0&hl=en&rclk=1,23.8324107,91.4461004,Tripura
Narsingarh PHC,Hospital,"W64X+WVP, Narsingarh, Singarbil, Tripura 799009, India",https://www.google.co.kr/maps/place/Narsingarh+PHC/data=!4m5!3m4!1s0x3753f7a9f154dd97:0x7e5fbdd7fe32a2a4!8m2!3d23.9073378!4d91.2497092?authuser=0&hl=en&rclk=1,23.9073378,91.2497092,Tripura
Pal Nursing Home (Ex-Hospital),Hospital,"R7HR+62H, Shibnagar, Dhaleswar, Agartala, Tripura 799001, India",https://www.google.co.kr/maps/place/Pal+Nursing+Home+(Ex-Hospital)/data=!4m5!3m4!1s0x3753f30e703d999b:0x256a6c23b6e4e351!8m2!3d23.8280602!4d91.2901223?authuser=0&hl=en&rclk=1,23.8280602,91.2901223,Tripura
Atharabhola PHC,Hospital,"JFC4+8MJ, Atharabhola, Udaipur, Tripura 799114, India",https://www.google.co.kr/maps/place/Atharabhola+PHC/data=!4m5!3m4!1s0x375396d946acf1c7:0xd42544a2675a0c1a!8m2!3d23.6208432!4d91.4566467?authuser=0&hl=en&rclk=1,23.6208432,91.4566467,Tripura
Irani Hospital,Government hospital,"928C+299, Dhaliarkandi, Tripura 799281, India",https://www.google.co.kr/maps/place/Irani+Hospital/data=!4m5!3m4!1s0x37519056f441970f:0x361d69252fbaebdc!8m2!3d24.3650401!4d92.0209825?authuser=0&hl=en&rclk=1,24.3650401,92.0209825,Tripura
Chief Medical Officer Office Ambassa,Hospital,"Shillong - Agartala - Sabrum Rd, Ambassa, Tripura 799289, India",https://www.google.co.kr/maps/place/Chief+Medical+Officer+Office+Ambassa/data=!4m5!3m4!1s0x375232bfd8555555:0x62c4083f9da3d906!8m2!3d23.9208116!4d91.8511906?authuser=0&hl=en&rclk=1,23.9208116,91.8511906,Tripura
Ambassa Government Hospital,Hospital,"Ambassa, Tripura 799289, India",https://www.google.co.kr/maps/place/Ambassa+Government+Hospital/data=!4m5!3m4!1s0x37523295b20c1cff:0xe28fa7efd4d5e9db!8m2!3d23.9224825!4d91.8535352?authuser=0&hl=en&rclk=1,23.9224825,91.8535352,Tripura
SNBT STATION ROAD A-S Tri Junction,Hospital,"Karimganj - Agartala - Sabroom Rd, Santirbazar, Tripura 799144, India",https://www.google.co.kr/maps/place/SNBT+STATION+ROAD+A-S+Tri+Junction/data=!4m5!3m4!1s0x37530b07c8ffdd0f:0xfec1522c8569b34e!8m2!3d23.3164109!4d91.557645?authuser=0&hl=en&rclk=1,23.3164109,91.557645,Tripura
Hospital quater,Hospital,"67QV+H4R, Damcherra, Tripura 799256, India",https://www.google.co.kr/maps/place/Hospital+quater/data=!4m5!3m4!1s0x3751f118b8435183:0x6529a5066ef91d42!8m2!3d24.2389912!4d92.2927587?authuser=0&hl=en&rclk=1,24.2389912,92.2927587,Tripura
Ayurvedic Hospitals,Hospital,"NIT Road, Majlishpur, Tripura 799035, India",https://www.google.co.kr/maps/place/Ayurvedic+Hospitals/data=!4m5!3m4!1s0x3753ed19ec81e225:0x88a632e022fe7daa!8m2!3d23.8252664!4d91.4018156?authuser=0&hl=en&rclk=1,23.8252664,91.4018156,Tripura
Swasti Medicals,Hospital,"Hospital Rd, Dharmanagar, Tripura 799250, India",https://www.google.co.kr/maps/place/Swasti+Medicals/data=!4m5!3m4!1s0x3751ed757b3cde51:0xb7551d0406e5b157!8m2!3d24.3938191!4d92.1582627?authuser=0&hl=en&rclk=1,24.3938191,92.1582627,Tripura
Manabkilla Hospital,Hospital,"J7GC+3MH, Lalsinghmura, Tripura 799102, India",https://www.google.co.kr/maps/place/Manabkilla+Hospital/data=!4m5!3m4!1s0x3753899fdfdc98cd:0x982f488ff7063c59!8m2!3d23.6251819!4d91.2717406?authuser=0&hl=en&rclk=1,23.6251819,91.2717406,Tripura
Masli Primary Health Centre,Hospital,"NH108, Purba Masli, Tripura 799275, India",https://www.google.co.kr/maps/place/Masli+Primary+Health+Centre/data=!4m5!3m4!1s0x375225e83075059f:0x5d4402bb366d414f!8m2!3d24.0215925!4d92.0070353?authuser=0&hl=en&rclk=1,24.0215925,92.0070353,Tripura
Purbalaxmibil Primary Hospital,Hospital,"M7RX+WH9, Bishalgarh, Tripura 799102, India",https://www.google.co.kr/maps/place/Purbalaxmibil+Primary+Hospital/data=!4m5!3m4!1s0x37538c6dfe6c2479:0xacfcce3e49b231ba!8m2!3d23.6922957!4d91.2989854?authuser=0&hl=en&rclk=1,23.6922957,91.2989854,Tripura
"DOTS Plus Site, AGMC",Government hospital,"Kunjaban, Agartala, Tripura 799006, India","https://www.google.co.kr/maps/place/DOTS+Plus+Site,+AGMC/data=!4m5!3m4!1s0x3753f153eff928ef:0x103cde0862e81dd0!8m2!3d23.8597912!4d91.2933069?authuser=0&hl=en&rclk=1",23.8597912,91.2933069,Tripura
BSF Hospital,Hospital,"CH, FTR HQ BSF, Salbagan, Agartala, Tripura 799012, India",https://www.google.co.kr/maps/place/BSF+Hospital/data=!4m5!3m4!1s0x3753f12ee7c37015:0xda6fa602532897b9!8m2!3d23.8930871!4d91.2957698?authuser=0&hl=en&rclk=1,23.8930871,91.2957698,Tripura
Devlok Hospital,Private hospital,"R7RM+C4F, Krishna Nagar, Agartala, Tripura 799001, India",https://www.google.co.kr/maps/place/Devlok+Hospital/data=!4m5!3m4!1s0x3753f40f6229084b:0x7f3b20cf20f1e0f9!8m2!3d23.8410723!4d91.2827828?authuser=0&hl=en&rclk=1,23.8410723,91.2827828,Tripura
Ganganagar Hospital,Hospital,"QRGW+F8J, Khowaipara, Tripura 799289, India",https://www.google.co.kr/maps/place/Ganganagar+Hospital/data=!4m5!3m4!1s0x37523538a7bf7f75:0xba85e1a2dd7991f5!8m2!3d23.7762142!4d91.8457782?authuser=0&hl=en&rclk=1,23.7762142,91.8457782,Tripura
Tuikarmaw Hospital,Hospital,"9G6P+RVC, Purba Manu, Tripura 799125, India",https://www.google.co.kr/maps/place/Tuikarmaw+Hospital/data=!4m5!3m4!1s0x37530bac06b64585:0x275505cebc286939!8m2!3d23.3620531!4d91.5371549?authuser=0&hl=en&rclk=1,23.3620531,91.5371549,Tripura
New Hospital,Hospital,"25QX+XC2, Kanchanpur, Tripura 799270, India",https://www.google.co.kr/maps/place/New+Hospital/data=!4m5!3m4!1s0x37521eceb012edb7:0x62f90bcccda7b5e!8m2!3d24.0398752!4d92.1985058?authuser=0&hl=en&rclk=1,24.0398752,92.1985058,Tripura
Gramin Hospital,Hospital,"6R6W+CH5, Goalmara, Tripura 799285, India",https://www.google.co.kr/maps/place/Gramin+Hospital/data=!4m5!3m4!1s0x375181ec1d806bab:0x9aa498047824b8a9!8m2!3d24.2110205!4d91.8464689?authuser=0&hl=en&rclk=1,24.2110205,91.8464689,Tripura
82 Mile Hospital PHC,Hospital,"Kalibari Rd, Nalkata, Tripura 799266, India",https://www.google.co.kr/maps/place/82+Mile+Hospital+PHC/data=!4m5!3m4!1s0x375227c543c69de7:0x12349f0ab19291a!8m2!3d24.0822237!4d91.999446?authuser=0&hl=en&rclk=1,24.0822237,91.999446,Tripura
Sabroom Sub-Divisional Hospital,Hospital,"Sabroom, Tripura 799145, India",https://www.google.co.kr/maps/place/Sabroom+Sub-Divisional+Hospital/data=!4m5!3m4!1s0x3753189a78803b85:0xf562ef0b6649d836!8m2!3d23.0037377!4d91.7275679?authuser=0&hl=en&rclk=1,23.0037377,91.7275679,Tripura
Homoeopathy hospital,Hospital,"RC3Q+4RG, Khumulwng, Tripura 799035, India",https://www.google.co.kr/maps/place/Homoeopathy+hospital/data=!4m5!3m4!1s0x3753ec80bf38f6b7:0xbe67faa3c8827429!8m2!3d23.802814!4d91.4395909?authuser=0&hl=en&rclk=1,23.802814,91.4395909,Tripura
Ghilatali Health Sub-centre,Hospital,"WJ5P+HQV, Ghilatali, Tripura 799203, India",https://www.google.co.kr/maps/place/Ghilatali+Health+Sub-centre/data=!4m5!3m4!1s0x3753c56068602913:0xbdc6249dae13ea9b!8m2!3d23.9089792!4d91.6369139?authuser=0&hl=en&rclk=1,23.9089792,91.6369139,Tripura
Urmai P.H.C,Hospital,"Melaghar - Sonamura Rd, Urmai, Tripura 799115, India",https://www.google.co.kr/maps/place/Urmai+P.H.C/data=!4m5!3m4!1s0x3753846efb64e99b:0x7a0a75c7b10dc9f3!8m2!3d23.4875839!4d91.3152691?authuser=0&hl=en&rclk=1,23.4875839,91.3152691,Tripura
Sub-Division Hospital,Hospital,"Belonia, Tripura 799155, India",https://www.google.co.kr/maps/place/Sub-Division+Hospital/data=!4m5!3m4!1s0x375373c3e926ede1:0x74c9b68233b0e9fa!8m2!3d23.2517658!4d91.4572012?authuser=0&hl=en&rclk=1,23.2517658,91.4572012,Tripura
Doctors chamber,Hospital,"Unnamed Road, Kumarghat, Tripura 799264, India",https://www.google.co.kr/maps/place/Doctors+chamber/data=!4m5!3m4!1s0x37518908a765ac05:0xd53dfaf69d357dbf!8m2!3d24.1628141!4d92.0389057?authuser=0&hl=en&rclk=1,24.1628141,92.0389057,Tripura
Health Center,Hospital,"5RFM+RGF, Panchasi, Tripura 799285, India",https://www.google.co.kr/maps/place/Health+Center/data=!4m5!3m4!1s0x375181a38cec816d:0x4881003c6eccf168!8m2!3d24.1745709!4d91.8338085?authuser=0&hl=en&rclk=1,24.1745709,91.8338085,Tripura
Sub center,Hospital,"Paschim Kanchanbari, Tripura 799288, India",https://www.google.co.kr/maps/place/Sub+center/data=!4m5!3m4!1s0x375229b50c036725:0x9922f33079cfbcf!8m2!3d24.1251808!4d91.9832594?authuser=0&hl=en&rclk=1,24.1251808,91.9832594,Tripura
Meditown Multi Speciality Clinic,Medical Center,"Unnamed Road, Reshambagan, Agartala, Tripura 799008, India",https://www.google.co.kr/maps/place/Meditown+Multi+Speciality+Clinic/data=!4m5!3m4!1s0x3753f30a364b1e09:0xeca673b490516bff!8m2!3d23.842307!4d91.3173462?authuser=0&hl=en&rclk=1,23.842307,91.3173462,Tripura
"Primary Health Center, Natunnagar Co-Operative",Hospital,"Patunagar Rd, Durjaynagar, Agartala, Tripura 799002, India","https://www.google.co.kr/maps/place/Primary+Health+Center,+Natunnagar+Co-Operative/data=!4m5!3m4!1s0x3753f736bffe542f:0x654cc414d1dc8eff!8m2!3d23.8750389!4d91.2704672?authuser=0&hl=en&rclk=1",23.8750389,91.2704672,Tripura
MCH CLINIC,Hospital,"NH108, Jalabasa, Pekuchhara, Tripura 799260, India",https://www.google.co.kr/maps/place/MCH+CLINIC/data=!4m5!3m4!1s0x3751f3ac98c0c5e5:0xd18a60974b15f7b5!8m2!3d24.2590431!4d92.181332?authuser=0&hl=en&rclk=1,24.2590431,92.181332,Tripura
Dhalajhari HSC,Hospital,"HQJX+PHM, Dhalajhari, Tripura 799284, India",https://www.google.co.kr/maps/place/Dhalajhari+HSC/data=!4m5!3m4!1s0x3753b396db2d50ab:0x7405cceb15a95a37!8m2!3d23.581836!4d91.7989306?authuser=0&hl=en&rclk=1,23.581836,91.7989306,Tripura
Makunda Christian Leprosy and General Hospital,General hospital,"Bazaricherra, Karimganj, Assam 788727, India",https://www.google.co.kr/maps/place/Makunda+Christian+Leprosy+and+General+Hospital/data=!4m5!3m4!1s0x3751e668f510e06b:0xf378e3fcdef6bcc3!8m2!3d24.4320197!4d92.3306894?authuser=0&hl=en&rclk=1,24.4320197,92.3306894,Tripura
South Radhapur Health Subcentre,Hospital,"QCP9+926, Radhapur, Tripura 799035, India",https://www.google.co.kr/maps/place/South+Radhapur+Health+Subcentre/data=!4m5!3m4!1s0x3753eda976d58a39:0xc9a20e69c8dfabc2!8m2!3d23.785907!4d91.4175104?authuser=0&hl=en&rclk=1,23.785907,91.4175104,Tripura
Gramin Hospital,Hospital,"W8WG+5GV, Fatikchhara, Tripura 799210, India",https://www.google.co.kr/maps/place/Gramin+Hospital/data=!4m5!3m4!1s0x3753f140a3e8c679:0x3a6092b3375233d3!8m2!3d23.9454994!4d91.3262852?authuser=0&hl=en&rclk=1,23.9454994,91.3262852,Tripura
Veterinary hospital,Hospital,"Amarpur-Udaipur Rd, Amarpur, Tripura 799101, India",https://www.google.co.kr/maps/place/Veterinary+hospital/data=!4m5!3m4!1s0x3753a5cd1f3cc729:0x5ef6f499ed8c01b0!8m2!3d23.515736!4d91.6519771?authuser=0&hl=en&rclk=1,23.515736,91.6519771,Tripura
Apollo Center,Diagnostic center,"R7JG+HQQ, Rabindra palli, Dhaleswar, Agartala, Tripura 799001, India",https://www.google.co.kr/maps/place/Apollo+Center/data=!4m5!3m4!1s0x3753f50dd97be60f:0x6e21000715a8a6b4!8m2!3d23.8314555!4d91.2769903?authuser=0&hl=en&rclk=1,23.8314555,91.2769903,Tripura
Express Way,Hospital,"Kamalpur - Khowai Rd, Khowai, Tripura 799202, India",https://www.google.co.kr/maps/place/Express+Way/data=!4m5!3m4!1s0x3753d9273f5185dd:0x7ed0ce13a2927b98!8m2!3d24.0863955!4d91.612019?authuser=0&hl=en&rclk=1,24.0863955,91.612019,Tripura
MCH,Hospital,"R2RH+VWJ, Manikpur, Tripura 799273, India",https://www.google.co.kr/maps/place/MCH/data=!4m5!3m4!1s0x3752392b3c59f1fd:0x1abc7a2b6de3b84!8m2!3d23.8422008!4d92.029768?authuser=0&hl=en&rclk=1,23.8422008,92.029768,Tripura
GB,Hospital,"R8R3+R6H, Indranagar, Agartala, Tripura 799006, India",https://www.google.co.kr/maps/place/GB/data=!4m5!3m4!1s0x3753f38fbe08978f:0x652bbf7f20ec3375!8m2!3d23.8420715!4d91.303118?authuser=0&hl=en&rclk=1,23.8420715,91.303118,Tripura
General & Laparoscopic Surgeon,Medical Center,"Office Ln, Dhaleswar, Agartala, Tripura 799001, India",https://www.google.co.kr/maps/place/General+%26+Laparoscopic+Surgeon/data=!4m5!3m4!1s0x3753f5d7e25d0945:0xe2f9440b3d06de8d!8m2!3d23.8302524!4d91.2732983?authuser=0&hl=en&rclk=1,23.8302524,91.2732983,Tripura
Dr. Chayan Bhattacharjee,Medical Center,"9, Officers Quarter Ln, Krishna Nagar, Agartala, Tripura 799001, India",https://www.google.co.kr/maps/place/Dr.+Chayan+Bhattacharjee/data=!4m5!3m4!1s0x3753f4144ede61af:0x24ed29be33826c56!8m2!3d23.8335536!4d91.272046?authuser=0&hl=en&rclk=1,23.8335536,91.272046,Tripura
"OPD new Block, medicine TMC",Hospital,"Q7M5+PC6, Master Para, Hapania, Agartala, Tripura 799014, India","https://www.google.co.kr/maps/place/OPD+new+Block,+medicine+TMC/data=!4m5!3m4!1s0x3753f5c247c66315:0x205d983b1b25d63!8m2!3d23.7842879!4d91.2585149?authuser=0&hl=en&rclk=1",23.7842879,91.2585149,Tripura
Awc Centre,Hospital,"Haritala Rd, Baruakandi, Tripura 799251, India",https://www.google.co.kr/maps/place/Awc+Centre/data=!4m5!3m4!1s0x375193b2a9404261:0x36e3ef5668dd1840!8m2!3d24.4009536!4d92.136358?authuser=0&hl=en&rclk=1,24.4009536,92.136358,Tripura
Meditown Multi Speciality Clinic,Diagnostic center,"215, Assam, Shillong - Agartala - Sabrum Rd, Near Ashirbad Gas Agency, Reshambagan, Agartala, Tripura 799008, India",https://www.google.co.kr/maps/place/Meditown+Multi+Speciality+Clinic/data=!4m5!3m4!1s0x3753f30f16a82267:0xf34f19836dd07074!8m2!3d23.8421838!4d91.3175158?authuser=0&hl=en&rclk=1,23.8421838,91.3175158,Tripura
Makunda Mission Hospital,General hospital,"98XQ+V28, Dakshin Sagolmar, Assam 788727, India",https://www.google.co.kr/maps/place/Makunda+Mission+Hospital/data=!4m5!3m4!1s0x3751e569b1eddcd9:0x6f18962d54d4182a!8m2!3d24.3996505!4d92.3375817?authuser=0&hl=en&rclk=1,24.3996505,92.3375817,Tripura
Medicaids Pathological Lab & X-Ray Clinic,Diagnostic center,"6, I.G.M. HOSPITAL ROAD, near Indira Gandhi Memorial Hospital, Agartala, Tripura 799001, India",https://www.google.co.kr/maps/place/Medicaids+Pathological+Lab+%26+X-Ray+Clinic/data=!4m5!3m4!1s0x3753f412e00f02db:0x56b074427245a35d!8m2!3d23.8311528!4d91.2771288?authuser=0&hl=en&rclk=1,23.8311528,91.2771288,Tripura
Abha Health Relief And Welfare Society,Hospital,"Q8V7+XV6, Agartala, Tripura 799004, India",https://www.google.co.kr/maps/place/Abha+Health+Relief+And+Welfare+Society/data=!4m5!3m4!1s0x3753f348d1c75f4f:0x3536479029aa3b26!8m2!3d23.7949049!4d91.3146345?authuser=0&hl=en&rclk=1,23.7949049,91.3146345,Tripura
A-Z MEDICO,Medical Center,"7, Hospital Rd, Krishna Nagar, Agartala, Tripura 799001, India",https://www.google.co.kr/maps/place/A-Z+MEDICO/data=!4m5!3m4!1s0x3753f5c166a9a05b:0x32bb170e2950035f!8m2!3d23.8330978!4d91.2756347?authuser=0&hl=en&rclk=1,23.8330978,91.2756347,Tripura
‡¶¶‡ßÅ‡¶∞‡ßç‡¶ó‡¶æ ‡¶®‡¶ó‡¶∞ ‡¶™‡ßç‡¶∞‡¶æ‡¶•‡¶Æ‡¶ø‡¶ï ‡¶∏‡ßç‡¶¨‡¶æ‡¶∏‡ßç‡¶•‡ßç‡¶Ø ‡¶ï‡ßá‡¶®‡ßç‡¶¶‡ßç‡¶∞,Medical Center,"R9WF+8PF, Laxmipur, Tripura 799008, India",https://www.google.co.kr/maps/place/%E0%A6%A6%E0%A7%81%E0%A6%B0%E0%A7%8D%E0%A6%97%E0%A6%BE+%E0%A6%A8%E0%A6%97%E0%A6%B0+%E0%A6%AA%E0%A7%8D%E0%A6%B0%E0%A6%BE%E0%A6%A5%E0%A6%AE%E0%A6%BF%E0%A6%95+%E0%A6%B8%E0%A7%8D%E0%A6%AC%E0%A6%BE%E0%A6%B8%E0%A7%8D%E0%A6%A5%E0%A7%8D%E0%A6%AF+%E0%A6%95%E0%A7%87%E0%A6%A8%E0%A7%8D%E0%A6%A6%E0%A7%8D%E0%A6%B0/data=!4m5!3m4!1s0x3753ed00deadc36f:0xc465e15d9719c4a9!8m2!3d23.8458225!4d91.3742932?authuser=0&hl=en&rclk=1,23.8458225,91.3742932,Tripura
New Medical,Medical Center,"Ramesh, Chowmohani, Udaipur, Tripura 799120, India",https://www.google.co.kr/maps/place/New+Medical/data=!4m5!3m4!1s0x375397509abf0e4d:0x72f684e433f8d3ef!8m2!3d23.577484!4d91.5111651?authuser=0&hl=en&rclk=1,23.577484,91.5111651,Tripura
NCD INITIATIVE Tripura,Medical Center,"Room No 305, 3rd floor, NHM Tripura Complex, Palace Compound, Agartala, Tripura 799001, India",https://www.google.co.kr/maps/place/NCD+INITIATIVE+Tripura/data=!4m5!3m4!1s0x3753f40e95555555:0x2a8dd812a9c87f00!8m2!3d23.8368023!4d91.2830851?authuser=0&hl=en&rclk=1,23.8368023,91.2830851,Tripura
S.T Tower,Hospital,"College Rd, Sreemangal, Bangladesh",https://www.google.co.kr/maps/place/S.T+Tower/data=!4m5!3m4!1s0x37517b0bcd935161:0xa0e28c2c13daec52!8m2!3d24.3106722!4d91.7334597?authuser=0&hl=en&rclk=1,24.3106722,91.7334597,Tripura
Hospital,Hospital,"CHC Hospital, Thycattussery, Kerala 688528, India",https://www.google.co.kr/maps/place/Hospital/data=!4m5!3m4!1s0x375300cd3b2b675b:0xe3b6251d2281c727!8m2!3d23.3390805!4d91.7546599?authuser=0&hl=en&rclk=1,23.3390805,91.7546599,Tripura
DR J K NAG.,Orthopedic clinic,"Dhaleswar A.A.Road, Kalyani, Dhaleswar, Agartala, Tripura 799007, India",https://www.google.co.kr/maps/place/DR+J+K+NAG./data=!4m5!3m4!1s0x3753f334bd6eca73:0xea835df4dbaf2618!8m2!3d23.8339479!4d91.2996689?authuser=0&hl=en&rclk=1,23.8339479,91.2996689,Tripura
Apollo Clinic,Medical clinic,"Dhawleshwar, Road No. 8, near Blue Lotus Club, Agartala, Tripura 799007, India",https://www.google.co.kr/maps/place/Apollo+Clinic/data=!4m5!3m4!1s0x3753f306f220bbeb:0x74a0ec52e8d21c88!8m2!3d23.8367672!4d91.2986576?authuser=0&hl=en&rclk=1,23.8367672,91.2986576,Tripura
Dr. Rajat Kanti Bhattacharjee- Diabetologist in Agartala,Diabetologist,"Sharat sarani, Durgachowmuhni, Ram Nagar, Agartala, Tripura 799001, India",https://www.google.co.kr/maps/place/Dr.+Rajat+Kanti+Bhattacharjee-+Diabetologist+in+Agartala/data=!4m5!3m4!1s0x3753f3bfabbbd76d:0x1a8648a83689fda5!8m2!3d23.8446549!4d91.3214432?authuser=0&hl=en&rclk=1,23.8446549,91.3214432,Tripura
SRL Diagnostics,Diagnostic center,"7 Hospital Road, P.S West, Agartala, Tripura 799001, India",https://www.google.co.kr/maps/place/SRL+Diagnostics/data=!4m5!3m4!1s0x3753f53800b7bca3:0x675f0b325fb06d60!8m2!3d23.8264423!4d91.2821395?authuser=0&hl=en&rclk=1,23.8264423,91.2821395,Tripura
OCEAN MEDICAL,Medical Center,"Ichailalchhara,pramtala Fulbari Road Fulbari, Dharmanagar - Panisagar Road, Dharmanagar, Tripura 799262, India",https://www.google.co.kr/maps/place/OCEAN+MEDICAL/data=!4m5!3m4!1s0x3751eb3406ce2239:0x244056c47391e178!8m2!3d24.4269246!4d92.2132325?authuser=0&hl=en&rclk=1,24.4269246,92.2132325,Tripura
Sanjeevani Nursing Home,Nursing home,"R7PP+JWV, Banamalipur, Indranagar, Agartala, Tripura 799001, India",https://www.google.co.kr/maps/place/Sanjeevani+Nursing+Home/data=!4m5!3m4!1s0x3753f40998298f09:0x4ca1f391a370a256!8m2!3d23.8366167!4d91.287297?authuser=0&hl=en&rclk=1,23.8366167,91.287297,Tripura
Dr. Nirmal Paul,Medical clinic,"Hospital, Manu,, Manu, Tripura, India",https://www.google.co.kr/maps/place/Dr.+Nirmal+Paul/data=!4m5!3m4!1s0x375225817d913eab:0x5d5bb5952a713816!8m2!3d23.9918132!4d91.9929929?authuser=0&hl=en&rclk=1,23.9918132,91.9929929,Tripura
Dr Dilip Kumar Das's clinic,Obstetrician-gynecologist,"Motor Stand Rd, Santipara, Indranagar, Agartala, Tripura 799001, India",https://www.google.co.kr/maps/place/Dr+Dilip+Kumar+Das's+clinic/data=!4m5!3m4!1s0x3753f5e21412ed93:0x57c1f617a2f912a1!8m2!3d23.8313751!4d91.2847752?authuser=0&hl=en&rclk=1,23.8313751,91.2847752,Tripura
ACUITY HEALTH Agartala,Diagnostic center,"Ker chowmuhani, Agartala, Tripura 799001, India",https://www.google.co.kr/maps/place/ACUITY+HEALTH+Agartala/data=!4m5!3m4!1s0x3753f59e7d266b09:0x2e190a1eb4dd394d!8m2!3d23.8349469!4d91.2713928?authuser=0&hl=en&rclk=1,23.8349469,91.2713928,Tripura
Tripura Diagnostic & Polyclinic,Diagnostic center,"Chandmari, 79 Tilla, Agartala, Tripura 799010, India",https://www.google.co.kr/maps/place/Tripura+Diagnostic+%26+Polyclinic/data=!4m5!3m4!1s0x3753f7ba8caa0e51:0xc241b13d7848be98!8m2!3d23.8561431!4d91.2818815?authuser=0&hl=en&rclk=1,23.8561431,91.2818815,Tripura
Lifeline Nursing Home,Nursing home,"39, Shakuntala Rd Ext, Palace Compound, Indranagar, Agartala, Tripura 799001, India",https://www.google.co.kr/maps/place/Lifeline+Nursing+Home/data=!4m5!3m4!1s0x3753f40dc366a3cd:0xdc6ed7d80c555b28!8m2!3d23.8343335!4d91.2810065?authuser=0&hl=en&rclk=1,23.8343335,91.2810065,Tripura
Health Sub-Centre,Hospital,"69WM+29R, Thinghlun, Mizoram 796471, India",https://www.google.co.kr/maps/place/Health+Sub-Centre/data=!4m5!3m4!1s0x3751fc7525a17453:0x9c3d4432757b46b4!8m2!3d24.2451019!4d92.3833828?authuser=0&hl=en&rclk=1,24.2451019,92.3833828,Tripura
Popular Diagnostic Center,Diagnostic center,"N 207, Sreemangal 3210, Bangladesh",https://www.google.co.kr/maps/place/Popular+Diagnostic+Center/data=!4m5!3m4!1s0x37517a6c329ae467:0x3513ab386f3cda28!8m2!3d24.3095765!4d91.7300044?authuser=0&hl=en&rclk=1,24.3095765,91.7300044,Tripura
Nur Nur,Hospital,"Lowairpoa-Rangamati-Kanmun Raod, Sashi Nagar, Kalacharra, Assam 788726, India",https://www.google.co.kr/maps/place/Nur+Nur/data=!4m5!3m4!1s0x3751e7aa99eeaf8b:0x64144a37835fce25!8m2!3d24.4518169!4d92.3186185?authuser=0&hl=en&rclk=1,24.4518169,92.3186185,Tripura
"Civil Hospital, Aizawl",General hospital,"Bazar Bungkawn, Bara Bazar, Dawrpui, Aizawl, Mizoram 796001, India","https://www.google.co.kr/maps/place/Civil+Hospital,+Aizawl/data=!4m5!3m4!1s0x374d94b665e20dd9:0xb3325bc46c2ccb75!8m2!3d23.7323402!4d92.7165256?authuser=0&hl=en&rclk=1",23.7323402,92.7165256,Tripura
General Digital Diagnostic Center,Diagnostic center,"Dhaka Sylhet Rd, Sreemangal, Bangladesh",https://www.google.co.kr/maps/place/General+Digital+Diagnostic+Center/data=!4m5!3m4!1s0x37517a6da69dbae7:0x7f9cc6d4fc8fb69d!8m2!3d24.3103963!4d91.7316606?authuser=0&hl=en&rclk=1,24.3103963,91.7316606,Tripura
Modern Hospital,Hospital,"Dullabcherra hospital road, India",https://www.google.co.kr/maps/place/Modern+Hospital/data=!4m5!3m4!1s0x3751e0430abeabc7:0xd97eb8508536186c!8m2!3d24.4766258!4d92.4331662?authuser=0&hl=en&rclk=1,24.4766258,92.4331662,Tripura
Unique private Hospital,Hospital,"Shamsher Nagar Road, Moulvibazar, Bangladesh",https://www.google.co.kr/maps/place/Unique+private+Hospital/data=!4m5!3m4!1s0x375174dd4115578f:0x18b6441dc22d4015!8m2!3d24.491087!4d91.7841092?authuser=0&hl=en&rclk=1,24.491087,91.7841092,Tripura
TB Hospital,Hospital,"FQJP+JGF, Moulvibazar, Bangladesh",https://www.google.co.kr/maps/place/TB+Hospital/data=!4m5!3m4!1s0x375174e45a521b7f:0xebe82396039d198b!8m2!3d24.4815686!4d91.7863116?authuser=0&hl=en&rclk=1,24.4815686,91.7863116,Tripura
District Hospital,Hospital,"WF5V+PXW, New Mamit, Mamit, Mizoram 796441, India",https://www.google.co.kr/maps/place/District+Hospital/data=!4m5!3m4!1s0x374df78542eabda9:0x8638b87f18fd313f!8m2!3d23.9093742!4d92.4949516?authuser=0&hl=en&rclk=1,23.9093742,92.4949516,Tripura
Dr.Ayurved,Doctor,"Unnamed Road, Kailashahar, Tripura 799277, India",https://www.google.co.kr/maps/place/Dr.Ayurved/data=!4m5!3m4!1s0x37518f9e029a888d:0x9651dd9e4af425ce!8m2!3d24.3193517!4d91.9978725?authuser=0&hl=en&rclk=1,24.3193517,91.9978725,Tripura
