Company_Name,Category,Address,Url,Latitude,Longitude,Territory
Gold's Gym,Gym,"4th Syama Business Centre,Opp Hindu Office, NH Bypass Rd Junction, Vyttila, Kochi, Kerala 682019, India",https://www.google.co.kr/maps/place/Gold's+Gym/data=!4m5!3m4!1s0x3b080d2a9ec5b277:0x134298b3dd4febef!8m2!3d9.9716791!4d76.3175469?authuser=0&hl=en&rclk=1,9.9716791,76.3175469,Kerala
Ibis Fitness,Physical fitness program,"3rd Floor Vellakkal VAM Arcade Pookkattupadi Road, Near Lulu Mall, Edappally, Kochi, Kerala 682024, India",https://www.google.co.kr/maps/place/Ibis+Fitness/data=!4m5!3m4!1s0x3b080d58cb465b11:0x603782f871970690!8m2!3d10.0282302!4d76.3111636?authuser=0&hl=en&rclk=1,10.0282302,76.3111636,Kerala
Fit and Met - Fitness Certification Courses and Gym Training Courses,Fitness center,"Amba Building, Kochi, Ernakulam, near Thrikkakara Temple, Kochi, Kerala 682019, India",https://www.google.co.kr/maps/place/Fit+and+Met+-+Fitness+Certification+Courses+and+Gym+Training+Courses/data=!4m5!3m4!1s0x3b08732a175c4173:0x7d76ad6f8b763076!8m2!3d9.9763037!4d76.3027629?authuser=0&hl=en&rclk=1,9.9763037,76.3027629,Kerala
Cuoretone Fitness and Detox Studio,Gym,"Grand Mall, 3rd Floor, Service Rd, Edappally, Edappally Signal Junction, Ernakulam, Kochi, Kerala 682024, India",https://www.google.co.kr/maps/place/Cuoretone+Fitness+and+Detox+Studio/data=!4m5!3m4!1s0x3b080daeda6b21b7:0xe974b32416d1ecd4!8m2!3d10.0242778!4d76.3090175?authuser=0&hl=en&rclk=1,10.0242778,76.3090175,Kerala
Gravity Fitness,Gym,"2nd floor, C B Tower, K K Padmanabhan Rd, Kacheripady, Ernakulam, Kerala 682018, India",https://www.google.co.kr/maps/place/Gravity+Fitness/data=!4m5!3m4!1s0x3b080d5c8064053f:0x943e22e9c2b9be9c!8m2!3d9.9897208!4d76.2798048?authuser=0&hl=en&rclk=1,9.9897208,76.2798048,Kerala
Fitness 4 Ever Kakkanad,Gym,"Bharath Matha College, KR & F Square, Seaport - Airport Rd, near Kerala, Thrikkakara, Kakkanad, Kerala 682021, India",https://www.google.co.kr/maps/place/Fitness+4+Ever+Kakkanad/data=!4m5!3m4!1s0x3b080c5cfaa353f1:0x4268c8ed01450174!8m2!3d10.0279866!4d76.3369352?authuser=0&hl=en&rclk=1,10.0279866,76.3369352,Kerala
Fitness Hub,Gym,"Kadavanthara, Elamkulam, Ernakulam, Kerala 682020, India",https://www.google.co.kr/maps/place/Fitness+Hub/data=!4m5!3m4!1s0x3b0873044827c57b:0x89aca5ccdb41257!8m2!3d9.9704329!4d76.299137?authuser=0&hl=en&rclk=1,9.9704329,76.299137,Kerala
Gold's Gym,Gym,"Subramaniam Arcade, Gosaikunnu, Kuriachira, Thrissur, Kerala 680006, India",https://www.google.co.kr/maps/place/Gold's+Gym/data=!4m5!3m4!1s0x3ba7ee2d5a783b61:0x8cf9763d93c06e09!8m2!3d10.5083728!4d76.2235493?authuser=0&hl=en&rclk=1,10.5083728,76.2235493,Kerala
Turtles Fitness Solutions,Gym,"Turtles Fitness Solutions, YMCA Cross Rd, opp. IDBI Bank, Kozhikode, Kerala 673001, India",https://www.google.co.kr/maps/place/Turtles+Fitness+Solutions/data=!4m5!3m4!1s0x3ba659371fc74b1b:0xa8e7e47d74891a7e!8m2!3d11.2607525!4d75.7792406?authuser=0&hl=en&rclk=1,11.2607525,75.7792406,Kerala
Fitness Factory,Gym,"225, KP Vallon Rd, Kadavanthra Junction, Giri Nagar, Kadavanthra, Ernakulam, Kerala 682020, India",https://www.google.co.kr/maps/place/Fitness+Factory/data=!4m5!3m4!1s0x3b0872cecbc92b87:0x20246374d8606e83!8m2!3d9.9668317!4d76.3002654?authuser=0&hl=en&rclk=1,9.9668317,76.3002654,Kerala
Metropolis India Fitness Centre,Gym,"4th Floor,City Center,Kannur,Kerala, Kannur, Kerala 670001, India",https://www.google.co.kr/maps/place/Metropolis+India+Fitness+Centre/data=!4m5!3m4!1s0x3ba43d35229f208f:0x817f35bb37cd609a!8m2!3d11.8702077!4d75.3668006?authuser=0&hl=en&rclk=1,11.8702077,75.3668006,Kerala
Stark Fitness,Gym,"Regional Sports Centre, Gandhi Nagar road, Kadavanthra, Kochi, Kerala 682020, India",https://www.google.co.kr/maps/place/Stark+Fitness/data=!4m5!3m4!1s0x3b0872c962756961:0x7764f410d565e560!8m2!3d9.9688425!4d76.2980559?authuser=0&hl=en&rclk=1,9.9688425,76.2980559,Kerala
Life Time Fitness Hub,Fitness center,"3 rd Floor, Palarivattom - Edappally Rd, Bank Junction, Mamangalam, Edappally, Kochi, Kerala 682024, India",https://www.google.co.kr/maps/place/Life+Time+Fitness+Hub/data=!4m5!3m4!1s0x3b080da788de535b:0x85d65f6f451f3200!8m2!3d10.0179993!4d76.3039457?authuser=0&hl=en&rclk=1,10.0179993,76.3039457,Kerala
Catamount Gym,Gym,"Cheranallur, Kochi, Kerala 682034, India",https://www.google.co.kr/maps/place/Catamount+Gym/data=!4m5!3m4!1s0x3b080de793fb345b:0x8edb521a9d75adaa!8m2!3d10.0518981!4d76.2932092?authuser=0&hl=en&rclk=1,10.0518981,76.2932092,Kerala
Fitness 4 Ever Earth,Fitness center,"Pipe line, Thrikkakara Pipe line, University Road, Ernakulam, Kerala 682021, India",https://www.google.co.kr/maps/place/Fitness+4+Ever+Earth/data=!4m5!3m4!1s0x3b080de4816ad5c7:0xc133e0243c8f1cf5!8m2!3d10.0373332!4d76.3269153?authuser=0&hl=en&rclk=1,10.0373332,76.3269153,Kerala
Indian Multi Gym And Fitness,Gym,"Kuttikattoor-Mundupalam Rd, Kuttikkattoor, Kerala 673008, India",https://www.google.co.kr/maps/place/Indian+Multi+Gym+And+Fitness/data=!4m5!3m4!1s0x3ba65b641ac3b783:0xfe49e58471c3a44d!8m2!3d11.2673548!4d75.8717783?authuser=0&hl=en&rclk=1,11.2673548,75.8717783,Kerala
Life Style Fitness Centre,Gym,"Near medical College police station, Peringandoor, Kerala 680596, India",https://www.google.co.kr/maps/place/Life+Style+Fitness+Centre/data=!4m5!3m4!1s0x3ba7e973b6e5360f:0x81c3cca94a39e9!8m2!3d10.6193357!4d76.1974437?authuser=0&hl=en&rclk=1,10.6193357,76.1974437,Kerala
International Fitness,Gym,"HMT Rd, Kairali Nagar, South Kalamassery, Kalamassery, Kochi, Kerala 682022, India",https://www.google.co.kr/maps/place/International+Fitness/data=!4m5!3m4!1s0x3b080c2e55a9335f:0xc5686aec9dd14f60!8m2!3d10.054176!4d76.3258959?authuser=0&hl=en&rclk=1,10.054176,76.3258959,Kerala
Carvers Fitness & Yoga,Fitness center,"Mudumbil Towers, Plammoodu, Thiruvananthapuram, Kerala 695004, India",https://www.google.co.kr/maps/place/Carvers+Fitness+%26+Yoga/data=!4m5!3m4!1s0x3b05bbc34ff07a53:0x9c0e398ba01a1135!8m2!3d8.514058!4d76.9462839?authuser=0&hl=en&rclk=1,8.514058,76.9462839,Kerala
Gold's Gym,Gym,"Sasthamangalam Shree Dhanya Apex 31/747 Sasthamangalam Opp Alibaba And Dishes Sreedhanya Homes, Thiruvananthapuram, Kerala 695010, India",https://www.google.co.kr/maps/place/Gold's+Gym/data=!4m5!3m4!1s0x3b05ba333fc00f31:0xb22b130d22322f00!8m2!3d8.5113855!4d76.9656862?authuser=0&hl=en&rclk=1,8.5113855,76.9656862,Kerala
4 In Fitness,Fitness center,"Sajna Building, AR Camp Rd, NGO Quarters, Opp.Police Station, Vellimadukunnu, Kozhikode, Kerala 673012, India",https://www.google.co.kr/maps/place/4+In+Fitness/data=!4m5!3m4!1s0x3ba65c22a654a0b7:0x2894f4728cbb9a21!8m2!3d11.2932307!4d75.8176458?authuser=0&hl=en&rclk=1,11.2932307,75.8176458,Kerala
Life Style Fitness,Fitness center,"2nd Floor, Kaloor International Stadium, Kaloor, Kochi, Kerala 682017, India",https://www.google.co.kr/maps/place/Life+Style+Fitness/data=!4m5!3m4!1s0x3b080d15dfc790b7:0x99ecec78b0c3318a!8m2!3d9.99733!4d76.2999143?authuser=0&hl=en&rclk=1,9.99733,76.2999143,Kerala
Shafeeq's Fitness First 15,Fitness center,"Akaparambu Opp: panchayath office Ooty road Akaparamb, Kerala 679325, India",https://www.google.co.kr/maps/place/Shafeeq's+Fitness+First+15/data=!4m5!3m4!1s0x3ba633cb422e1381:0xf4f8009bc9faec37!8m2!3d11.0532911!4d76.2300985?authuser=0&hl=en&rclk=1,11.0532911,76.2300985,Kerala
2B FIT,Gym,"Vylopilly Road, Palarivattom Jct, Palarivattom, Kochi, Kerala 682025, India",https://www.google.co.kr/maps/place/2B+FIT/data=!4m5!3m4!1s0x3b080d1a1cf1f12b:0xe4bb9188c2e5ee67!8m2!3d10.0019331!4d76.3065753?authuser=0&hl=en&rclk=1,10.0019331,76.3065753,Kerala
FITNESS EXTREME GYM,Gym,"Bus Stand Rd, Thavakkara, Kannur, Kerala 670001, India",https://www.google.co.kr/maps/place/FITNESS+EXTREME+GYM/data=!4m5!3m4!1s0x3ba422cc9cc90d8d:0x3490c2896d11168f!8m2!3d11.8669391!4d75.3705618?authuser=0&hl=en&rclk=1,11.8669391,75.3705618,Kerala
"Zwagg Fitness ONLINE - Unisex Fitness BRAND, Strength, Zumba, Bollywood, HIIT, flexibility",Fitness center,"Changampuzha Residence Association, Ponekkara, Edappally, Ernakulam, Kerala 682024, India","https://www.google.co.kr/maps/place/Zwagg+Fitness+ONLINE+-+Unisex+Fitness+BRAND,+Strength,+Zumba,+Bollywood,+HIIT,+flexibility/data=!4m5!3m4!1s0x3b080d3e8040750b:0xcd8c9226761e5b10!8m2!3d10.0206676!4d76.3001622?authuser=0&hl=en&rclk=1",10.0206676,76.3001622,Kerala
5E Fitness,Fitness center,"Jesus Cross Rd, Vaduthala, Kochi, Kerala 682012, India",https://www.google.co.kr/maps/place/5E+Fitness/data=!4m5!3m4!1s0x3b080d6718adf965:0x9e717268ee764af!8m2!3d10.0088909!4d76.2749933?authuser=0&hl=en&rclk=1,10.0088909,76.2749933,Kerala
Triumph Lifes Fitness Studio,Fitness center,"Karuvelipady Rd, Kazhuthumuttu, Thoppumpady, Kochi, Kerala 682005, India",https://www.google.co.kr/maps/place/Triumph+Lifes+Fitness+Studio/data=!4m5!3m4!1s0x3b086d25d33a78fb:0x97406cc30d3d8bd1!8m2!3d9.9374817!4d76.2555289?authuser=0&hl=en&rclk=1,9.9374817,76.2555289,Kerala
F3 FITNESS GYM,Fitness center,"Pulinchode Junction, Jn, Aluva, Kerala 683101, India",https://www.google.co.kr/maps/place/F3+FITNESS+GYM/data=!4m5!3m4!1s0x3b080edb67aaaaab:0xe4abc67244fe263a!8m2!3d10.1022082!4d76.3487317?authuser=0&hl=en&rclk=1,10.1022082,76.3487317,Kerala
International Gym,Gym,"MC Road, near Hotel Aida, Kottayam, Kerala 686001, India",https://www.google.co.kr/maps/place/International+Gym/data=!4m5!3m4!1s0x3b062ba3bb49aef1:0x39aef0ea50d91740!8m2!3d9.5833292!4d76.5218072?authuser=0&hl=en&rclk=1,9.5833292,76.5218072,Kerala
Calorie Bee fitness,Gym,"Fair Trade centre,opp Kans Baby, TUDA Rd, AswinijnThrissur, Thrissur, Kerala 680022, India",https://www.google.co.kr/maps/place/Calorie+Bee+fitness/data=!4m5!3m4!1s0x3ba7eef12a9eeb57:0x5b49636053f5bb32!8m2!3d10.5358088!4d76.2149048?authuser=0&hl=en&rclk=1,10.5358088,76.2149048,Kerala
International Fitness,Gym,"Perumanoor, Ernakulam, Kerala 682015, India",https://www.google.co.kr/maps/place/International+Fitness/data=!4m5!3m4!1s0x3b08729543cb0a47:0x3c068aa37a00b0ed!8m2!3d9.950976!4d76.292995?authuser=0&hl=en&rclk=1,9.950976,76.292995,Kerala
Fitness 4 Ever. Express,Gym,"Civil line road . Padamukal, Padamukal, kakkanad, Kerala 682021, India",https://www.google.co.kr/maps/place/Fitness+4+Ever.+Express/data=!4m5!3m4!1s0x3b080cf6ae853289:0x6fd8488518fbd33a!8m2!3d10.0143622!4d76.3344539?authuser=0&hl=en&rclk=1,10.0143622,76.3344539,Kerala
Iron core Fitness,Gymnasium Cz,"THIRD FLOOR E.J.MANUAL ARCADE Kundanoor junction Maradu.p.o, Ernakulam, Kerala 682304, India",https://www.google.co.kr/maps/place/Iron+core+Fitness/data=!4m5!3m4!1s0x3b0873b862ced595:0x1319d3b7b1802ee0!8m2!3d9.9365902!4d76.3171951?authuser=0&hl=en&rclk=1,9.9365902,76.3171951,Kerala
R.M.C.O Fitness Academy Pvt Ltd Thrissur.,Gym,"Mar Aprem Shashtipoorthy Building, Near Marth Mariam Church, South Bazar, High Road, Thrissur, Kerala 680001, India",https://www.google.co.kr/maps/place/R.M.C.O+Fitness+Academy+Pvt+Ltd+Thrissur./data=!4m5!3m4!1s0x3ba7ee49c24af229:0xb6ebc83b1552b8c0!8m2!3d10.5189349!4d76.2173339?authuser=0&hl=en&rclk=1,10.5189349,76.2173339,Kerala
Fitness Pro gym & unisex fitness Centre,Gym,"thrithala road, Koottanad - Thrithala Rd, Koottanad, Kerala 679533, India",https://www.google.co.kr/maps/place/Fitness+Pro+gym+%26+unisex+fitness+Centre/data=!4m5!3m4!1s0x3ba7c7ae066fa4bf:0x9109d0eef18f1d51!8m2!3d10.7636396!4d76.1221918?authuser=0&hl=en&rclk=1,10.7636396,76.1221918,Kerala
SH FITNESS,Gym,"KRA-95, Amritha Hospital Road, Cheranallur, Kochi, Kerala 682034, India",https://www.google.co.kr/maps/place/SH+FITNESS/data=!4m5!3m4!1s0x3b080d1b30d46347:0xd713e353e4b85630!8m2!3d10.0491752!4d76.2904987?authuser=0&hl=en&rclk=1,10.0491752,76.2904987,Kerala
Roots Fitness House & Yoga Zone,Fitness center,"above Indian Overseas Bank, Kumbanad, Kerala 689547, India",https://www.google.co.kr/maps/place/Roots+Fitness+House+%26+Yoga+Zone/data=!4m5!3m4!1s0x3b063cbb577d9077:0x527bff6a67942800!8m2!3d9.3673112!4d76.6585334?authuser=0&hl=en&rclk=1,9.3673112,76.6585334,Kerala
"International Gym Cheruvattoor,kerala,india",Fitness center,"Irumalappady Puthuppady Rd, Cheruvattoor, Kerala 686691, India","https://www.google.co.kr/maps/place/International+Gym+Cheruvattoor,kerala,india/data=!4m5!3m4!1s0x3b07e695c92f6577:0xd0bbdf40640d8d00!8m2!3d10.055346!4d76.5743195?authuser=0&hl=en&rclk=1",10.055346,76.5743195,Kerala
Hamstring fitness centre,Gym,"123 mall, Vatakara Link Rd, Vatakara, Kerala 673101, India",https://www.google.co.kr/maps/place/Hamstring+fitness+centre/data=!4m5!3m4!1s0x3ba6850174598121:0xb14e84df25ef3d43!8m2!3d11.5977259!4d75.5889653?authuser=0&hl=en&rclk=1,11.5977259,75.5889653,Kerala
Fit and Met Fitness Academy,Fitness center,"Amba Building,2nd Floor,Near Trikkakara Temple,Trikkakara, Kerala 682021, India",https://www.google.co.kr/maps/place/Fit+and+Met+Fitness+Academy/data=!4m5!3m4!1s0x3b080c4f5b13ffff:0xdfbbf8e40fc72ec5!8m2!3d10.0343948!4d76.3283779?authuser=0&hl=en&rclk=1,10.0343948,76.3283779,Kerala
Fitness Nation,Gym,"Canara Bank Building, Market Junction, opposite to Harry Ford, Kuravankonam, Thiruvananthapuram, Kerala 695003, India",https://www.google.co.kr/maps/place/Fitness+Nation/data=!4m5!3m4!1s0x3b05b9eee16a9b2f:0x1140efb6f82bd802!8m2!3d8.5261476!4d76.9543181?authuser=0&hl=en&rclk=1,8.5261476,76.9543181,Kerala
Xtreme health & multi fitness centre,Gym,"Q9FF+4WF, Ottapalam, Kerala 679101, India",https://www.google.co.kr/maps/place/Xtreme+health+%26+multi+fitness+centre/data=!4m5!3m4!1s0x3ba7d9f7363c6789:0x1139dad409f628d7!8m2!3d10.7728202!4d76.3747909?authuser=0&hl=en&rclk=1,10.7728202,76.3747909,Kerala
Xtreme fitness,Gym,"Kattakkara Lane, Azad Rd, Kochi, Kerala 682017, India",https://www.google.co.kr/maps/place/Xtreme+fitness/data=!4m5!3m4!1s0x3b080dd5abeac703:0xf0b5fc3448c6ae1e!8m2!3d9.9909161!4d76.2965232?authuser=0&hl=en&rclk=1,9.9909161,76.2965232,Kerala
Gowri Bharatham Ladies Fitness Centre,Yoga studio,"Konchiravila, Kamaleshwaram, Thiruvananthapuram, Kerala 695009, India",https://www.google.co.kr/maps/place/Gowri+Bharatham+Ladies+Fitness+Centre/data=!4m5!3m4!1s0x3b05bb19ab773567:0xf6a4014daff727bf!8m2!3d8.464134!4d76.955355?authuser=0&hl=en&rclk=1,8.464134,76.955355,Kerala
My Health Fitness,Gym,"2nd Floor, Grand Arcade, Middle Hill, Up Hill, Malappuram, Kerala 676505, India",https://www.google.co.kr/maps/place/My+Health+Fitness/data=!4m5!3m4!1s0x3ba64b1dd4701455:0x8b90178a74ce19be!8m2!3d11.0441449!4d76.0806521?authuser=0&hl=en&rclk=1,11.0441449,76.0806521,Kerala
FITNESS POINT GYM KONNI,Gymnastics center,"Pathanamthitta, Konni, Kerala 689691, India",https://www.google.co.kr/maps/place/FITNESS+POINT+GYM+KONNI/data=!4m5!3m4!1s0x3b066b421e6404b5:0x70937ff134fbe8c1!8m2!3d9.2285471!4d76.8479068?authuser=0&hl=en&rclk=1,9.2285471,76.8479068,Kerala
"AIM Fitness Gym, Mallappally",Gym,"CMW3+PWP, Mallappally, Kerala 689585, India","https://www.google.co.kr/maps/place/AIM+Fitness+Gym,+Mallappally/data=!4m5!3m4!1s0x3b063ab9b42fce6f:0x3e14ff55e13bcdea!8m2!3d9.4468456!4d76.6548353?authuser=0&hl=en&rclk=1",9.4468456,76.6548353,Kerala
Greens Fitness Studio,Gym,"Kozhikode - Palakkad Hwy, KSHB Colony, Perintalmanna, Kerala 679322, India",https://www.google.co.kr/maps/place/Greens+Fitness+Studio/data=!4m5!3m4!1s0x3ba7cdac78baaaa9:0x37b8ff9c52f5f2fa!8m2!3d10.9757799!4d76.2282404?authuser=0&hl=en&rclk=1,10.9757799,76.2282404,Kerala
Praanah Fitness Center,Fitness center,"C M Mall, Pazhayangadi Rd, Pilathara, Kerala 670501, India",https://www.google.co.kr/maps/place/Praanah+Fitness+Center/data=!4m5!3m4!1s0x3ba46b772b3f9861:0x5a53d5c7f5dc688b!8m2!3d12.0797258!4d75.2618629?authuser=0&hl=en&rclk=1,12.0797258,75.2618629,Kerala
Fitness 4 Ever,Gymnasium Cz,"287M+PMX, Padamughal, Kochi, Kerala 682037, India",https://www.google.co.kr/maps/place/Fitness+4+Ever/data=!4m5!3m4!1s0x3b080cf6a577a469:0x38bc538ec3d9a14e!8m2!3d10.0143743!4d76.3342448?authuser=0&hl=en&rclk=1,10.0143743,76.3342448,Kerala
Phoenix Family Fitness Center,Gym,"7Q8H+74C, Chittoor, Pathanamthitta, Kerala 689645, India",https://www.google.co.kr/maps/place/Phoenix+Family+Fitness+Center/data=!4m5!3m4!1s0x3b0615cd87543255:0xb9bfa79f60724f7f!8m2!3d9.2656807!4d76.7777775?authuser=0&hl=en&rclk=1,9.2656807,76.7777775,Kerala
STALLION FITNESS CENTRE,Gym,"V97J+WQF, South Paravoor, Kerala 682307, India",https://www.google.co.kr/maps/place/STALLION+FITNESS+CENTRE/data=!4m5!3m4!1s0x3b0876c13aeb3bf1:0xbbf4a6ce607939cd!8m2!3d9.8648063!4d76.3819102?authuser=0&hl=en&rclk=1,9.8648063,76.3819102,Kerala
Global Fitness Pro Multi Gym(A/C) Thiruvalla,Gym,"Bypass Junction, Mazhuvangadu, Thiruvalla, Kerala 689101, India",https://www.google.co.kr/maps/place/Global+Fitness+Pro+Multi+Gym(A%2FC)+Thiruvalla/data=!4m5!3m4!1s0x3b0625b946e828eb:0xd8855a4937f27139!8m2!3d9.375926!4d76.5768247?authuser=0&hl=en&rclk=1,9.375926,76.5768247,Kerala
My Fitness Gym,Gymnastics center,"46WP+R22, North Paravur, Kerala 683513, India",https://www.google.co.kr/maps/place/My+Fitness+Gym/data=!4m5!3m4!1s0x3b081a82bd09cd39:0xe7ff4053ad235656!8m2!3d10.1470064!4d76.2350011?authuser=0&hl=en&rclk=1,10.1470064,76.2350011,Kerala
MY LIFE FITNESS CENTER,Gym,"near Village junction, Kuttichira, Kerala 680724, India",https://www.google.co.kr/maps/place/MY+LIFE+FITNESS+CENTER/data=!4m5!3m4!1s0x3ba7ffb95310d44f:0x24ca570ce652ff09!8m2!3d10.3323027!4d76.4266326?authuser=0&hl=en&rclk=1,10.3323027,76.4266326,Kerala
International Gym,Gym,"Kanjikuzhi, Kottayam, Kerala 686004, India",https://www.google.co.kr/maps/place/International+Gym/data=!4m5!3m4!1s0x3b062b05961f493b:0x8b2338c3a590ccd0!8m2!3d9.587785!4d76.5418711?authuser=0&hl=en&rclk=1,9.587785,76.5418711,Kerala
FITNESS CORE,Gym,"AJ Nagar, Nedumbassery, Kerala 683572, India",https://www.google.co.kr/maps/place/FITNESS+CORE/data=!4m5!3m4!1s0x3b08064fef0ec4d5:0xce13bac3ee47febe!8m2!3d10.1851404!4d76.3993815?authuser=0&hl=en&rclk=1,10.1851404,76.3993815,Kerala
International Fitness Systems,Gym,"Union Bank Building, Panampilly Nagar Ave, Panampilly Nagar, Kochi, Kerala 680036, India",https://www.google.co.kr/maps/place/International+Fitness+Systems/data=!4m5!3m4!1s0x3b0872c7bfffffff:0x77a2b72aa8fdcbc7!8m2!3d9.9631968!4d76.2954396?authuser=0&hl=en&rclk=1,9.9631968,76.2954396,Kerala
Fitness Centre,Gym,"Chirayinkeezhu, Kerala 695614, India",https://www.google.co.kr/maps/place/Fitness+Centre/data=!4m5!3m4!1s0x3b05dd3b22c1f2ad:0x7c1002afb7269dc3!8m2!3d8.796536!4d76.8597259?authuser=0&hl=en&rclk=1,8.796536,76.8597259,Kerala
"Titan Fitness, N M A Building, Near Humb",Gym,"7RCX+7HW, Velliparamba, Kozhikode, Kerala 673008, India","https://www.google.co.kr/maps/place/Titan+Fitness,+N+M+A+Building,+Near+Humb/data=!4m5!3m4!1s0x3ba65b80c18ac91f:0xe301175cd681a219!8m2!3d11.2707309!4d75.848945?authuser=0&hl=en&rclk=1",11.2707309,75.848945,Kerala
MUSCLE POINT FITNESS,Fitness center,"Thiroor, Thrissur, Kerala 680581, India",https://www.google.co.kr/maps/place/MUSCLE+POINT+FITNESS/data=!4m5!3m4!1s0x3ba7e9df65c9b39f:0xfa05512e562fc581!8m2!3d10.588139!4d76.2144941?authuser=0&hl=en&rclk=1,10.588139,76.2144941,Kerala
Greens Fitness Calicut,Gym,"2nd Pearl Malabar Building, Mini Bypass Rd, Near M.I.M.S Hospital, Govindapuram, Kozhikode, Kerala 673016, India",https://www.google.co.kr/maps/place/Greens+Fitness+Calicut/data=!4m5!3m4!1s0x3ba6595d8e57f2a1:0x41db4a6c51086f50!8m2!3d11.248648!4d75.7991782?authuser=0&hl=en&rclk=1,11.248648,75.7991782,Kerala
Midtown Fitness,Gym,"Varampath Towers, St Benedict Rd, Near North Railway Station, Kacheripady, Ernakulam, Kerala 682018, India",https://www.google.co.kr/maps/place/Midtown+Fitness/data=!4m5!3m4!1s0x3b080d931cf9ac5b:0x1cce63a14ffd8b24!8m2!3d9.9904346!4d76.2826741?authuser=0&hl=en&rclk=1,9.9904346,76.2826741,Kerala
Powermax Fitness,Gym,"69, A12, Edappally, Kochi, Kerala 682024, India",https://www.google.co.kr/maps/place/Powermax+Fitness/data=!4m5!3m4!1s0x3b080db68d31a6c1:0xb8f920086d61e05f!8m2!3d10.018599!4d76.30199?authuser=0&hl=en&rclk=1,10.018599,76.30199,Kerala
RS Fitness Hub,Gym,"Top Floor, Grand Court Plaza, Civil Lane Road, Kalyan Nagar, Ayyanthole, Thrissur, Kerala 680003, India",https://www.google.co.kr/maps/place/RS+Fitness+Hub/data=!4m5!3m4!1s0x3ba7ef2d510f6e57:0x65699156b8c6af97!8m2!3d10.5230139!4d76.1906911?authuser=0&hl=en&rclk=1,10.5230139,76.1906911,Kerala
THE FITSTOP,Gym,"No: CC-50/960 D, 1st Floor, Near Edapally Post Office, Manimala Road, Palarivattom - Edappally Rd, Devankulangara, Edappally, Ernakulam, Kerala 682024, India",https://www.google.co.kr/maps/place/THE+FITSTOP/data=!4m5!3m4!1s0x3b080da45cadc06b:0x2068b35ee36b06f!8m2!3d10.0194615!4d76.3046895?authuser=0&hl=en&rclk=1,10.0194615,76.3046895,Kerala
Fitness training centre,Fitness center,"QVW5+JVW, Chirayinkeezhu, Kerala 695614, India",https://www.google.co.kr/maps/place/Fitness+training+centre/data=!4m5!3m4!1s0x3b05dd2cab576ed5:0xe1788127d16b6849!8m2!3d8.7966129!4d76.8596914?authuser=0&hl=en&rclk=1,8.7966129,76.8596914,Kerala
Aesthetic Fitness,Gym,"GX84+48X, Nanthancodu, Thiruvananthapuram, Kerala 695003, India",https://www.google.co.kr/maps/place/Aesthetic+Fitness/data=!4m5!3m4!1s0x3b05bba3df48ce27:0x6175f86e43c15fa7!8m2!3d8.5153689!4d76.9558474?authuser=0&hl=en&rclk=1,8.5153689,76.9558474,Kerala
Fitness,Gym,"Paris Road Bus Stop, SH49, Kerala 680517, India",https://www.google.co.kr/maps/place/Fitness/data=!4m5!3m4!1s0x3ba79511d067999b:0x6dceaeb2222779d!8m2!3d10.603533!4d76.0699321?authuser=0&hl=en&rclk=1,10.603533,76.0699321,Kerala
B3 Fitness unisex gym,Gym,"Rajeevam Building, 1st floor, above SBI ATM, Mannanthala Junction, Mannanthala, Thiruvananthapuram, Kerala 695015, India",https://www.google.co.kr/maps/place/B3+Fitness+unisex+gym/data=!4m5!3m4!1s0x3b05b95550d98b4b:0x3d4dedfb1be2cb27!8m2!3d8.5604669!4d76.94314?authuser=0&hl=en&rclk=1,8.5604669,76.94314,Kerala
AGOGE Fitness Studio & Academy,Gym,"Perinthalmanna Road, Pattambi, Kerala 679303, India",https://www.google.co.kr/maps/place/AGOGE+Fitness+Studio+%26+Academy/data=!4m5!3m4!1s0x3ba7c527f99c8d05:0x2d7c0d9fd5742692!8m2!3d10.8124523!4d76.1870081?authuser=0&hl=en&rclk=1,10.8124523,76.1870081,Kerala
Lifestyle Fitness,Gym,"Aquatic Complex, Nr. Aswini Hospital, KN Road, Kerala 680020, India",https://www.google.co.kr/maps/place/Lifestyle+Fitness/data=!4m5!3m4!1s0x3ba7ee50c827821b:0xc88dccbcbac1b5ac!8m2!3d10.5261566!4d76.2160408?authuser=0&hl=en&rclk=1,10.5261566,76.2160408,Kerala
She Care Ladies Clinical Fitness Centre,Gym,"EMS Rd, Cherpulassery, Kerala 679503, India",https://www.google.co.kr/maps/place/She+Care+Ladies+Clinical+Fitness+Centre/data=!4m5!3m4!1s0x3ba7d19960a1b123:0xcfb6b0bc2eaf6379!8m2!3d10.8682231!4d76.3118467?authuser=0&hl=en&rclk=1,10.8682231,76.3118467,Kerala
Olympia Gym,Gym,"Adat Rd, Muthuvara, Adatt, Kerala 680553, India",https://www.google.co.kr/maps/place/Olympia+Gym/data=!4m5!3m4!1s0x3ba7ec268d8d40f3:0xac91decc9ab97824!8m2!3d10.5523504!4d76.1737548?authuser=0&hl=en&rclk=1,10.5523504,76.1737548,Kerala
International Fitness,Fitness center,"Panampilly Nagar Ave, Manorama Junction, KV Nagar, Panampilly Nagar, Kochi, Kerala 682036, India",https://www.google.co.kr/maps/place/International+Fitness/data=!4m5!3m4!1s0x3b0872c80b8152b9:0x6ff1a10bdfa00355!8m2!3d9.9632696!4d76.2954951?authuser=0&hl=en&rclk=1,9.9632696,76.2954951,Kerala
FITNESS FACTORY,Gym,"Q46F+3W8, Koottanad, Kerala 679533, India",https://www.google.co.kr/maps/place/FITNESS+FACTORY/data=!4m5!3m4!1s0x3ba7c7cd33dc547b:0x91aa3587aa0fdee8!8m2!3d10.7601597!4d76.1248178?authuser=0&hl=en&rclk=1,10.7601597,76.1248178,Kerala
TPR Fitness Academy,Gym,"Alapad, Kerala 680641, India",https://www.google.co.kr/maps/place/TPR+Fitness+Academy/data=!4m5!3m4!1s0x3ba7f3602ec004b3:0x7b16d06db9f86e80!8m2!3d10.4405876!4d76.1604866?authuser=0&hl=en&rclk=1,10.4405876,76.1604866,Kerala
Vibrent Gym,Gym,"Pattambi - Cherpulassery Rd, Vallapuzha, Kerala 679336, India",https://www.google.co.kr/maps/place/Vibrent+Gym/data=!4m5!3m4!1s0x3ba7c55ce4300b83:0x39dd3e49c6b0f02d!8m2!3d10.8402553!4d76.2512838?authuser=0&hl=en&rclk=1,10.8402553,76.2512838,Kerala
Mr.Kerala Gym,Gym,"574W+26Q, Kunnukara, Kerala 683578, India",https://www.google.co.kr/maps/place/Mr.Kerala+Gym/data=!4m5!3m4!1s0x3b0805674712f1bb:0x3b08216e4596daf6!8m2!3d10.155088!4d76.295599?authuser=0&hl=en&rclk=1,10.155088,76.295599,Kerala
Power Zone Fitness,Gym,"P3M2+8MX, Malappuram, Kerala 676505, India",https://www.google.co.kr/maps/place/Power+Zone+Fitness/data=!4m5!3m4!1s0x3ba7bf3cd8e2f127:0x1cdde31c7d2e8a11!8m2!3d10.7333598!4d76.0517348?authuser=0&hl=en&rclk=1,10.7333598,76.0517348,Kerala
Young Fitness,Gym,"Ramavarmapuram Rd, Near Vayanashala Stop, Viyyur, Pandikkavu, Cheroor, Thrissur, Kerala 680008, India",https://www.google.co.kr/maps/place/Young+Fitness/data=!4m5!3m4!1s0x3ba7ef01f2b5007b:0x8b149ec34e991e78!8m2!3d10.545245!4d76.226174?authuser=0&hl=en&rclk=1,10.545245,76.226174,Kerala
Kv Fitness Accademy,Gym,"Aravankara - Mini Ootty - Arimbramala Road, Kerala 673638, India",https://www.google.co.kr/maps/place/Kv+Fitness+Accademy/data=!4m5!3m4!1s0x3ba6491a0e869855:0xfa4edebe8e302821!8m2!3d11.1059811!4d76.0570212?authuser=0&hl=en&rclk=1,11.1059811,76.0570212,Kerala
FIT & FITNESS,Gym,"P7VF+JMQ, Cheruthuruthi, Kerala 679531, India",https://www.google.co.kr/maps/place/FIT+%26+FITNESS/data=!4m5!3m4!1s0x3ba7dd3cf909269d:0x392c86ec1e978d1f!8m2!3d10.7440841!4d76.2742369?authuser=0&hl=en&rclk=1,10.7440841,76.2742369,Kerala
Royal Fitness,Gym,"23RJ+JF8, Up Hill, Malappuram, Kerala 676505, India",https://www.google.co.kr/maps/place/Royal+Fitness/data=!4m5!3m4!1s0x3ba64a9f41dad377:0xfbeb62d12f511a4f!8m2!3d11.0415475!4d76.0812061?authuser=0&hl=en&rclk=1,11.0415475,76.0812061,Kerala
U-FIT Fitness Training Institute,Gym,"Moochithara Junction Bus Stop, Kadampazhipuram East, Kerala 678632, India",https://www.google.co.kr/maps/place/U-FIT+Fitness+Training+Institute/data=!4m5!3m4!1s0x3ba87978be0b10ad:0x9b23a27d1c55f5bc!8m2!3d10.8955421!4d76.4874924?authuser=0&hl=en&rclk=1,10.8955421,76.4874924,Kerala
City Fitness Centre,Gym,"Old MC Rd, Koothattukulam, Kerala 686662, India",https://www.google.co.kr/maps/place/City+Fitness+Centre/data=!4m5!3m4!1s0x3b07da553f7e0417:0x8b1c45c6c0850036!8m2!3d9.8539059!4d76.5936093?authuser=0&hl=en&rclk=1,9.8539059,76.5936093,Kerala
"Iron Life, Centre of Fitness",Gym,"Church Rd, Kuruppampady, Kerala 683545, India","https://www.google.co.kr/maps/place/Iron+Life,+Centre+of+Fitness/data=!4m5!3m4!1s0x3b07e3e6e219a1cf:0xf2e83a140d5c58b6!8m2!3d10.1108922!4d76.5196339?authuser=0&hl=en&rclk=1",10.1108922,76.5196339,Kerala
Malappuram Open Gym,Gym,"23QG+HVQ, Up Hill, Malappuram, Kerala 676505, India",https://www.google.co.kr/maps/place/Malappuram+Open+Gym/data=!4m5!3m4!1s0x3ba64bd660c7cfd7:0x636b3ead1a0ed575!8m2!3d11.0389564!4d76.077221?authuser=0&hl=en&rclk=1,11.0389564,76.077221,Kerala
"G FIT Health And Fitness Hub - Gym in Edappally, Fitness Centre in Kochi, Weight Loss Centre in Kochi",Fitness center,"Crescent Building, 2nd Floor, Edappally - Pukkattupady Rd, Edappally Toll, Edappally, Kochi, Kerala 682024, India","https://www.google.co.kr/maps/place/G+FIT+Health+And+Fitness+Hub+-+Gym+in+Edappally,+Fitness+Centre+in+Kochi,+Weight+Loss+Centre+in+Kochi/data=!4m5!3m4!1s0x3b080de633e93e5d:0x5073466f54769c26!8m2!3d10.0271765!4d76.3112428?authuser=0&hl=en&rclk=1",10.0271765,76.3112428,Kerala
World Gym,Fitness center,"Ottappalam Mannarkkad Rd, Ambalapara, Kerala 679512, India",https://www.google.co.kr/maps/place/World+Gym/data=!4m5!3m4!1s0x3ba7d84b6efcad49:0xb5978bf94da97f16!8m2!3d10.8345539!4d76.4107928?authuser=0&hl=en&rclk=1,10.8345539,76.4107928,Kerala
Future Health,Fitness center,"Press Club Rd, Marine Drive, Kochi, Kerala 682031, India",https://www.google.co.kr/maps/place/Future+Health/data=!4m5!3m4!1s0x3b080d53ba6825e5:0xd6ec0dddf516b3f6!8m2!3d9.9768074!4d76.2789586?authuser=0&hl=en&rclk=1,9.9768074,76.2789586,Kerala
Titan Fitness,Gym,"Valanjavattom post office, Thiruvalla, Kerala 689101, India",https://www.google.co.kr/maps/place/Titan+Fitness/data=!4m5!3m4!1s0x3b062145ef6c8af9:0x86dc2af8cea05d70!8m2!3d9.357868!4d76.541136?authuser=0&hl=en&rclk=1,9.357868,76.541136,Kerala
Extreme fitness,Gym,"Chettikulam, Gandi Nagar, Elathur, Kerala 673303, India",https://www.google.co.kr/maps/place/Extreme+fitness/data=!4m5!3m4!1s0x3ba65f5ab5f5e7c7:0x61028f709b67f989!8m2!3d11.3296991!4d75.7428549?authuser=0&hl=en&rclk=1,11.3296991,75.7428549,Kerala
GOOD LIFE FITNESS STUDIO,Gym,"Bus Stop, Pazhaya Block, Palakkad - Ponnani Rd, Edappal, Kerala 679576, India",https://www.google.co.kr/maps/place/GOOD+LIFE+FITNESS+STUDIO/data=!4m5!3m4!1s0x3ba7b9b0a069bad5:0xfd0c7789c36c77b2!8m2!3d10.7856876!4d75.9955363?authuser=0&hl=en&rclk=1,10.7856876,75.9955363,Kerala
FITNESS MATE,Gym,"Bridge Rd, Periyar Nagar, Aluva, Kerala 683101, India",https://www.google.co.kr/maps/place/FITNESS+MATE/data=!4m5!3m4!1s0x3b080fa04382ac23:0xa524186bde3ad82a!8m2!3d10.1125968!4d76.3535435?authuser=0&hl=en&rclk=1,10.1125968,76.3535435,Kerala
TIGER CAGE MMA,Fitness center,"TB Rd, Kokkala, Veliyannur, Thrissur, Kerala 680007, India",https://www.google.co.kr/maps/place/TIGER+CAGE+MMA/data=!4m5!3m4!1s0x3ba7ee390c1a9671:0xe42d1a67e7ea3d85!8m2!3d10.5141131!4d76.2133652?authuser=0&hl=en&rclk=1,10.5141131,76.2133652,Kerala
Malabar Fitness Centre,Gym,"VXPG+GJW, Vairankode, Kerala 676301, India",https://www.google.co.kr/maps/place/Malabar+Fitness+Centre/data=!4m5!3m4!1s0x3ba7b126a1730735:0x3130dc2829e1db75!8m2!3d10.8863721!4d75.9765888?authuser=0&hl=en&rclk=1,10.8863721,75.9765888,Kerala
Verdant Fitness Systems Private Limited,Gym,"Factory: Plot No. 43, Kinfra Industries Park, Koratty, Thrissur District., Ernakulam, Kerala 682024, India",https://www.google.co.kr/maps/place/Verdant+Fitness+Systems+Private+Limited/data=!4m5!3m4!1s0x3b0803d05f45e435:0x80f6bf92ab0c45d1!8m2!3d10.273328!4d76.35498?authuser=0&hl=en&rclk=1,10.273328,76.35498,Kerala
Life Style Gym & Fitness,Gym,"P7XF+WXR, Cheruthuruthi, Kerala 679531, India",https://www.google.co.kr/maps/place/Life+Style+Gym+%26+Fitness/data=!4m5!3m4!1s0x3ba7dcb2439c02b1:0xb9d30663fc48aff6!8m2!3d10.7498597!4d76.2749045?authuser=0&hl=en&rclk=1,10.7498597,76.2749045,Kerala
Global Fitness Centre,Gym,"Vkm Fort, near Premier Laboratory, Edappal, Kerala 679576, India",https://www.google.co.kr/maps/place/Global+Fitness+Centre/data=!4m5!3m4!1s0x3ba7b9d42f840745:0x656eab0e64c707d2!8m2!3d10.7776849!4d76.010266?authuser=0&hl=en&rclk=1,10.7776849,76.010266,Kerala
UNIVERSAL MULTIGYM CHERPULASSERY,Gym,"Market Rd, Cherpulassery, Kerala 679503, India",https://www.google.co.kr/maps/place/UNIVERSAL+MULTIGYM+CHERPULASSERY/data=!4m5!3m4!1s0x3ba7d05e7b7f42ef:0x367a1bc31712e6ec!8m2!3d10.8768214!4d76.3121635?authuser=0&hl=en&rclk=1,10.8768214,76.3121635,Kerala
Gym Centre,Gym,"Palakkad - Ponnani Rd, Palappuram, Kerala 679301, India",https://www.google.co.kr/maps/place/Gym+Centre/data=!4m5!3m4!1s0x3ba7df2ac7a5a381:0xccf39d6c712995e1!8m2!3d10.7677943!4d76.4116019?authuser=0&hl=en&rclk=1,10.7677943,76.4116019,Kerala
LIFESTYLE GYM,Gym,"Kodungallur - Shornur Rd, Wadakkanchery, Kerala 680582, India",https://www.google.co.kr/maps/place/LIFESTYLE+GYM/data=!4m5!3m4!1s0x3ba7e918a7fbd083:0x934ef3591d947812!8m2!3d10.6631453!4d76.2474777?authuser=0&hl=en&rclk=1,10.6631453,76.2474777,Kerala
Fitness Point,Gym,"R642+MXP, Pattambi, Kerala 679303, India",https://www.google.co.kr/maps/place/Fitness+Point/data=!4m5!3m4!1s0x3ba7c5b5993b14d1:0xa9a1fbcc2d1e1952!8m2!3d10.8067246!4d76.2024513?authuser=0&hl=en&rclk=1,10.8067246,76.2024513,Kerala
Lifestyle gym poomala,Gym,"Keltron Poomala Link Rd, Poomala, Athani, Thekkumkara, Kerala 680581, India",https://www.google.co.kr/maps/place/Lifestyle+gym+poomala/data=!4m5!3m4!1s0x3ba7e9419296b475:0x49d69e5512f015e7!8m2!3d10.6074827!4d76.2317165?authuser=0&hl=en&rclk=1,10.6074827,76.2317165,Kerala
Fitness World Multi Gym,Gym,"Pattimattom, Kerala 683562, India",https://www.google.co.kr/maps/place/Fitness+World+Multi+Gym/data=!4m5!3m4!1s0x3b080a875bcaac1b:0x85d00f2d3e0673d4!8m2!3d10.0235182!4d76.4496192?authuser=0&hl=en&rclk=1,10.0235182,76.4496192,Kerala
Ultimate Fitness Gym,Gym,"X925+V8F, Karingachira, Thrippunithura, Ernakulam, Kerala 682301, India",https://www.google.co.kr/maps/place/Ultimate+Fitness+Gym/data=!4m5!3m4!1s0x3b087360d6bb9af1:0xdc487b9e7b1e352f!8m2!3d9.9521858!4d76.3583071?authuser=0&hl=en&rclk=1,9.9521858,76.3583071,Kerala
GAINETHICS FITNESS CENTRE,Gym,"SH51, Kottapuram, Kodungallur, Kerala 680669, India",https://www.google.co.kr/maps/place/GAINETHICS+FITNESS+CENTRE/data=!4m5!3m4!1s0x3b081bd098ec3767:0xd78736fb608c5a8a!8m2!3d10.2021585!4d76.2005925?authuser=0&hl=en&rclk=1,10.2021585,76.2005925,Kerala
Fitness World Manjeri,Gym,"Melakkam, Manjeri, Kerala 676121, India",https://www.google.co.kr/maps/place/Fitness+World+Manjeri/data=!4m5!3m4!1s0x3ba6366edfd693fd:0xea78883d7a86bdc2!8m2!3d11.1235563!4d76.1173445?authuser=0&hl=en&rclk=1,11.1235563,76.1173445,Kerala
Power fit gym,Gym,"Pt Jacob Rd LRAB, 170, P T Jacob Rd, Moolamkuzhi, Mundamveli, Kochi, Kerala 682507, India",https://www.google.co.kr/maps/place/Power+fit+gym/data=!4m5!3m4!1s0x3b086d730de1e5cd:0xb46861d7e51b97f9!8m2!3d9.9354844!4d76.2501564?authuser=0&hl=en&rclk=1,9.9354844,76.2501564,Kerala
Gurukulam Gym,Gym,"opposite mes higher secondary school, Mannarkkad, Kerala 678583, India",https://www.google.co.kr/maps/place/Gurukulam+Gym/data=!4m5!3m4!1s0x3ba7d508a59a46d9:0xf8b14205503c4601!8m2!3d10.989144!4d76.4403142?authuser=0&hl=en&rclk=1,10.989144,76.4403142,Kerala
Unifit Gym,Gym,"Veliancode Town, Veliancode, Kerala 679579, India",https://www.google.co.kr/maps/place/Unifit+Gym/data=!4m5!3m4!1s0x3ba7bc61c1392cd3:0x557aa057cc27e8c0!8m2!3d10.7289756!4d75.9467647?authuser=0&hl=en&rclk=1,10.7289756,75.9467647,Kerala
Fitness class,Fitness center,"Preethi paying guest c/o jessy paulose, Punkunnam, Kerala 680022, India",https://www.google.co.kr/maps/place/Fitness+class/data=!4m5!3m4!1s0x3ba7efb23c4be3bd:0xbf8ad491ece5efa7!8m2!3d10.5335471!4d76.2106428?authuser=0&hl=en&rclk=1,10.5335471,76.2106428,Kerala
Max fit Fitness Centre by FiT,Gym,"Panangad Road, Panangad, Ernakulam, Kerala 682506, India",https://www.google.co.kr/maps/place/Max+fit+Fitness+Centre+by+FiT/data=!4m5!3m4!1s0x3b0873cc49ec1cad:0xd613e62013306a70!8m2!3d9.9016939!4d76.3216677?authuser=0&hl=en&rclk=1,9.9016939,76.3216677,Kerala
New Fitness First Multi Gym,Gym,"RF2Q+4P3, Pinarayi, Kerala 670104, India",https://www.google.co.kr/maps/place/New+Fitness+First+Multi+Gym/data=!4m5!3m4!1s0x3ba425cef88d46fb:0xf4d4c1899585f2f2!8m2!3d11.8002596!4d75.4893102?authuser=0&hl=en&rclk=1,11.8002596,75.4893102,Kerala
Z Fitness Studio Pala for Zumba Fitness,Gym,"Vaikom Road, [no name], Vellappadu, Pala, Kerala 686575, India",https://www.google.co.kr/maps/place/Z+Fitness+Studio+Pala+for+Zumba+Fitness/data=!4m5!3m4!1s0x3b07cdc8b751d143:0x5804e79dd8ee6a59!8m2!3d9.7093682!4d76.6732222?authuser=0&hl=en&rclk=1,9.7093682,76.6732222,Kerala
Pink Fitness Ladies Gym Tripunithura,Fitness center,"Near, 496B, 1st Floor, KJP Tower, Junction, Vaikom Road, Kannankulangara, Thrippunithura, Ernakulam, Kerala 682301, India",https://www.google.co.kr/maps/place/Pink+Fitness+Ladies+Gym+Tripunithura/data=!4m5!3m4!1s0x3b0873480ca76e79:0x50f528f7aa95f87c!8m2!3d9.9395169!4d76.3510154?authuser=0&hl=en&rclk=1,9.9395169,76.3510154,Kerala
FITMAN'S GYM,Fitness center,"Palakkad - Cherpulassery Rd, Mangode, Kerala 679503, India",https://www.google.co.kr/maps/place/FITMAN'S+GYM/data=!4m5!3m4!1s0x3ba7d1e54a748eab:0xe70e08a662d17912!8m2!3d10.88741!4d76.350407?authuser=0&hl=en&rclk=1,10.88741,76.350407,Kerala
GYM,Gym,"Perumpilavu, Kerala 680519, India",https://www.google.co.kr/maps/place/GYM/data=!4m5!3m4!1s0x3ba7c070ad8975df:0x7f05c8a64e339674!8m2!3d10.698914!4d76.091504?authuser=0&hl=en&rclk=1,10.698914,76.091504,Kerala
Acme Fitness,Gym,"11, Mahatma Gandhi Rd, Atlantis, Ravipuram, Perumanoor, Kochi, Kerala 682015, India",https://www.google.co.kr/maps/place/Acme+Fitness/data=!4m5!3m4!1s0x3b0872bf26c24987:0xf50b3e0f8877bc30!8m2!3d9.9563818!4d76.2915984?authuser=0&hl=en&rclk=1,9.9563818,76.2915984,Kerala
Life Line Fitness Edappal,Gym,"Q2M5+J62, Edappal, Kerala 679576, India",https://www.google.co.kr/maps/place/Life+Line+Fitness+Edappal/data=!4m5!3m4!1s0x3ba7b971da84f169:0xd193b173d8641742!8m2!3d10.7840221!4d76.0080304?authuser=0&hl=en&rclk=1,10.7840221,76.0080304,Kerala
Gym,Gym,"Kumaramputhur Olipuzha Rd, Alanallur, Kerala 678601, India",https://www.google.co.kr/maps/place/Gym/data=!4m5!3m4!1s0x3ba7d34126987675:0x39633bae7a33a331!8m2!3d11.0128881!4d76.3437916?authuser=0&hl=en&rclk=1,11.0128881,76.3437916,Kerala
Royal Fitness Centre,Gym,"NH47, Pattikkad, Kerala 680652, India",https://www.google.co.kr/maps/place/Royal+Fitness+Centre/data=!4m5!3m4!1s0x3ba7e44ff10fd951:0xb8f95fc0a2ce5181!8m2!3d10.5567564!4d76.3284902?authuser=0&hl=en&rclk=1,10.5567564,76.3284902,Kerala
Amar Abbas Thankayathil,Gym,"W6JG+P5X, Cherukara, Kerala 679340, India",https://www.google.co.kr/maps/place/Amar+Abbas+Thankayathil/data=!4m5!3m4!1s0x3ba7cf1ae7a15e67:0x9b60a8df2f9ad95c!8m2!3d10.9318649!4d76.2254895?authuser=0&hl=en&rclk=1,10.9318649,76.2254895,Kerala
Fitness World Multi Gym,Gym,"Thodupuzha - Puliyanmala Rd, Kattappana, Kerala 685508, India",https://www.google.co.kr/maps/place/Fitness+World+Multi+Gym/data=!4m5!3m4!1s0x3b07a95aacaee2b5:0x214bb7f12ef491f6!8m2!3d9.7553889!4d77.1143889?authuser=0&hl=en&rclk=1,9.7553889,77.1143889,Kerala
LIFE LINE FITNESS CENTRE,Gym,"mala road, Thuvappara, Kadampuzha, Kerala 676553, India",https://www.google.co.kr/maps/place/LIFE+LINE+FITNESS+CENTRE/data=!4m5!3m4!1s0x3ba7b5c77001bb73:0x91f5eaef0067e913!8m2!3d10.9373885!4d76.0449854?authuser=0&hl=en&rclk=1,10.9373885,76.0449854,Kerala
POWER HOUSE GYM POOKKATTIRI,Gym,"W33W+FMM, Pookkattiri, Kerala 676552, India",https://www.google.co.kr/maps/place/POWER+HOUSE+GYM+POOKKATTIRI/data=!4m5!3m4!1s0x3ba7c92efd907085:0xa05d04a410b8040b!8m2!3d10.9037115!4d76.0966653?authuser=0&hl=en&rclk=1,10.9037115,76.0966653,Kerala
Aarem Sky Sports & Fitness,Fitness center,"College, 41/3969. I.S. Press Building, Banergi Road, Near ST. alberts, Kochi, Kerala 682018, India",https://www.google.co.kr/maps/place/Aarem+Sky+Sports+%26+Fitness/data=!4m5!3m4!1s0x3b080c376aaaaaa3:0x30ccf7b438bfc471!8m2!3d10.0447853!4d76.3275919?authuser=0&hl=en&rclk=1,10.0447853,76.3275919,Kerala
A Fitness Mantra,Gym,"1st Floor, No. 67/9091-C, Panickassery Building, Convent Rd, Kochi, Kerala 682035, India",https://www.google.co.kr/maps/place/A+Fitness+Mantra/data=!4m5!3m4!1s0x3b080d454f792dd7:0x1ce02d46b76ba25b!8m2!3d9.976471!4d76.281051?authuser=0&hl=en&rclk=1,9.976471,76.281051,Kerala
B-Fit Fitness Centre,Gym,"Pandit Karuppan Rd, Thevara, Ernakulam, Kerala 682013, India",https://www.google.co.kr/maps/place/B-Fit+Fitness+Centre/data=!4m5!3m4!1s0x3b0873059eda8af3:0x29d1dc1555ed3040!8m2!3d9.9381254!4d76.2956406?authuser=0&hl=en&rclk=1,9.9381254,76.2956406,Kerala
Vc Fitness & Gym,Gym,"2nd Floor, Marian Enclave, Mahakavi Vailoppilli Rd, above KLM - Axiva, Thammanam, Ernakulam, Kerala 682025, India",https://www.google.co.kr/maps/place/Vc+Fitness+%26+Gym/data=!4m5!3m4!1s0x3b080d0f22b0b831:0xba592b6c75974622!8m2!3d9.9890575!4d76.3099601?authuser=0&hl=en&rclk=1,9.9890575,76.3099601,Kerala
OXY GYM,Gym,"V3PF+R7X, Valanchery, Kerala 676552, India",https://www.google.co.kr/maps/place/OXY+GYM/data=!4m5!3m4!1s0x3ba7b63297009861:0x949548b09a79e245!8m2!3d10.887121!4d76.073234?authuser=0&hl=en&rclk=1,10.887121,76.073234,Kerala
HiStyle Fitness Centre and Gym,Fitness center,"Malootty building shoranur, Shoranur, Kerala 679121, India",https://www.google.co.kr/maps/place/HiStyle+Fitness+Centre+and+Gym/data=!4m5!3m4!1s0x3ba7c519002bfd69:0x245e25ff84f5ef5!8m2!3d10.7643659!4d76.2629413?authuser=0&hl=en&rclk=1,10.7643659,76.2629413,Kerala
JJ's Fitness Studio,Fitness center,"MES Engineering College, Kavumopuram, Kuttippuram, Kerala 679571, India",https://www.google.co.kr/maps/place/JJ's+Fitness+Studio/data=!4m5!3m4!1s0x3ba7b77cfd6c1845:0xb6a68b3a3a8751c2!8m2!3d10.8423474!4d76.0298804?authuser=0&hl=en&rclk=1,10.8423474,76.0298804,Kerala
MASS FITNESS STUDIO,Gym,"1st floor, Buston Plaza, Parakkulam Road, Padinjarangadi, Kerala 679552, India",https://www.google.co.kr/maps/place/MASS+FITNESS+STUDIO/data=!4m5!3m4!1s0x3ba7b9416dcf2729:0x6999788e9c2e6dbe!8m2!3d10.786951!4d76.0673726?authuser=0&hl=en&rclk=1,10.786951,76.0673726,Kerala
SS Gym,Gym,"H663+X4M, Kuttoor, Thrissur, Kerala 680013, India",https://www.google.co.kr/maps/place/SS+Gym/data=!4m5!3m4!1s0x3ba7eff2edb0e413:0xcc79e15cd1c8020a!8m2!3d10.5624554!4d76.2027966?authuser=0&hl=en&rclk=1,10.5624554,76.2027966,Kerala
OXYGEN FITNESS,Gym,"Thootha Bus Stop, Palakkad - Cherpulassery - Perinthalmanna Rd, Kerala 679357, India",https://www.google.co.kr/maps/place/OXYGEN+FITNESS/data=!4m5!3m4!1s0x3ba7d103fb6fa40d:0x9889b5cf5d6b4623!8m2!3d10.9149876!4d76.2910233?authuser=0&hl=en&rclk=1,10.9149876,76.2910233,Kerala
Fitman Multi Gymnasium,Gym,"NH 213, Hospital Junction, Mannarkkad, Kerala 678582, India",https://www.google.co.kr/maps/place/Fitman+Multi+Gymnasium/data=!4m5!3m4!1s0x3ba87f36543416cd:0xbfa6ee7bfa7ace7a!8m2!3d10.9944815!4d76.4647334?authuser=0&hl=en&rclk=1,10.9944815,76.4647334,Kerala
Rebornfitness.Studio,Fitness center,"Chakkapan Tower Toll Gate, Pukattupady, Road, Edappally, Kerala 682024, India",https://www.google.co.kr/maps/place/Rebornfitness.Studio/data=!4m5!3m4!1s0x3b080d0a575e28eb:0x32c004d7e8f74eb5!8m2!3d10.0275686!4d76.3112991?authuser=0&hl=en&rclk=1,10.0275686,76.3112991,Kerala
Evolv Fitness Center,Fitness center,"CCNB Rd, Chungam, Alappuzha, Kerala 688011, India",https://www.google.co.kr/maps/place/Evolv+Fitness+Center/data=!4m5!3m4!1s0x3b08848981aa571f:0x180ec86c8a127b47!8m2!3d9.4944596!4d76.346566?authuser=0&hl=en&rclk=1,9.4944596,76.346566,Kerala
Passion - the fitness studio,Fitness center,"Near, 4th Floor, Ashna Arcade, Kuthapady Temple Rd, Ernakulam, Kerala 682032, India",https://www.google.co.kr/maps/place/Passion+-+the+fitness+studio/data=!4m5!3m4!1s0x3b080d4ee75385cf:0xc9927c4b649b1349!8m2!3d9.9841207!4d76.3121063?authuser=0&hl=en&rclk=1,9.9841207,76.3121063,Kerala
FITNESS ACADEMY Fitness Center Ladies & Gents,Fitness center,"Pallipuram - Pattambi Rd, Kodikunnu, Kodikkunnu, Parudur, Kerala 679305, India",https://www.google.co.kr/maps/place/FITNESS+ACADEMY+Fitness+Center+Ladies+%26+Gents/data=!4m5!3m4!1s0x3ba7c7c51cff2423:0x39db18ed6b47eb79!8m2!3d10.8310114!4d76.1182819?authuser=0&hl=en&rclk=1,10.8310114,76.1182819,Kerala
FITNESS PASSION,Gym,"FITNESS PASSION , NETTA , NEDUMANGAD P O, Kerala 695541, India",https://www.google.co.kr/maps/place/FITNESS+PASSION/data=!4m5!3m4!1s0x3ba7c518c791b895:0xd548e5d8e4d43c22!8m2!3d10.8505159!4d76.2710833?authuser=0&hl=en&rclk=1,10.8505159,76.2710833,Kerala
X Fitness,Fitness center,"Thankayathil House, Perintalmanna, Kerala 679322, India",https://www.google.co.kr/maps/place/X+Fitness/data=!4m5!3m4!1s0x3ba7cdb695dd5103:0xd9bb98135909887b!8m2!3d10.9564866!4d76.2278034?authuser=0&hl=en&rclk=1,10.9564866,76.2278034,Kerala
Fit N Fine,Fitness center,"Edappally Raghavan Pillai Rd, Punnackal, Elamakkara, Kochi, Kerala 682026, India",https://www.google.co.kr/maps/place/Fit+N+Fine/data=!4m5!3m4!1s0x3b080d9e46874f79:0x2f0f4ddd1ad60e1c!8m2!3d10.018956!4d76.2904545?authuser=0&hl=en&rclk=1,10.018956,76.2904545,Kerala
ARNOLD GYM,Gym,"M32C+X3G, Kunnamkulam, Kerala 680503, India",https://www.google.co.kr/maps/place/ARNOLD+GYM/data=!4m5!3m4!1s0x3ba79544f1e78261:0xa50b53ec96f89c4e!8m2!3d10.6524388!4d76.0701932?authuser=0&hl=en&rclk=1,10.6524388,76.0701932,Kerala
Fit4 Gym,Gym,"Kuttippuram Malloorkadavu Rd, Mallur Kadavu, Kavumopuram, Kuttippuram, Kerala 679571, India",https://www.google.co.kr/maps/place/Fit4+Gym/data=!4m5!3m4!1s0x3ba7b7bc1ef2f821:0xa9c5412ce3ee9558!8m2!3d10.8429629!4d76.0320901?authuser=0&hl=en&rclk=1,10.8429629,76.0320901,Kerala
Power World Gymnasium,Gym,"X6G2+PH2, Kayal Padam, Angadipuram, Kerala 679321, India",https://www.google.co.kr/maps/place/Power+World+Gymnasium/data=!4m5!3m4!1s0x3ba7cc6081aa1301:0xd18a0d739edd4a42!8m2!3d10.9767682!4d76.2013785?authuser=0&hl=en&rclk=1,10.9767682,76.2013785,Kerala
New Life Multi Gym And Fitness Centre,Gym,"J9V9+477, Puthanagadi, Kerala 688527, India",https://www.google.co.kr/maps/place/New+Life+Multi+Gym+And+Fitness+Centre/data=!4m5!3m4!1s0x3b087e093e757115:0x3b83ccc6461d567e!8m2!3d9.6427928!4d76.3681696?authuser=0&hl=en&rclk=1,9.6427928,76.3681696,Kerala
Jo's zumba fitness,Gym,"Palace Rd, Chembukkav, Thrissur, Kerala 680001, India",https://www.google.co.kr/maps/place/Jo's+zumba+fitness/data=!4m5!3m4!1s0x3ba7ef859b20bfe7:0x1e888bc4d481cdb0!8m2!3d10.5277132!4d76.2181249?authuser=0&hl=en&rclk=1,10.5277132,76.2181249,Kerala
yoga & fitness training,Fitness center,"near highschool, alanalllur, Kerala 678601, India",https://www.google.co.kr/maps/place/yoga+%26+fitness+training/data=!4m5!3m4!1s0x3ba7d3bc222cdeab:0x9ffc66a3f81e67da!8m2!3d11.0112294!4d76.3550022?authuser=0&hl=en&rclk=1,11.0112294,76.3550022,Kerala
Parakkadavu Center,Gym,"Unnamed Road, Chemmalasseri, Valapuram, Kerala 679323, India",https://www.google.co.kr/maps/place/Parakkadavu+Center/data=!4m5!3m4!1s0x3ba7ceb2d7894cf7:0xb4da39949272cd09!8m2!3d10.9208788!4d76.1790765?authuser=0&hl=en&rclk=1,10.9208788,76.1790765,Kerala
Pink Fitness,Gym,"Salim Rajan Rd, above Bank of Baroda, Gandhi Nagar, Elamkulam, Ernakulam, Kerala 682020, India",https://www.google.co.kr/maps/place/Pink+Fitness/data=!4m5!3m4!1s0x3b080dda9a586615:0xa2d5d6d606013a5e!8m2!3d9.9779078!4d76.2965975?authuser=0&hl=en&rclk=1,9.9779078,76.2965975,Kerala
PUMPING IRON health&fitness multi gym,Gym,"Palakkad - Ponnani Rd, Vaniamkulam, Kerala 679522, India",https://www.google.co.kr/maps/place/PUMPING+IRON+health%26fitness+multi+gym/data=!4m5!3m4!1s0x3ba7db99fa8e1b53:0xb7d22149a5cca0b2!8m2!3d10.7818806!4d76.3281839?authuser=0&hl=en&rclk=1,10.7818806,76.3281839,Kerala
G.A Gym & Fitness Centre,Gym,"Desabhimani Rd, Vayanashalla, Keerthi Nagar, Mamangalam, Palarivattom, Ernakulam, Kerala 682027, India",https://www.google.co.kr/maps/place/G.A+Gym+%26+Fitness+Centre/data=!4m5!3m4!1s0x3b080d74bc847aa9:0x7cf40cb6f47274d5!8m2!3d10.0128176!4d76.2931106?authuser=0&hl=en&rclk=1,10.0128176,76.2931106,Kerala
Majestic Multi Gym,Gym,"2nd floor, Pink building, Malappuram - Manjeri Rd, Padinhattummuri, Kerala 676506, India",https://www.google.co.kr/maps/place/Majestic+Multi+Gym/data=!4m5!3m4!1s0x3ba635cb86a4d1d3:0x15fd27b9ddd8386a!8m2!3d11.0578958!4d76.1103138?authuser=0&hl=en&rclk=1,11.0578958,76.1103138,Kerala
True Fitness and Sports,Fitness center,"No C-13, Ground Floor, Frends Mall Shopping Arcade, Near Thiruvambadi Temple,Shornur Road, Thrissur, Kerala 680020, India",https://www.google.co.kr/maps/place/True+Fitness+and+Sports/data=!4m5!3m4!1s0x3ba7ee4cbcfea3d9:0xe0057b4c4b7d470d!8m2!3d10.524606!4d76.223487?authuser=0&hl=en&rclk=1,10.524606,76.223487,Kerala
Olympic Fitness Gym,Gym,"Hiba Complex, Road, near Gama power control, Mulayankavu, Koppam, Kerala 679307, India",https://www.google.co.kr/maps/place/Olympic+Fitness+Gym/data=!4m5!3m4!1s0x3ba7cf489ef5f55f:0x54aa2001110097bf!8m2!3d10.8647014!4d76.1897984?authuser=0&hl=en&rclk=1,10.8647014,76.1897984,Kerala
Global Fitness Centre,Fitness center,"Vkm Fort, Thrissur - Kunnamkulam Rd, near Premier Laboratory, Edappal, Kerala 679576, India",https://www.google.co.kr/maps/place/Global+Fitness+Centre/data=!4m5!3m4!1s0x3ba7c10300758233:0xe53cc7b9a785a510!8m2!3d10.6929559!4d76.0914734?authuser=0&hl=en&rclk=1,10.6929559,76.0914734,Kerala
Power World Fitness Center,Gymnastics center,"CMPX+74V, Koyilandy, Kerala 673305, India",https://www.google.co.kr/maps/place/Power+World+Fitness+Center/data=!4m5!3m4!1s0x3ba68a1bf3346e65:0x61d2b7392255b86!8m2!3d11.4357479!4d75.6977866?authuser=0&hl=en&rclk=1,11.4357479,75.6977866,Kerala
Gym World,Gym,"Athani - Paravoor Rd, Vedimara, Mannam, Kerala 683520, India",https://www.google.co.kr/maps/place/Gym+World/data=!4m5!3m4!1s0x3b081b59d8f49153:0x6e569883d5a00967!8m2!3d10.1488918!4d76.2488137?authuser=0&hl=en&rclk=1,10.1488918,76.2488137,Kerala
Fitness land,Gym,"Vallapuzha, Kerala 679336, India",https://www.google.co.kr/maps/place/Fitness+land/data=!4m5!3m4!1s0x3ba7c5a670c9e6c9:0x7a6eee18f68684a3!8m2!3d10.8374525!4d76.2479962?authuser=0&hl=en&rclk=1,10.8374525,76.2479962,Kerala
Truefit Gym,Gym,"V997+RX6, Kannur, Kerala 670003, India",https://www.google.co.kr/maps/place/Truefit+Gym/data=!4m5!3m4!1s0x3ba43d7eb849fa1d:0xbea72aef2829a99d!8m2!3d11.869542!4d75.3649047?authuser=0&hl=en&rclk=1,11.869542,75.3649047,Kerala
focus,Gym,"Mala, Kerala 680732, India",https://www.google.co.kr/maps/place/focus/data=!4m5!3m4!1s0x3b0803549e27297d:0x1c87a7dc11a5229a!8m2!3d10.2407619!4d76.2727788?authuser=0&hl=en&rclk=1,10.2407619,76.2727788,Kerala
Fitness Centre,Gym,"Kannambra - Puthukkod Rd., Puthucode, Kerala 678687, India",https://www.google.co.kr/maps/place/Fitness+Centre/data=!4m5!3m4!1s0x3ba7e159542089b9:0x3f9bc04681e12e58!8m2!3d10.6316507!4d76.4494073?authuser=0&hl=en&rclk=1,10.6316507,76.4494073,Kerala
Fitness World (the ultimate multi gymnasium),Gym,"Housing Colony Rd, KSHB Colony, Perintalmanna, Kerala 679322, India",https://www.google.co.kr/maps/place/Fitness+World+(the+ultimate+multi+gymnasium)/data=!4m5!3m4!1s0x3ba7cd31abc18537:0xe4ec057ea97d9d69!8m2!3d10.9785035!4d76.2268607?authuser=0&hl=en&rclk=1,10.9785035,76.2268607,Kerala
Powerhouse Fitness,Gym,"Market junction, Chandamukku, Kottarakkara, Kerala 691531, India",https://www.google.co.kr/maps/place/Powerhouse+Fitness/data=!4m5!3m4!1s0x3b060bbe7188a5f7:0xff8545dbc622e3c5!8m2!3d9.0032862!4d76.7731877?authuser=0&hl=en&rclk=1,9.0032862,76.7731877,Kerala
JJ's Fitness Studio,Fitness center,"Vettichira, Punnathala Rd, Valanchery, Kerala 676552, India",https://www.google.co.kr/maps/place/JJ's+Fitness+Studio/data=!4m5!3m4!1s0x3ba7b43d4c5b0e55:0x8f181cf76ae070e2!8m2!3d10.938316!4d76.016947?authuser=0&hl=en&rclk=1,10.938316,76.016947,Kerala
Marshal Gym & Fitness Centre,Gym,"Guruvayur, Kottapadi, Kerala 680505, India",https://www.google.co.kr/maps/place/Marshal+Gym+%26+Fitness+Centre/data=!4m5!3m4!1s0x3ba795d44ef54851:0x7a5d4c6408ad82e!8m2!3d10.6192382!4d76.046062?authuser=0&hl=en&rclk=1,10.6192382,76.046062,Kerala
Remington Fitness,Gym,"NH185, Kattappana, Kerala 685508, India",https://www.google.co.kr/maps/place/Remington+Fitness/data=!4m5!3m4!1s0x3b07a949bd5b7a2f:0x1a93b91f9cb952d7!8m2!3d9.7642423!4d77.1100136?authuser=0&hl=en&rclk=1,9.7642423,77.1100136,Kerala
STEP & STEP FITNESS,Fitness center,"Q72G+629, Kandassankadavu, Kerala 680613, India",https://www.google.co.kr/maps/place/STEP+%26+STEP+FITNESS/data=!4m5!3m4!1s0x3ba7dd657693a6e9:0x6a5c20f722d0e0fe!8m2!3d10.7505272!4d76.275097?authuser=0&hl=en&rclk=1,10.7505272,76.275097,Kerala
Phoenix Zumba Fitness studio,Fitness center,"Gopika, New Agraharam Ln, behind Punjab Nationalbank)l, Punkunnam, Thrissur, Kerala 680002, India",https://www.google.co.kr/maps/place/Phoenix+Zumba+Fitness+studio/data=!4m5!3m4!1s0x3ba7efc79070ff33:0xfd5df9503461af88!8m2!3d10.5326853!4d76.2069349?authuser=0&hl=en&rclk=1,10.5326853,76.2069349,Kerala
RS Gym And Fitness Centre,Gym,"C362+W87, Kottukal, Kerala 695501, India",https://www.google.co.kr/maps/place/RS+Gym+And+Fitness+Centre/data=!4m5!3m4!1s0x3b05afb2bd5cc7e7:0x486aee8006b7849d!8m2!3d8.4122779!4d77.0507944?authuser=0&hl=en&rclk=1,8.4122779,77.0507944,Kerala
Power House Fitness,Gym,"Vazhacode Junction, Pazhayannur Rd, Mullurkara, Kerala 680583, India",https://www.google.co.kr/maps/place/Power+House+Fitness/data=!4m5!3m4!1s0x3ba7c3fa9abf4769:0xacde5732c7c81090!8m2!3d10.6969649!4d76.270573?authuser=0&hl=en&rclk=1,10.6969649,76.270573,Kerala
Golden gym,Gymnastics center,"X6GF+QVW, Perintalmanna, Kerala 679322, India",https://www.google.co.kr/maps/place/Golden+gym/data=!4m5!3m4!1s0x3ba7cc54cb543427:0xde9ca7548a5429ec!8m2!3d10.9769812!4d76.2247187?authuser=0&hl=en&rclk=1,10.9769812,76.2247187,Kerala
DFIT,Gym,"V8G2+55Q, Cherpulassery, Kerala 679503, India",https://www.google.co.kr/maps/place/DFIT/data=!4m5!3m4!1s0x3ba7d1f6fe5b24ab:0x1f5422228cfc625f!8m2!3d10.8754634!4d76.3004783?authuser=0&hl=en&rclk=1,10.8754634,76.3004783,Kerala
Power House Fitness Center,Fitness center,"JG8M+43X, Kumaranalloor, Kottayam, Kerala 686016, India",https://www.google.co.kr/maps/place/Power+House+Fitness+Center/data=!4m5!3m4!1s0x3b062b5d61e8455b:0x391ed79e116e6754!8m2!3d9.61535!4d76.5327214?authuser=0&hl=en&rclk=1,9.61535,76.5327214,Kerala
Multi Gym,Gym,"Pazhayannur, Pangarappilli, Chelakkara, Kerala 680586, India",https://www.google.co.kr/maps/place/Multi+Gym/data=!4m5!3m4!1s0x3ba7dd94adcfd6c3:0xcf78e5ab4e46294d!8m2!3d10.694522!4d76.3403034?authuser=0&hl=en&rclk=1,10.694522,76.3403034,Kerala
mani gym,Gym,"Pattambi - Cherpulassery Rd, Vallapuzha, Kerala 679336, India",https://www.google.co.kr/maps/place/mani+gym/data=!4m5!3m4!1s0x3ba7c55cda91fbbb:0xf7f547db9f95256a!8m2!3d10.8393515!4d76.251387?authuser=0&hl=en&rclk=1,10.8393515,76.251387,Kerala
Mass xtreme fitness centre,Gym,"SH74, Chelakkara, Kerala 680586, India",https://www.google.co.kr/maps/place/Mass+xtreme+fitness+centre/data=!4m5!3m4!1s0x3ba7ddca626a69a9:0x50ff216038e2de8a!8m2!3d10.6932373!4d76.343303?authuser=0&hl=en&rclk=1,10.6932373,76.343303,Kerala
Body & Mind Fitness World,Physical fitness program,"Opp. Town Hall, Post Office Building, Tirur, Kerala 676101, India",https://www.google.co.kr/maps/place/Body+%26+Mind+Fitness+World/data=!4m5!3m4!1s0x3ba7b1f1f44553cf:0xe0762884e436b146!8m2!3d10.9136643!4d75.921443?authuser=0&hl=en&rclk=1,10.9136643,75.921443,Kerala
Ever Fit International,Gym,"2nd Floor, Puzhakkaredath Building Near Govt Press, Pattupurakkal Road, Kakkanad, Kochi, Kerala 682037, India",https://www.google.co.kr/maps/place/Ever+Fit+International/data=!4m5!3m4!1s0x3b080d1c4a3dee25:0x56a5dbb697a6c741!8m2!3d10.0186021!4d76.3485786?authuser=0&hl=en&rclk=1,10.0186021,76.3485786,Kerala
Gym Centre,Gym,"268H+97C, Pallikuth, Pattikkad, Kerala 679325, India",https://www.google.co.kr/maps/place/Gym+Centre/data=!4m5!3m4!1s0x3ba7cd28f103dd67:0x5546b12fabc18861!8m2!3d11.0159358!4d76.2281472?authuser=0&hl=en&rclk=1,11.0159358,76.2281472,Kerala
Viva fitness,Gym,"G694+7J2, Poothole, Thrissur, Kerala 680004, India",https://www.google.co.kr/maps/place/Viva+fitness/data=!4m5!3m4!1s0x3ba7eff0fb357ff9:0x2b05124d111241cb!8m2!3d10.5181474!4d76.2065296?authuser=0&hl=en&rclk=1,10.5181474,76.2065296,Kerala
Open Gym,Gym,"Ongallur - Karakkad Rd, Ongallur -II, Kerala 679313, India",https://www.google.co.kr/maps/place/Open+Gym/data=!4m5!3m4!1s0x3ba7c52f81bdf6f9:0x5ba2979892d46376!8m2!3d10.7844219!4d76.2252206?authuser=0&hl=en&rclk=1,10.7844219,76.2252206,Kerala
Sas Fitness Center,Gym,"Kalarcode, Pazhaveedu, Alappuzha, Kerala 688003, India",https://www.google.co.kr/maps/place/Sas+Fitness+Center/data=!4m5!3m4!1s0x3b08858b3d78a679:0xcf58f9418a5c44ab!8m2!3d9.4704566!4d76.3433674?authuser=0&hl=en&rclk=1,9.4704566,76.3433674,Kerala
Fit n Fine Fitness Studio,Gymnastics center,"X69G+PPF, Chathalloor, Perintalmanna, Kerala 679322, India",https://www.google.co.kr/maps/place/Fit+n+Fine+Fitness+Studio/data=!4m5!3m4!1s0x3ba7cdb29ae3b755:0xcedba0df43d6080b!8m2!3d10.9693138!4d76.2267893?authuser=0&hl=en&rclk=1,10.9693138,76.2267893,Kerala
BODY TECH FITNESS,Fitness center,"W7P7+RMH, Anamangad, Kerala 679357, India",https://www.google.co.kr/maps/place/BODY+TECH+FITNESS/data=!4m5!3m4!1s0x3ba7cf98fe694ae3:0x3581ace913393578!8m2!3d10.9370682!4d76.2642498?authuser=0&hl=en&rclk=1,10.9370682,76.2642498,Kerala
Boon Fitness Center,Gym,"CD Building, Pavaratty, Kerala 680507, India",https://www.google.co.kr/maps/place/Boon+Fitness+Center/data=!4m5!3m4!1s0x3ba79390cd1038c9:0x74f71610be80f180!8m2!3d10.5665508!4d76.0602792?authuser=0&hl=en&rclk=1,10.5665508,76.0602792,Kerala
My gym,Gym,"chilambukaden building, Kozhikode - Palakkad Hwy, Karinkallathani, Kerala 679357, India",https://www.google.co.kr/maps/place/My+gym/data=!4m5!3m4!1s0x3ba7d38af935047f:0x4d9808b474c5db2!8m2!3d10.9533432!4d76.3199275?authuser=0&hl=en&rclk=1,10.9533432,76.3199275,Kerala
FIT PLUS Ladies Fitness Center,Fitness center,"Aswathi junction, Kozhiplakil Arcade, Koothattukulam, Kerala 686662, India",https://www.google.co.kr/maps/place/FIT+PLUS+Ladies+Fitness+Center/data=!4m5!3m4!1s0x3b07dbf7812d390d:0xb3bddc0f6e1c29ca!8m2!3d9.8642341!4d76.5925151?authuser=0&hl=en&rclk=1,9.8642341,76.5925151,Kerala
RJ Fitness,Gym,"Kodassery, Kerala 680721, India",https://www.google.co.kr/maps/place/RJ+Fitness/data=!4m5!3m4!1s0x3ba7f8b5cc71ee43:0xb00703af89d54fbe!8m2!3d10.3460576!4d76.358984?authuser=0&hl=en&rclk=1,10.3460576,76.358984,Kerala
VIBRENT GYM,Gym,"V8H6+G4Q, Cherpulassery, Kerala 679503, India",https://www.google.co.kr/maps/place/VIBRENT+GYM/data=!4m5!3m4!1s0x3ba7d05c137f98a7:0xa34d12ef1fce85ba!8m2!3d10.878833!4d76.3103512?authuser=0&hl=en&rclk=1,10.878833,76.3103512,Kerala
gympac fitness centre aryamavu,Gym,"NH213, Arayabhavu, Kerala 678583, India",https://www.google.co.kr/maps/place/gympac+fitness+centre+aryamavu/data=!4m5!3m4!1s0x3ba7d45219da2c69:0x1a675d2535f4e643!8m2!3d10.9791058!4d76.4049393?authuser=0&hl=en&rclk=1,10.9791058,76.4049393,Kerala
POWER GYM & Fitness center,Gym,"Valiyakunnu, Kodumudi, Kerala 676552, India",https://www.google.co.kr/maps/place/POWER+GYM+%26+Fitness+center/data=!4m5!3m4!1s0x3ba7c9e4e31f09a1:0x14d38ef1467b9f38!8m2!3d10.8799047!4d76.1007587?authuser=0&hl=en&rclk=1,10.8799047,76.1007587,Kerala
Traditional Shaolin Kung Fu,Gym,"V58P+2Q7, Koppam, Palakkad, Kerala 679307, India",https://www.google.co.kr/maps/place/Traditional+Shaolin+Kung+Fu/data=!4m5!3m4!1s0x3ba7cf491dc82e6d:0xbb86157643903a7c!8m2!3d10.8650366!4d76.1869193?authuser=0&hl=en&rclk=1,10.8650366,76.1869193,Kerala
Strength Fitness Centre Kulappuly,Fitness center,"cherada complex bus stand building, Kulappully, Kerala 679122, India",https://www.google.co.kr/maps/place/Strength+Fitness+Centre+Kulappuly/data=!4m5!3m4!1s0x3ba7db491270efcd:0xe05ec3361b770e30!8m2!3d10.7811102!4d76.2786837?authuser=0&hl=en&rclk=1,10.7811102,76.2786837,Kerala
4 life gym,Gym,"VW2R+8H6, Triprangode, Kerala 676102, India",https://www.google.co.kr/maps/place/4+life+gym/data=!4m5!3m4!1s0x3ba7b10c49613f55:0x4055854c58eb0a42!8m2!3d10.8507831!4d75.9413855?authuser=0&hl=en&rclk=1,10.8507831,75.9413855,Kerala
BODYTECH FITNESS,Gym,"Chamravattom Junction, Kuttadu, Ponnani, Kerala 679577, India",https://www.google.co.kr/maps/place/BODYTECH+FITNESS/data=!4m5!3m4!1s0x3ba7bbfd4cada8df:0x4aef9f068c9f2259!8m2!3d10.7839904!4d75.9439383?authuser=0&hl=en&rclk=1,10.7839904,75.9439383,Kerala
Fitness Gym,Gym,"J4R5+F6P, Muttil South, Kerala 673122, India",https://www.google.co.kr/maps/place/Fitness+Gym/data=!4m5!3m4!1s0x3ba60b5b10b73089:0xc882d89814f5f876!8m2!3d11.6412004!4d76.1080754?authuser=0&hl=en&rclk=1,11.6412004,76.1080754,Kerala
Kayiliad gym,Gym,"R78H+JW4, Kayiliad, Chalavara, Kerala 679122, India",https://www.google.co.kr/maps/place/Kayiliad+gym/data=!4m5!3m4!1s0x3ba7db02933c5433:0xa203c3728563acff!8m2!3d10.8165089!4d76.2798266?authuser=0&hl=en&rclk=1,10.8165089,76.2798266,Kerala
Power world gym,Fitness center,"First Floor, Bava Complex, Chalissery, Kerala 679536, India",https://www.google.co.kr/maps/place/Power+world+gym/data=!4m5!3m4!1s0x3ba7c17dba62bdbb:0x4dd5f67461141fe8!8m2!3d10.7375493!4d76.0941654?authuser=0&hl=en&rclk=1,10.7375493,76.0941654,Kerala
Muscle Maniac gym,Fitness center,"Seby Master Building, SH63, Nayarambalam, Kochi, Kerala 682503, India",https://www.google.co.kr/maps/place/Muscle+Maniac+gym/data=!4m5!3m4!1s0x3b08133369c69863:0xa6d9b7083e0df9c2!8m2!3d10.0535593!4d76.2154976?authuser=0&hl=en&rclk=1,10.0535593,76.2154976,Kerala
Hi-tech Fitness Center,Gym,"P5M6+78C, Karukaputhoor, Kerala 679535, India",https://www.google.co.kr/maps/place/Hi-tech+Fitness+Center/data=!4m5!3m4!1s0x3ba7c16a28ee3b6d:0x9eb11c6cf9432e8d!8m2!3d10.7331999!4d76.160754?authuser=0&hl=en&rclk=1,10.7331999,76.160754,Kerala
New Tirur Gym,Gym,"WW3V+R83, Pullooral, Talakkad, Kerala 676103, India",https://www.google.co.kr/maps/place/New+Tirur+Gym/data=!4m5!3m4!1s0x3ba7b19effa53e0b:0xdfd7dd4b0b2022dd!8m2!3d10.9045114!4d75.9432919?authuser=0&hl=en&rclk=1,10.9045114,75.9432919,Kerala
Abcd,Gym,"Thazhapra Rd, Nedumpura, Kerala 679531, India",https://www.google.co.kr/maps/place/Abcd/data=!4m5!3m4!1s0x3ba7dd8090fb0155:0x81dd71549984f4a6!8m2!3d10.7263919!4d76.2798379?authuser=0&hl=en&rclk=1,10.7263919,76.2798379,Kerala
SaFe GyM,Fitness center,"PALAKKAD road, near Government hospital, Payyallur, Kollengode, Kerala 678506, India",https://www.google.co.kr/maps/place/SaFe+GyM/data=!4m5!3m4!1s0x3ba813cfd9a8e92d:0x3efd0ae170b8f17b!8m2!3d10.6158538!4d76.69688?authuser=0&hl=en&rclk=1,10.6158538,76.69688,Kerala
Fit Life Gym,Gym,"4P7H+9W3, Pathanamthitta, Kerala 691551, India",https://www.google.co.kr/maps/place/Fit+Life+Gym/data=!4m5!3m4!1s0x3b060fbe4019bf5b:0xcf8747f4626af64b!8m2!3d9.1133954!4d76.7297981?authuser=0&hl=en&rclk=1,9.1133954,76.7297981,Kerala
Mass Multi Gym & Fitness centre,Gym,"Bus Stop, Kuzhalmannam - Peringottukurissi Rd, Paruthipully, Kerala 678573, India",https://www.google.co.kr/maps/place/Mass+Multi+Gym+%26+Fitness+centre/data=!4m5!3m4!1s0x3ba875a36ff65f73:0x2c6381ace0c03ae1!8m2!3d10.7571906!4d76.5165215?authuser=0&hl=en&rclk=1,10.7571906,76.5165215,Kerala
YASC OPEN GYM MANKADA PALLIPPURAM,Gym,"345J+85Q, Mankada, Kerala 679324, India",https://www.google.co.kr/maps/place/YASC+OPEN+GYM+MANKADA+PALLIPPURAM/data=!4m5!3m4!1s0x3ba635ba25c4db53:0x6d4367611ce99393!8m2!3d11.058348!4d76.1304819?authuser=0&hl=en&rclk=1,11.058348,76.1304819,Kerala
Jerai fitnes,Gym,"X7WV+XXC, Kaloor, Kochi, Kerala 682017, India",https://www.google.co.kr/maps/place/Jerai+fitnes/data=!4m5!3m4!1s0x3b080d0f00765b33:0x5f8251450834acf9!8m2!3d9.9974469!4d76.2949003?authuser=0&hl=en&rclk=1,9.9974469,76.2949003,Kerala
RAISE ,Gym,"Main Road, Ottapalam, Kerala 679101, India",https://www.google.co.kr/maps/place/RAISE+%E0%B4%85%E0%B4%AC%E0%B4%BE%E0%B4%95%E0%B5%8D%E0%B4%95%E0%B4%B8%E0%B5%8D/data=!4m5!3m4!1s0x3ba7d951864c2f19:0x9028afeb27dada6a!8m2!3d10.772612!4d76.373012?authuser=0&hl=en&rclk=1,10.772612,76.373012,Kerala
Kpz Gym,Gym,"Kottakkal Anappara Kadampuzha Rd, Thuvappara, Kadampuzha, Kerala 676553, India",https://www.google.co.kr/maps/place/Kpz+Gym/data=!4m5!3m4!1s0x3ba7b5cda4db4899:0xa95f63251386b572!8m2!3d10.9411602!4d76.0427539?authuser=0&hl=en&rclk=1,10.9411602,76.0427539,Kerala
Esforo fitness world,Gym,"above 916 Supermarket, Pallimoola, Mannumkad, Ramavarmapuram, Thrissur, Kerala 680631, India",https://www.google.co.kr/maps/place/Esfor%C3%A7o+fitness+world/data=!4m5!3m4!1s0x3ba7effb40548cad:0xb437a9b21ba57a6a!8m2!3d10.5563592!4d76.2280459?authuser=0&hl=en&rclk=1,10.5563592,76.2280459,Kerala
RESET FITNESS,Gym,"VK Padi, Kerala 676305, India",https://www.google.co.kr/maps/place/RESET+FITNESS/data=!4m5!3m4!1s0x3ba64de5770f019f:0xb6195aea4dcc0e09!8m2!3d11.0678078!4d75.9232968?authuser=0&hl=en&rclk=1,11.0678078,75.9232968,Kerala
F1 FITNESS GYM MUTTIKULANGARA,Gym,"Sr complex, Muttikulangara, Kerala 678594, India",https://www.google.co.kr/maps/place/F1+FITNESS+GYM+MUTTIKULANGARA/data=!4m5!3m4!1s0x3ba87556aa2152e3:0xbc8a4686c009b98d!8m2!3d10.7657526!4d76.4883615?authuser=0&hl=en&rclk=1,10.7657526,76.4883615,Kerala
Fitgoal,Fitness center,"Unnamed Road, Harinagar, Punkunnam, Thrissur, Kerala 680002, India",https://www.google.co.kr/maps/place/Fitgoal/data=!4m5!3m4!1s0x3ba7ef6eb5e898e1:0x1ebb20bdf74d0de0!8m2!3d10.5358136!4d76.2048676?authuser=0&hl=en&rclk=1,10.5358136,76.2048676,Kerala
Smart Gym,Gym,"M65W+6P6, Wadakkanchery, Kerala 680582, India",https://www.google.co.kr/maps/place/Smart+Gym/data=!4m5!3m4!1s0x3ba7e9c3773ac477:0x5f65cb0b9d432caf!8m2!3d10.658035!4d76.2467694?authuser=0&hl=en&rclk=1,10.658035,76.2467694,Kerala
olympic gym,Fitness center,"Kolathur Pulamanthole Rd, near Chemmalasseri Sunni Masjid, Chemmalasseri, Perintalmanna, Kerala 679323, India",https://www.google.co.kr/maps/place/olympic+gym/data=!4m5!3m4!1s0x3ba7cf8fe74a9171:0xdbf4c3a438e1f08b!8m2!3d10.9262437!4d76.1815211?authuser=0&hl=en&rclk=1,10.9262437,76.1815211,Kerala
Life Fitness Centre,Fitness center,"Behind panchayath shopping center, Thekkekara, Kerala, India",https://www.google.co.kr/maps/place/Life+Fitness+Centre/data=!4m5!3m4!1s0x3b0619a5bbb7a8c3:0x9e07e6a7967e26ec!8m2!3d9.205661!4d76.563307?authuser=0&hl=en&rclk=1,9.205661,76.563307,Kerala
M.POWER FITNESS STUDIO,Gym,"V7FQ+2WP, Nellaya, Kerala 679335, India",https://www.google.co.kr/maps/place/M.POWER+FITNESS+STUDIO/data=!4m5!3m4!1s0x3ba7d193076cb179:0x5fff69e24384a85b!8m2!3d10.8725755!4d76.2898373?authuser=0&hl=en&rclk=1,10.8725755,76.2898373,Kerala
Larissa Fitness Centre,Gym,"IAC Rd, Pathalam, Eloor, Kochi, Kerala 683501, India",https://www.google.co.kr/maps/place/Larissa+Fitness+Centre/data=!4m5!3m4!1s0x3b080e8de041294d:0x395e0b50f22b2f81!8m2!3d10.0791268!4d76.3276376?authuser=0&hl=en&rclk=1,10.0791268,76.3276376,Kerala
Peter's Gym,Gym,"G69R+WR7, Nellikunnu, Thrissur, Kerala 680005, India",https://www.google.co.kr/maps/place/Peter's+Gym/data=!4m5!3m4!1s0x3ba7ef32a3008417:0x240b2dc6908ba695!8m2!3d10.5197795!4d76.24204?authuser=0&hl=en&rclk=1,10.5197795,76.24204,Kerala
HERBA LIFE,Gym,"chembra road, Payyanangadi, Tirur, Kerala 676107, India",https://www.google.co.kr/maps/place/HERBA+LIFE/data=!4m5!3m4!1s0x3ba7b226d7f5b1bb:0xc1a36c829a7d0aa!8m2!3d10.925852!4d75.929621?authuser=0&hl=en&rclk=1,10.925852,75.929621,Kerala
Golden Star GYM,Gym,"W52V+972, Pulamanthole, Kerala 679323, India",https://www.google.co.kr/maps/place/Golden+Star+GYM/data=!4m5!3m4!1s0x3ba7cf49cd64ef13:0x87cf8a6d67b475a4!8m2!3d10.9008939!4d76.1931444?authuser=0&hl=en&rclk=1,10.9008939,76.1931444,Kerala
Fana Fitness,Gym,"Valanchery - Nilambur Rd, Vengad, Kerala 679338, India",https://www.google.co.kr/maps/place/Fana+Fitness/data=!4m5!3m4!1s0x3ba7c99a30201d6f:0x3b0fd0f387703f5d!8m2!3d10.9161163!4d76.1226636?authuser=0&hl=en&rclk=1,10.9161163,76.1226636,Kerala
TIGRIS FITNESS CENTRE,Gym,"W7CM+V2Q, Thootha, Kerala 679357, India",https://www.google.co.kr/maps/place/TIGRIS+FITNESS+CENTRE/data=!4m5!3m4!1s0x3ba7d1e602617f25:0x7b90c1a90e7d1402!8m2!3d10.9222231!4d76.2825984?authuser=0&hl=en&rclk=1,10.9222231,76.2825984,Kerala
The Group,Gym,"Desamangalam Road, Desamangalam, Kerala 679532, India",https://www.google.co.kr/maps/place/The+Group/data=!4m5!3m4!1s0x3ba7c34b34537163:0x88a8d93585b812ed!8m2!3d10.7552562!4d76.2298279?authuser=0&hl=en&rclk=1,10.7552562,76.2298279,Kerala
Force Gym,Gym,"Bus Stop Villangannur, Peechi Rd, Peechi, Kerala 680652, India",https://www.google.co.kr/maps/place/Force+Gym/data=!4m5!3m4!1s0x3ba7e52d89b9ece5:0x2c5a432316581787!8m2!3d10.5243248!4d76.3550831?authuser=0&hl=en&rclk=1,10.5243248,76.3550831,Kerala
Powermen Gym,Fitness center,"TK building, opposite zaitun, Karinkallathani, Kerala 678554, India",https://www.google.co.kr/maps/place/Powermen+Gym/data=!4m5!3m4!1s0x3ba7d3cbf4c58a9f:0xc6a2ca0af3a931c4!8m2!3d10.955371!4d76.326631?authuser=0&hl=en&rclk=1,10.955371,76.326631,Kerala
"Get Fit, Fitness Centre",Fitness center,"Mele pattambi, Pattambi, Kerala 679303, India","https://www.google.co.kr/maps/place/Get+Fit,+Fitness+Centre/data=!4m5!3m4!1s0x3ba7c5d5227a6cd5:0xcfa237d8874ed8de!8m2!3d10.8057301!4d76.1956647?authuser=0&hl=en&rclk=1",10.8057301,76.1956647,Kerala
Powermen Gym,Fitness center,"X82C+53M, Karinkallathani, Kerala 679357, India",https://www.google.co.kr/maps/place/Powermen+Gym/data=!4m5!3m4!1s0x3ba7d37ffb2ea1d3:0xd073c315faec4756!8m2!3d10.9504601!4d76.3201687?authuser=0&hl=en&rclk=1,10.9504601,76.3201687,Kerala
Getfit gym,Fitness center,"Mele pattambi, Pattambi, Kerala 679303, India",https://www.google.co.kr/maps/place/Getfit+gym/data=!4m5!3m4!1s0x3ba7c557b86e250b:0xc0aaf3b743d4d046!8m2!3d10.8060167!4d76.1915659?authuser=0&hl=en&rclk=1,10.8060167,76.1915659,Kerala
Olympia fitness center,Gym,"High school road, Cherpulassery, Kerala 679503, India",https://www.google.co.kr/maps/place/Olympia+fitness+center/data=!4m5!3m4!1s0x3ba7d15cf54f2937:0x9a8c724b639581c8!8m2!3d10.8827125!4d76.311763?authuser=0&hl=en&rclk=1,10.8827125,76.311763,Kerala
Hulk Fitness studio,Gym,"Chelakkara - Mayannur - Ottapalam Rd, Paramelpady, Kondazhy, Kerala 679106, India",https://www.google.co.kr/maps/place/Hulk+Fitness+studio/data=!4m5!3m4!1s0x3ba7df17dd7ecef9:0x68d449597e789217!8m2!3d10.7261139!4d76.3970982?authuser=0&hl=en&rclk=1,10.7261139,76.3970982,Kerala
M-Fit,Gym,"H56X+P7M, Kuttoor, Thrissur, Kerala 680013, India",https://www.google.co.kr/maps/place/M-Fit/data=!4m5!3m4!1s0x3ba7ef81ecb0b643:0x29b5a5d885808e48!8m2!3d10.5618404!4d76.1981634?authuser=0&hl=en&rclk=1,10.5618404,76.1981634,Kerala
Kunnumpuram Play Ground,Gym,"X83X+2GF, Thachanattukara-I, Kerala 678583, India",https://www.google.co.kr/maps/place/Kunnumpuram+Play+Ground/data=!4m5!3m4!1s0x3ba7d3e59b38cd3f:0xdb4c1082a063d396!8m2!3d10.9525701!4d76.3487966?authuser=0&hl=en&rclk=1,10.9525701,76.3487966,Kerala
S.S Saloon,Gym,"Q79G+2GF, Shoranur, Kerala 679121, India",https://www.google.co.kr/maps/place/S.S+Saloon/data=!4m5!3m4!1s0x3ba7dbe25401b475:0xa36beee8e0ccf188!8m2!3d10.7675555!4d76.2763066?authuser=0&hl=en&rclk=1,10.7675555,76.2763066,Kerala
Flex Gym ,Gym,"near civil station, Alathur, Kerala 678541, India",https://www.google.co.kr/maps/place/Flex+Gym+%F0%9F%92%AA/data=!4m5!3m4!1s0x3ba80b794fcca671:0x6b2ce8c481bd2d07!8m2!3d10.6463307!4d76.5447122?authuser=0&hl=en&rclk=1,10.6463307,76.5447122,Kerala
Taandav zumba fitness,Fitness center,"Mudock, Mah, Kerala 673310, India",https://www.google.co.kr/maps/place/Taandav+zumba+fitness/data=!4m5!3m4!1s0x3ba4291436782063:0x8b05978ad4f41f5!8m2!3d11.6998677!4d75.5431165?authuser=0&hl=en&rclk=1,11.6998677,75.5431165,Kerala
Fitness World Gym,Gym,"Moonampadi, Up Hill, Malappuram, Kerala 676505, India",https://www.google.co.kr/maps/place/Fitness+World+Gym/data=!4m5!3m4!1s0x3ba64a9e22365faf:0x315ba3025b086262!8m2!3d11.0445716!4d76.0851586?authuser=0&hl=en&rclk=1,11.0445716,76.0851586,Kerala
4tune Fitness Center And Gym,Gym,"Enthayi,p.o.kundaliyur, Kerala 680616, India",https://www.google.co.kr/maps/place/4tune+Fitness+Center+And+Gym/data=!4m5!3m4!1s0x3ba792eb5e5dc8d9:0x273305ca100e01e6!8m2!3d10.5121261!4d76.0568593?authuser=0&hl=en&rclk=1,10.5121261,76.0568593,Kerala
Kothamangalam TOK,Gym,"Varappetty - Kakkatoor Rd, Thachangadu, Varapetty, Kerala 686691, India",https://www.google.co.kr/maps/place/Kothamangalam+TOK/data=!4m5!3m4!1s0x3ba7d02a78bc63c9:0x15b4aa565afde170!8m2!3d10.8914583!4d76.2711408?authuser=0&hl=en&rclk=1,10.8914583,76.2711408,Kerala
Golden Fitness Centre,Gym,"VG4C+853, Kongad, Kerala 678631, India",https://www.google.co.kr/maps/place/Golden+Fitness+Centre/data=!4m5!3m4!1s0x3ba877430e8a8393:0x1b6e1811bc5268ae!8m2!3d10.8557743!4d76.5204329?authuser=0&hl=en&rclk=1,10.8557743,76.5204329,Kerala
In shape multi gymnasium,Gym,"Valanchery, Kerala 676552, India",https://www.google.co.kr/maps/place/In+shape+multi+gymnasium/data=!4m5!3m4!1s0x3ba7b6324f2dc8b1:0xb6ec733dbcfbf44a!8m2!3d10.8892914!4d76.0716799?authuser=0&hl=en&rclk=1,10.8892914,76.0716799,Kerala
HERCULES FITNESS CENTER,Gym,"Kottayi Pudur Parali Rd, Odannur, Parali, Kerala 678572, India",https://www.google.co.kr/maps/place/HERCULES+FITNESS+CENTER/data=!4m5!3m4!1s0x3ba8752f9c6b5e2d:0x604d824948bfe7f5!8m2!3d10.7610159!4d76.544321?authuser=0&hl=en&rclk=1,10.7610159,76.544321,Kerala
College Gym,Gym,"PCVM+RRP, Pambadi, Kerala 680588, India",https://www.google.co.kr/maps/place/College+Gym/data=!4m5!3m4!1s0x3ba7df6b21fb4adb:0xa84316a508c46d46!8m2!3d10.7445845!4d76.434575?authuser=0&hl=en&rclk=1,10.7445845,76.434575,Kerala
Karan's Multy Fitness Nelluvai,Gym,"near dhanuwantri temple, Nelluwaya, Kerala 680584, India",https://www.google.co.kr/maps/place/Karan's+Multy+Fitness+Nelluvai/data=!4m5!3m4!1s0x3ba7c1a057f4b84f:0xccfef23a1f8f55c1!8m2!3d10.6945341!4d76.1696836?authuser=0&hl=en&rclk=1,10.6945341,76.1696836,Kerala
Muscle Factory,Gym,"J5Q4+WXW, Velur, Kerala 680601, India",https://www.google.co.kr/maps/place/Muscle+Factory/data=!4m5!3m4!1s0x3ba7ebc0d4e5d1b7:0xc2d8f3bbcbcbe0b8!8m2!3d10.6398722!4d76.1574556?authuser=0&hl=en&rclk=1,10.6398722,76.1574556,Kerala
WHITE DRAGON Fitness Academy,Gym,"Sreyas Nagar, Ollukkara, Thrissur, Kerala 680655, India",https://www.google.co.kr/maps/place/WHITE+DRAGON+Fitness+Academy/data=!4m5!3m4!1s0x3ba7ef912f7b4e51:0xdf8f520968e8822e!8m2!3d10.5270864!4d76.2540923?authuser=0&hl=en&rclk=1,10.5270864,76.2540923,Kerala
B FIT badminton academy,Gym,"V933+35V, Thrikkadeeri -I, Kerala 679502, India",https://www.google.co.kr/maps/place/B+FIT+badminton+academy/data=!4m5!3m4!1s0x3ba7db660e3f5d8b:0xe9f5efb6cbece819!8m2!3d10.8527377!4d76.3529262?authuser=0&hl=en&rclk=1,10.8527377,76.3529262,Kerala
1RM Fitness Studio,Fitness center,"Pazhari Plaza Court Jn, Kodathippadi, Mannarkkad, Kerala 678582, India",https://www.google.co.kr/maps/place/1RM+Fitness+Studio/data=!4m5!3m4!1s0x3ba7d5893e1d75af:0x1240fe0910058bf5!8m2!3d10.9885978!4d76.4526113?authuser=0&hl=en&rclk=1,10.9885978,76.4526113,Kerala
Powerzone fitness,Fitness center,"Perumpilavu, Kerala 680519, India",https://www.google.co.kr/maps/place/Powerzone+fitness/data=!4m5!3m4!1s0x3ba7c1b393b4371f:0x10dc660b287ed92b!8m2!3d10.698483!4d76.091543?authuser=0&hl=en&rclk=1,10.698483,76.091543,Kerala
Olga Fitness Center,Gym,"J49F+Q5M, Kechery, Eranellur, Kerala 680501, India",https://www.google.co.kr/maps/place/Olga+Fitness+Center/data=!4m5!3m4!1s0x3ba7eb09b27c8399:0xb27b0ac52aa85e10!8m2!3d10.6194727!4d76.1229188?authuser=0&hl=en&rclk=1,10.6194727,76.1229188,Kerala
Ace Badminton,Gym,"W56R+JV8, Pulamanthole, Kerala 679323, India",https://www.google.co.kr/maps/place/Ace+Badminton/data=!4m5!3m4!1s0x3ba7cfca9f9382bb:0xf55f2ea99394165e!8m2!3d10.911548!4d76.1922109?authuser=0&hl=en&rclk=1,10.911548,76.1922109,Kerala
AMUMC Boys Hostel Gym,Gym,"W6FV+683, Chelemala, Elamkulam, Kerala 679340, India",https://www.google.co.kr/maps/place/AMUMC+Boys+Hostel+Gym/data=!4m5!3m4!1s0x3ba7cf7ec2cdc13d:0xb7041b6036586540!8m2!3d10.9230237!4d76.2432956?authuser=0&hl=en&rclk=1,10.9230237,76.2432956,Kerala
Fitpro fitness,Gym,"SH71, Vayapparapadi, Vettekode, Manjeri, Kerala 676517, India",https://www.google.co.kr/maps/place/Fitpro+fitness/data=!4m5!3m4!1s0x3ba637d3a1019919:0xd314052ff35d6d3f!8m2!3d11.1088661!4d76.1214147?authuser=0&hl=en&rclk=1,11.1088661,76.1214147,Kerala
jimkhana ground,Gym,"R54W+PH9, Pattambi, Kerala 679303, India",https://www.google.co.kr/maps/place/jimkhana+ground/data=!4m5!3m4!1s0x3ba7c5cb8e1e0097:0x11877aeef6bdb7fe!8m2!3d10.8067836!4d76.1964852?authuser=0&hl=en&rclk=1,10.8067836,76.1964852,Kerala
Amigos Mudappakkad,Gym,"Pallipuram - Pattambi Rd, Parudur, Kerala 679305, India",https://www.google.co.kr/maps/place/Amigos+Mudappakkad/data=!4m5!3m4!1s0x3ba7c7ba181e029f:0xbf95e895fc8492db!8m2!3d10.8134402!4d76.125888?authuser=0&hl=en&rclk=1,10.8134402,76.125888,Kerala
Roman reigns centre,Gym,"W7M8+54M, Anamangad, Kerala 679357, India",https://www.google.co.kr/maps/place/Roman+reigns+centre/data=!4m5!3m4!1s0x3ba7cf4db6f0fadb:0xb32846df79015db2!8m2!3d10.9329578!4d76.2652832?authuser=0&hl=en&rclk=1,10.9329578,76.2652832,Kerala
MSA Shoranur,Physical fitness program,"B-Cabin, Shoranur, Kerala 679121, India",https://www.google.co.kr/maps/place/MSA+Shoranur/data=!4m5!3m4!1s0x3ba7dd10cd7a0809:0x99149274e8334a05!8m2!3d10.7540644!4d76.2784272?authuser=0&hl=en&rclk=1,10.7540644,76.2784272,Kerala
Mundakottukuruss Mosque,Gym,"Mundakkottukurussi Road, Mundakkottukurssi, Chalavara, Kerala 679122, India",https://www.google.co.kr/maps/place/Mundakottukuruss+Mosque/data=!4m5!3m4!1s0x3ba7db7a3e1d2f39:0x67aee2ee005744b5!8m2!3d10.8404692!4d76.2756568?authuser=0&hl=en&rclk=1,10.8404692,76.2756568,Kerala
Edapal Tennis Academy,Gym,"Q2M5+G2X, substation, Edappal, Kerala 679576, India",https://www.google.co.kr/maps/place/Edapal+Tennis+Academy/data=!4m5!3m4!1s0x3ba7b92ef0c3375f:0x8468798ab5ed6788!8m2!3d10.7838616!4d76.0075945?authuser=0&hl=en&rclk=1,10.7838616,76.0075945,Kerala
Abdura's Men's Saloon,Gym,"Muthukumpuram, 679341, Thootha  Vettathur Rd, Thazhekode, Kerala, India",https://www.google.co.kr/maps/place/Abdura's+Men's+Saloon/data=!4m5!3m4!1s0x3ba7d3b44d368531:0x863dbf9c13513184!8m2!3d10.9644311!4d76.3204893?authuser=0&hl=en&rclk=1,10.9644311,76.3204893,Kerala
Eliyappatta Parakkulam,Gym,"Cherpulassery, Road, Chalavara, Kerala, India",https://www.google.co.kr/maps/place/Eliyappatta+Parakkulam/data=!4m5!3m4!1s0x3ba7d10b325f1e3d:0x86b4bab6fc5b1839!8m2!3d10.8657176!4d76.3222414?authuser=0&hl=en&rclk=1,10.8657176,76.3222414,Kerala
Hatha Vidya Gurukulam,Yoga studio,"Natha Tradition Of Yoga, Municipal Complex, Patturaikkal, Thrissur, Kerala 680020, India",https://www.google.co.kr/maps/place/Hatha+Vidya+Gurukulam/data=!4m5!3m4!1s0x3ba7ee59934d03d9:0x7d846e13cfaceb8c!8m2!3d10.535077!4d76.2116549?authuser=0&hl=en&rclk=1,10.535077,76.2116549,Kerala
"Fitness First Multy Gym,Thettaly",Gymnasium Cz,"Thettaly, Kochi, Kerala 683571, India","https://www.google.co.kr/maps/place/Fitness+First+Multy+Gym,Thettaly/data=!4m5!3m4!1s0x3b0808eb2bb4f213:0x65f7b5cc91fb2f01!8m2!3d10.1306254!4d76.3899041?authuser=0&hl=en&rclk=1",10.1306254,76.3899041,Kerala
Pink Fitness - Ladies Gym Vadavalli,Gym,"Vadavalli, Marudhamalai Rd, above INDIAN BANK, Coimbatore, Tamil Nadu 641041, India",https://www.google.co.kr/maps/place/Pink+Fitness+-+Ladies+Gym+Vadavalli/data=!4m5!3m4!1s0x3ba85fcd59d17213:0x34672c5fab50daa8!8m2!3d11.0278135!4d76.9039814?authuser=0&hl=en&rclk=1,11.0278135,76.9039814,Kerala
MY HEALTH FITNESS INDUSTRY VENGARA,Gymnasium Cz,"down town, Main road, Vengara, Kerala 676304, India",https://www.google.co.kr/maps/place/MY+HEALTH+FITNESS+INDUSTRY+VENGARA/data=!4m5!3m4!1s0x3ba64dd916e9e145:0x36f8d3fa88e012e6!8m2!3d11.0504767!4d75.9730104?authuser=0&hl=en&rclk=1,11.0504767,75.9730104,Kerala
Pink Fitness - Ladies Gym Crosscut Road,Gym,"461, Cross Cut Rd, behind Balaji Binny Showroom, Ram Nagar, Coimbatore, Tamil Nadu 641012, India",https://www.google.co.kr/maps/place/Pink+Fitness+-+Ladies+Gym+Crosscut+Road/data=!4m5!3m4!1s0x3ba858fe676e2759:0xa0d6fea9fb5492d4!8m2!3d11.0162261!4d76.9600208?authuser=0&hl=en&rclk=1,11.0162261,76.9600208,Kerala
Pink Fitness - Ladies Gym Dindigul,Gym,"Sree Tower, 46 - I/6, Indira Nagar, Nagal Nagar, Tamil Nadu 624003, India",https://www.google.co.kr/maps/place/Pink+Fitness+-+Ladies+Gym+Dindigul/data=!4m5!3m4!1s0x3b00aa5188c7cf21:0x4002cbfa575f9664!8m2!3d10.3544647!4d77.9843611?authuser=0&hl=en&rclk=1,10.3544647,77.9843611,Kerala
"ERUMAPETTY GLASS HOUSE , Plywood ,Door, Door fittings,Aluminium channel,Curtain fitness, Hardware ,plumbing & sanitary",Glass & mirror shop,"Kunnamkulam - Wadakkanchery Rd, Kariyannoor, Erumapetty, Kerala 680584, India","https://www.google.co.kr/maps/place/ERUMAPETTY+GLASS+HOUSE+,+Plywood+,Door,+Door+fittings,Aluminium+channel,Curtain+fitness,+Hardware+,plumbing+%26+sanitary/data=!4m5!3m4!1s0x3ba7c1e89e71869f:0x255fecd5ff63168b!8m2!3d10.6804!4d76.159208?authuser=0&hl=en&rclk=1",10.6804,76.159208,Kerala
Snap Fitness,Gym,"161, 2nd Floor, Kovai Main Rd, L G B Nagar, Tamil Nadu 639001, India",https://www.google.co.kr/maps/place/Snap+Fitness/data=!4m5!3m4!1s0x3baa2f078c02b4c1:0x668d620c5b07d87!8m2!3d10.9613418!4d78.0647965?authuser=0&hl=en&rclk=1,10.9613418,78.0647965,Kerala
