Company_Name,Category,Address,Url,Latitude,Longitude,Territory
Indian Gym,Gym,"NO:2, Old Madras St, opp. SBI BANK, Kottakuppam, Puducherry, 605104, India",https://www.google.co.kr/maps/place/Indian+Gym/data=!4m5!3m4!1s0x3a5363e0ecad28d7:0xebccdb38ccceeaeb!8m2!3d11.9574973!4d79.8340104?authuser=0&hl=en&rclk=1,11.9574973,79.8340104,Puducherry
FITNESS CENTRE / GYM IN PONDICHERRY - Aroma Health & Fitness Centre in Pondicherry,Fitness center,"No.67, 2nd Floor, Jawaharlal Nehru Street, Mission St, opp. to Bata Showroom and, Corner, Puducherry, 605001, India",https://www.google.co.kr/maps/place/FITNESS+CENTRE+%2F+GYM+IN+PONDICHERRY+-+Aroma+Health+%26+Fitness+Centre+in+Pondicherry/data=!4m5!3m4!1s0x3a5363d5a1a5bac9:0x48da4d3442cf3eb7!8m2!3d11.9357176!4d79.8314104?authuser=0&hl=en&rclk=1,11.9357176,79.8314104,Puducherry
VAIRAM FITNESS PUDUCHERRY,Gym,"11 Vignesh Complex Salai, Third Cross St, Puducherry, 605001, India",https://www.google.co.kr/maps/place/VAIRAM+FITNESS+PUDUCHERRY/data=!4m5!3m4!1s0x3a53617f306635a7:0x8873bc56e362f94e!8m2!3d11.940582!4d79.8262?authuser=0&hl=en&rclk=1,11.940582,79.8262,Puducherry
FITNESS 1 Unisex fitness studio,Gym,"Chennai - Nagapattinam Hwy, Thattanchavady, Puducherry, 605006, India",https://www.google.co.kr/maps/place/FITNESS+1+Unisex+fitness+studio/data=!4m5!3m4!1s0x3a53610d5f987a25:0xf27188a0ca5a2993!8m2!3d11.9429589!4d79.8060001?authuser=0&hl=en&rclk=1,11.9429589,79.8060001,Puducherry
Pro fitness,Gym,"No. 43, Yanam Vengadasalam Pillai St, Chinnakadai, MG Road Area, Puducherry, 605001, India",https://www.google.co.kr/maps/place/Pro+fitness/data=!4m5!3m4!1s0x3a53612af0bef241:0xd7ca32253fb438db!8m2!3d11.9284929!4d79.8281072?authuser=0&hl=en&rclk=1,11.9284929,79.8281072,Puducherry
Le Début - Fitness Studio,Physical fitness program,"36, Des Bassyins De Richemont St, White Town, Puducherry, 605001, India",https://www.google.co.kr/maps/place/Le+D%C3%A9but+-+Fitness+Studio/data=!4m5!3m4!1s0x3a5363d3f8e75ca3:0xb8198cbf28770063!8m2!3d11.9383486!4d79.8338618?authuser=0&hl=en&rclk=1,11.9383486,79.8338618,Puducherry
Dynamic Gym,Gym,"234, 100 Feet Rd, opp.to Indian Oil Petrol Bunk, Ozhandai Keerapalaiyam, Marapalam Junction, Puducherry, 605004, India",https://www.google.co.kr/maps/place/Dynamic+Gym/data=!4m5!3m4!1s0x3a53619b3ba7876d:0xb99acff8f5decd0b!8m2!3d11.9146187!4d79.8104534?authuser=0&hl=en&rclk=1,11.9146187,79.8104534,Puducherry
Dj Fitness,Gym,"236, Dr Ambedkar Rd, Mudaliarpet, Puducherry, 605004, India",https://www.google.co.kr/maps/place/Dj+Fitness/data=!4m5!3m4!1s0x3a536185f611e335:0x545eec519ccfb58c!8m2!3d11.9210415!4d79.816284?authuser=0&hl=en&rclk=1,11.9210415,79.816284,Puducherry
Arrow Fitness Studio - Unisex,Gym,"No. 148, Thiruvalluvar Salai, Pillaithotam, Pudupalaiyam, Puducherry, 605013, India",https://www.google.co.kr/maps/place/Arrow+Fitness+Studio+-+Unisex/data=!4m5!3m4!1s0x3a53617718184207:0x32ab8a3038cd8f53!8m2!3d11.9359747!4d79.8154871?authuser=0&hl=en&rclk=1,11.9359747,79.8154871,Puducherry
Extreme Fitness Gym,Gym,"XR3C+JF3, Pethuchettypet, Lawspet, Puducherry, 605012, India",https://www.google.co.kr/maps/place/Extreme+Fitness+Gym/data=!4m5!3m4!1s0x3a5361679d4f4ca7:0x432f7c826a60d941!8m2!3d11.9540218!4d79.821173?authuser=0&hl=en&rclk=1,11.9540218,79.821173,Puducherry
Life Fitness Gym,Gym,"Thilaspet, Marie Oulgaret, Puducherry, 605009, India",https://www.google.co.kr/maps/place/Life+Fitness+Gym/data=!4m5!3m4!1s0x3a53610fc5eeaf1b:0x2689695d9afa1ad9!8m2!3d11.9417653!4d79.7980906?authuser=0&hl=en&rclk=1,11.9417653,79.7980906,Puducherry
Aurofit fitness studio,Gym,"18 ajeez nagar, Reddiarpalayam, Puducherry, 605005, India",https://www.google.co.kr/maps/place/Aurofit+fitness+studio/data=!4m5!3m4!1s0x3a53614dde452bc3:0x943f5d71cbfdeeb4!8m2!3d11.9323661!4d79.8008302?authuser=0&hl=en&rclk=1,11.9323661,79.8008302,Puducherry
Matrix Gym,Gym,"No.25, Anna Salai, Heritage Town, Puducherry, 605001, India",https://www.google.co.kr/maps/place/Matrix+Gym/data=!4m5!3m4!1s0x3a53617da8e3ca4d:0x9006eb5dc00f80cf!8m2!3d11.9409109!4d79.8275917?authuser=0&hl=en&rclk=1,11.9409109,79.8275917,Puducherry
Concept Fitness Studio,Gym,"First Floor, 80, Laporte St, MG Road Area, Puducherry, 605001, India",https://www.google.co.kr/maps/place/Concept+Fitness+Studio/data=!4m5!3m4!1s0x3a53617d39b1c77b:0x862331507187e7ec!8m2!3d11.9315158!4d79.8274102?authuser=0&hl=en&rclk=1,11.9315158,79.8274102,Puducherry
IRON PARADISE Unisex Fitness,Gym,"Radhakrishnan Nagar, Puducherry, 605009, India",https://www.google.co.kr/maps/place/IRON+PARADISE+Unisex+Fitness/data=!4m5!3m4!1s0x3a5361ffe0e95373:0xb60ac177fbcfeace!8m2!3d11.9443934!4d79.7938494?authuser=0&hl=en&rclk=1,11.9443934,79.7938494,Puducherry
Skale Fitness Unlimited,Gym,"No 81, First Floor, GKM Arcade, 100 Ft, East Coast Rd, Anna Nagar, Puducherry, 605005, India",https://www.google.co.kr/maps/place/Skale+Fitness+Unlimited/data=!4m5!3m4!1s0x3a53612eb58c772d:0x622977fb95bcaa49!8m2!3d11.9322717!4d79.8079994?authuser=0&hl=en&rclk=1,11.9322717,79.8079994,Puducherry
Fitness Zone,Gym,"285, Cuddalore Road, near Trueman English High School, Bharathidasan Nagar, Mudaliarpet, Puducherry, 605004, India",https://www.google.co.kr/maps/place/Fitness+Zone/data=!4m5!3m4!1s0x3a536190c5b3750f:0x8c104987d8799d34!8m2!3d11.91892!4d79.81373?authuser=0&hl=en&rclk=1,11.91892,79.81373,Puducherry
Fitness Corner,Gym,"No 7, SH 49, Lawspet, Puducherry, 605008, India",https://www.google.co.kr/maps/place/Fitness+Corner/data=!4m5!3m4!1s0x3a5361691edd1e67:0x3dbd83550a7d63bb!8m2!3d11.9506429!4d79.8153936?authuser=0&hl=en&rclk=1,11.9506429,79.8153936,Puducherry
Focus Fitness & Gym,Gym,"John paul Nagar, Near Railway Gate, 100 Feet Rd, Mudaliarpet, Puducherry, 605004, India",https://www.google.co.kr/maps/place/Focus+Fitness+%26+Gym/data=!4m5!3m4!1s0x3a5361988f69b143:0x5cae293e0a053b5e!8m2!3d11.9199934!4d79.8091246?authuser=0&hl=en&rclk=1,11.9199934,79.8091246,Puducherry
Nesam Ladies Fitness Studio,Fitness center,"Bus Stop, No.1 , 1st Floor, Lawspet Main Road, near Jeeva Colony, Puducherry, 605008, India",https://www.google.co.kr/maps/place/Nesam+Ladies+Fitness+Studio/data=!4m5!3m4!1s0x3a53610856329cfd:0x3c1c9afc6cef0681!8m2!3d11.9490836!4d79.8116959?authuser=0&hl=en&rclk=1,11.9490836,79.8116959,Puducherry
O2 FITNESS CENTRE,Gym,"V.K.Complex, Villupuram Main Road, Near More Supermarket, Marie Oulgaret, Puducherry, 605005, India",https://www.google.co.kr/maps/place/O2+FITNESS+CENTRE/data=!4m5!3m4!1s0x3a5361762080d6f7:0xfdeba15c9957692d!8m2!3d11.932091!4d79.8143788?authuser=0&hl=en&rclk=1,11.932091,79.8143788,Puducherry
O2 fitness center,Gym,"36, Villianur Main Rd, Mothilal Nagar, Marie Oulgaret, Puducherry, 605010, India",https://www.google.co.kr/maps/place/O2+fitness+center/data=!4m5!3m4!1s0x3a5361d4f57ddbb5:0x579b280831df8c9c!8m2!3d11.9310788!4d79.7877074?authuser=0&hl=en&rclk=1,11.9310788,79.7877074,Puducherry
Aadukalam HiFi fitness,Fitness center,"Balaji nagar Behind fat him a school, near sivaji statue, Lawspet, Puducherry, 605008, India",https://www.google.co.kr/maps/place/Aadukalam+HiFi+fitness/data=!4m5!3m4!1s0x3a536160834b4f47:0x85a19ff32394fc5d!8m2!3d11.9546311!4d79.8261383?authuser=0&hl=en&rclk=1,11.9546311,79.8261383,Puducherry
Lotus Gym,Gym,"43, 100 Feet Road, Sundararajan Nagar, opposite Hero Honda Showroom, Mudaliarpet, Puducherry, 605004, India",https://www.google.co.kr/maps/place/Lotus+Gym/data=!4m5!3m4!1s0x3a53619f54440f13:0x53d8b130c96cbdfc!8m2!3d11.9268278!4d79.8076382?authuser=0&hl=en&rclk=1,11.9268278,79.8076382,Puducherry
Roof Top Fitness,Gym,"56, Rue, Suffren St, White Town, Puducherry, 605001, India",https://www.google.co.kr/maps/place/Roof+Top+Fitness/data=!4m5!3m4!1s0x3a5363ddb5d3748b:0x8b6d8967de5b0ccb!8m2!3d11.925869!4d79.832217?authuser=0&hl=en&rclk=1,11.925869,79.832217,Puducherry
J.J. Fitness Pvt. Ltd.,Gym,"No.52,2nd Floor, J.M Plaza, Vazhudavoor Rd, Kathirkamam, Puducherry, 605009, India",https://www.google.co.kr/maps/place/J.J.+Fitness+Pvt.+Ltd./data=!4m5!3m4!1s0x3a53610517847049:0x149d6c91cc83d742!8m2!3d11.9411171!4d79.7939241?authuser=0&hl=en&rclk=1,11.9411171,79.7939241,Puducherry
GODS GYM AND FITNESS,Gym,"No 64 2nd Floor, 45 Feet Rd, New Saram, Puducherry, 605013, India",https://www.google.co.kr/maps/place/GODS+GYM+AND+FITNESS/data=!4m5!3m4!1s0x3a5361670759a803:0x431a4587fe4917c6!8m2!3d11.9399533!4d79.8215345?authuser=0&hl=en&rclk=1,11.9399533,79.8215345,Puducherry
Pondichery Cricket Ground,Gym,"XR78+839, Goverment Quaters, Navarkulam, Puducherry, 605008, India",https://www.google.co.kr/maps/place/Pondichery+Cricket+Ground/data=!4m5!3m4!1s0x3a53610638e107a3:0x96bced70b881b5b8!8m2!3d11.9632904!4d79.8152279?authuser=0&hl=en&rclk=1,11.9632904,79.8152279,Puducherry
Great Gym,Gym,"Kamaraj Salai, Kamaraj Nagar, Puducherry, 605001, India",https://www.google.co.kr/maps/place/Great+Gym/data=!4m5!3m4!1s0x3a53617eb0b696cf:0x789ffa16d255b7ad!8m2!3d11.9370614!4d79.8246995?authuser=0&hl=en&rclk=1,11.9370614,79.8246995,Puducherry
Body Fit,Fitness center,"5, 1st Floor, New 45 Feet Road, Balaji Nagar, Puducherry, 605013, India",https://www.google.co.kr/maps/place/Body+Fit/data=!4m5!3m4!1s0x3a53617aa3361a3d:0x969fc1f43935877e!8m2!3d11.9423769!4d79.819143?authuser=0&hl=en&rclk=1,11.9423769,79.819143,Puducherry
La Fit Femina,Gym,"83,84 3rd floor, Sithananda Nagar, Puducherry, 605005, India",https://www.google.co.kr/maps/place/La+Fit+Femina/data=!4m5!3m4!1s0x3a5361cfd18c4e09:0xe84937d7bf8f7f45!8m2!3d11.9319492!4d79.8055332?authuser=0&hl=en&rclk=1,11.9319492,79.8055332,Puducherry
Excel Fitness,Gym,"100 Feet Road, Marapalam, 100 Peet Road Marapalam, Opposite To Ganesh Travels, Mudaliarpet, Puducherry, 605004, India",https://www.google.co.kr/maps/place/Excel+Fitness/data=!4m5!3m4!1s0x3a53617c295edb97:0x8c12b742e7bd7311!8m2!3d11.93844!4d79.82651?authuser=0&hl=en&rclk=1,11.93844,79.82651,Puducherry
Power Gym,Gym,"150, M.G. Road, Muthialpet, Puducherry, 605003, India",https://www.google.co.kr/maps/place/Power+Gym/data=!4m5!3m4!1s0x3a5363df2f60ce49:0x9631187eae927eec!8m2!3d11.95031!4d79.83203?authuser=0&hl=en&rclk=1,11.95031,79.83203,Puducherry
World Gym,Gym,"WRV5+MG5, Pakkamudayanpet, Lawspet, Puducherry, 605013, India",https://www.google.co.kr/maps/place/World+Gym/data=!4m5!3m4!1s0x3a53616d697666e3:0x7e2041a32ff6434b!8m2!3d11.9441441!4d79.8088463?authuser=0&hl=en&rclk=1,11.9441441,79.8088463,Puducherry
Jasicca Fitness Studio,Gym,"No.98, Villianur Main Rd, opp. to sathyamoorthy govt high school, Mothilal Nagar, Murungapakkam, Puducherry, 605011, India",https://www.google.co.kr/maps/place/Jasicca+Fitness+Studio/data=!4m5!3m4!1s0x3a536191f2aa1c5f:0x4d72d48f7f770d34!8m2!3d11.9310663!4d79.7849361?authuser=0&hl=en&rclk=1,11.9310663,79.7849361,Puducherry
kalai queen fitness gym,Physical fitness program,"meet point, 15, Bajanai madam st, &, Pookara St, near clock tower, Muthialpet, Puducherry, 605003, India",https://www.google.co.kr/maps/place/kalai+queen+fitness+gym/data=!4m5!3m4!1s0x3a5363d93a83a63d:0x5b4d05e502c7d56a!8m2!3d11.9475581!4d79.8329587?authuser=0&hl=en&rclk=1,11.9475581,79.8329587,Puducherry
Talwalkars HiFi,Gym,"No. 155, Mission St, Above World of Titan Showroom, Heritage Town, Puducherry, 605001, India",https://www.google.co.kr/maps/place/Talwalkars+HiFi/data=!4m5!3m4!1s0x3a5363d6ef0f5c99:0x84786cf80c285589!8m2!3d11.9361886!4d79.83134?authuser=0&hl=en&rclk=1,11.9361886,79.83134,Puducherry
JAI MARUTHI FITNESS & TRAINING HUB,Fitness center,"19 Barathi Street, Shanmugapuram Land Mark : Next, Mettupalayam, Police station, Puducherry, 605009, India",https://www.google.co.kr/maps/place/JAI+MARUTHI+FITNESS+%26+TRAINING+HUB/data=!4m5!3m4!1s0x3a5361f569fd3763:0x37f49a396b4ba266!8m2!3d11.9432104!4d79.7937393?authuser=0&hl=en&rclk=1,11.9432104,79.7937393,Puducherry
UNIVERSAL FITNESS & Gym,Gym,"26,2nd floor, Lenin St, Kuyavarpalayam, Puducherry, 605013, India",https://www.google.co.kr/maps/place/UNIVERSAL+FITNESS+%26+Gym/data=!4m5!3m4!1s0x3a5361fdd82773e7:0xcc6b9f299cd4cec4!8m2!3d11.9392179!4d79.8138769?authuser=0&hl=en&rclk=1,11.9392179,79.8138769,Puducherry
Aurofit Fitness,Fitness center,"No.D-208, Basement, 100feet road,, Mudailiarpet, Puducherry 605004, India",https://www.google.co.kr/maps/place/Aurofit+Fitness/data=!4m5!3m4!1s0x3a5361965b57f9a9:0xede3474d37d68c14!8m2!3d11.916768!4d79.8094055?authuser=0&hl=en&rclk=1,11.916768,79.8094055,Puducherry
Body Building Trainee,Gym,"No.3/A, Vazhudavoor Rd, Kavundanpalayam, Kurumbapet, Marie Oulgaret, Puducherry, 605009, India",https://www.google.co.kr/maps/place/Body+Building+Trainee/data=!4m5!3m4!1s0x3a53610e0e3a472d:0x7f0c6742afb9682b!8m2!3d11.9419328!4d79.801016?authuser=0&hl=en&rclk=1,11.9419328,79.801016,Puducherry
Shape Up Gym and Fitness.,Gym,"No 9 Periya kenathu street, Kamaraj Salai, Pillaithotam, Puducherry, 605013, India",https://www.google.co.kr/maps/place/Shape+Up+Gym+and+Fitness./data=!4m5!3m4!1s0x3a5361e6f13335db:0xac00767e8cf6de93!8m2!3d11.9389132!4d79.8159636?authuser=0&hl=en&rclk=1,11.9389132,79.8159636,Puducherry
DJ Party Pondicherry,Fitness center,"No.7, E.C.R Road, (Near Sivaji Statue), Lawspet, Puducherry-605008, Puducherry, 605008, India",https://www.google.co.kr/maps/place/DJ+Party+Pondicherry/data=!4m5!3m4!1s0x3a53616c3936d2b9:0x3cfe2de63d6d9e52!8m2!3d11.9470956!4d79.811705?authuser=0&hl=en&rclk=1,11.9470956,79.811705,Puducherry
Oxygen Fitness Centre,Gym,"7, SH 49, Pethuchettypet, Lawspet, Puducherry, 605008, India",https://www.google.co.kr/maps/place/Oxygen+Fitness+Centre/data=!4m5!3m4!1s0x3a5361691edd929d:0xfdab7be10a0c9fb4!8m2!3d11.9506429!4d79.8153936?authuser=0&hl=en&rclk=1,11.9506429,79.8153936,Puducherry
star hi tech gym,Gym,"#25, Mahatma Gandhi Rd, Muthialpet, Puducherry, 605104, India",https://www.google.co.kr/maps/place/star+hi+tech+gym/data=!4m5!3m4!1s0x3a5363e0f2ac34ab:0x351392e412e43591!8m2!3d11.956727!4d79.833143?authuser=0&hl=en&rclk=1,11.956727,79.833143,Puducherry
Amaze Holistic Fitness Studio,Fitness center,"No.2, First Floor, SH 49, Puducherry, 605008, India",https://www.google.co.kr/maps/place/Amaze+Holistic+Fitness+Studio/data=!4m5!3m4!1s0x3a536190fb2ed02f:0x329ab8371780136b!8m2!3d11.9515983!4d79.817725?authuser=0&hl=en&rclk=1,11.9515983,79.817725,Puducherry
Stayfit Gym,Boxing gym,"42, Thiruvalluvar St, Depasimpet, Puducherry, 605003, India",https://www.google.co.kr/maps/place/Stayfit+Gym/data=!4m5!3m4!1s0x3a5363df81005409:0xad4d05aa4a7fa824!8m2!3d11.9525483!4d79.8298723?authuser=0&hl=en&rclk=1,11.9525483,79.8298723,Puducherry
O2xygen Fitness Center,Gym,"No.7 Yoga Complex ECR Road, near Shivaji Statue, Samipillai Thottam, Puducherry, 605008, India",https://www.google.co.kr/maps/place/O2xygen+Fitness+Center/data=!4m5!3m4!1s0x1106af2206de6da7:0xce7429f6a216eb24!8m2!3d11.9577723!4d79.8281977?authuser=0&hl=en&rclk=1,11.9577723,79.8281977,Puducherry
Muscle Machine Gym,Gym,"Karnan St, vekkaliamman koil, Puducherry, 605012, India",https://www.google.co.kr/maps/place/Muscle+Machine+Gym/data=!4m5!3m4!1s0x3a5361615ead5773:0x2952d805806c806f!8m2!3d11.9537345!4d79.8289219?authuser=0&hl=en&rclk=1,11.9537345,79.8289219,Puducherry
Crossfit Fitness Centre Unisex Gym,Gym,"new ecr road, Ariyankuppam, Puducherry 605004, India",https://www.google.co.kr/maps/place/Crossfit+Fitness+Centre+Unisex+Gym/data=!4m5!3m4!1s0x3a5361c26a5aaaab:0xc3b5b2eee319b8f8!8m2!3d11.8998627!4d79.804249?authuser=0&hl=en&rclk=1,11.8998627,79.804249,Puducherry
PAP Fitness Centre,Gym,"XQ2V+4XP, Gorimedu, Priyadarshini Nagar, Puducherry, 605006, India",https://www.google.co.kr/maps/place/PAP+Fitness+Centre/data=!4m5!3m4!1s0x3a536136a688af1f:0x8a0596623c747dc2!8m2!3d11.9503301!4d79.7949568?authuser=0&hl=en&rclk=1,11.9503301,79.7949568,Puducherry
Stone Rock Gym (UNISEX),Gym,"No 234 2 nd floor, Lawspet Main Road, Pakkamudayanpet, Puducherry, 605008, India",https://www.google.co.kr/maps/place/Stone+Rock+Gym+(UNISEX)/data=!4m5!3m4!1s0x3a53616d189e9f35:0x52845f42e98c29e2!8m2!3d11.9454989!4d79.8086781?authuser=0&hl=en&rclk=1,11.9454989,79.8086781,Puducherry
R S SQUARE UNISEX FITNESS CENTRE,Fitness center,"No.7, 8Poothurai Rd Rajive Nagar, Mettupalayam, Puducherry, 605006, India",https://www.google.co.kr/maps/place/R+S+SQUARE+UNISEX+FITNESS+CENTRE/data=!4m5!3m4!1s0x3a5361d2e190b87b:0x39563254dd6062fc!8m2!3d11.9546045!4d79.7874484?authuser=0&hl=en&rclk=1,11.9546045,79.7874484,Puducherry
Bosch Gym,Gym,"No. 152, 1st Floor, Kamaraj Salai, Kamaraj Salai, Golden King Agencies, Kamaraj Salai, Puducherry, 605013, India",https://www.google.co.kr/maps/place/Bosch+Gym/data=!4m5!3m4!1s0x3a536170ac7d67f3:0x9fa9f119e9b912ac!8m2!3d11.93803!4d79.81808?authuser=0&hl=en&rclk=1,11.93803,79.81808,Puducherry
AOL,Gym,"Seethalakshmi hall, 39, Navarkulam Main Rd, Agathiyar Nagar, Gurusithananda Samy Nagar, Navarkulam, Puducherry, Tamil Nadu 605004, India",https://www.google.co.kr/maps/place/AOL/data=!4m5!3m4!1s0x3a536147676009d3:0x57b77296a58cec3f!8m2!3d11.961421!4d79.807699?authuser=0&hl=en&rclk=1,11.961421,79.807699,Puducherry
Muscle Studio,Fitness center,"no.3, 3 rd floor, Gangai Amman Koil St, Lawspet, Puducherry, 605008, India",https://www.google.co.kr/maps/place/Muscle+Studio/data=!4m5!3m4!1s0x3a5361a46d3893bd:0x320862e2a873eba6!8m2!3d11.9533993!4d79.8182092?authuser=0&hl=en&rclk=1,11.9533993,79.8182092,Puducherry
Jai Fitness & Gym,Gym,"Government Office, Mothilal Nagar, Moolakulam, Puducherry, 605010, India",https://www.google.co.kr/maps/place/Jai+Fitness+%26+Gym/data=!4m5!3m4!1s0x3a5360ff9441210f:0xee9db43eaed6e70b!8m2!3d11.93211!4d79.7831899?authuser=0&hl=en&rclk=1,11.93211,79.7831899,Puducherry
Milliennium Fitness Unisex Gym,Fitness center,"No 136, Bussy St, Chinnakadai, MG Road Area, Puducherry, 605001, India",https://www.google.co.kr/maps/place/Milliennium+Fitness+Unisex+Gym/data=!4m5!3m4!1s0x3a536180f64b6e67:0xb2ee92ef2cac8f33!8m2!3d11.9296189!4d79.827961?authuser=0&hl=en&rclk=1,11.9296189,79.827961,Puducherry
Maximum Fitness Gym,Gym,"Moogambigai Nagar, Nainar Mandapam, Thengaithittu, Puducherry, 605004, India",https://www.google.co.kr/maps/place/Maximum+Fitness+Gym/data=!4m5!3m4!1s0x3a5361678b8ba53f:0x54a4c067caeea181!8m2!3d11.9098656!4d79.8101274?authuser=0&hl=en&rclk=1,11.9098656,79.8101274,Puducherry
A One gym fitness,Gym,"School No 208, basement, 100 Feet Rd, Mudaliarpet, Puducherry, 605004, India",https://www.google.co.kr/maps/place/A+One+gym+fitness/data=!4m5!3m4!1s0x3a53611da666d623:0x7943d928c9d380d4!8m2!3d11.916676!4d79.8092043?authuser=0&hl=en&rclk=1,11.916676,79.8092043,Puducherry
Star Hi-tech Gym,Gym,"25, Mahatma Gandhi Rd, Muthialpet, Puducherry, 605001, India",https://www.google.co.kr/maps/place/Star+Hi-tech+Gym/data=!4m5!3m4!1s0x3a5363d7cdf45ca7:0x5e0121c6b4a95091!8m2!3d11.9413931!4d79.8303897?authuser=0&hl=en&rclk=1,11.9413931,79.8303897,Puducherry
Hot spot Gym and fitness center,Gym,"75, Krishna Nagar main Rd, Krishna Nagar, Puducherry, 605008, India",https://www.google.co.kr/maps/place/Hot+spot+Gym+and+fitness+center/data=!4m5!3m4!1s0x3a5361641ec839df:0xbc60f615c8311439!8m2!3d11.9489787!4d79.8229289?authuser=0&hl=en&rclk=1,11.9489787,79.8229289,Puducherry
Core Fitness Studio,Fitness center,"no 6, 2 nd floor, Villianur Main Rd, Arumparthapuram, Puducherry, 605110, India",https://www.google.co.kr/maps/place/Core+Fitness+Studio/data=!4m5!3m4!1s0x3a5360511a668f45:0xb10a5548ffd4982c!8m2!3d11.9234156!4d79.7769852?authuser=0&hl=en&rclk=1,11.9234156,79.7769852,Puducherry
Life Style,Fitness center,"119, 1st Floor, opposite TATA - Manakular Motors, Kavery Nagar, Reddiarpalayam, Puducherry 605010, India",https://www.google.co.kr/maps/place/Life+Style/data=!4m5!3m4!1s0x1106ae60a054bac9:0x961c825b52fe0a2d!8m2!3d11.9303689!4d79.7973389?authuser=0&hl=en&rclk=1,11.9303689,79.7973389,Puducherry
Thala,Gym,"29, Thiyagaraja Street, Iyyanar Nagar, Raja Nagar, Pudupalaiyam, Puducherry, 605005, India",https://www.google.co.kr/maps/place/Thala/data=!4m5!3m4!1s0x3a53619d54c615e7:0xa9bc3eb483841db5!8m2!3d11.9319254!4d79.8184084?authuser=0&hl=en&rclk=1,11.9319254,79.8184084,Puducherry
Miss rose Hi Tech Ladies Fitness Centre,Gym,"East Coast Rd, Vallalar Nagar, Ashok Nagar, Lawspet, Puducherry, 605003, India",https://www.google.co.kr/maps/place/Miss+rose+Hi+Tech+Ladies+Fitness+Centre/data=!4m5!3m4!1s0x3a5361a4334ea413:0x19f88ad55e587cd9!8m2!3d11.9516484!4d79.8167832?authuser=0&hl=en&rclk=1,11.9516484,79.8167832,Puducherry
Feet Functional Training & Zumba Fitness,Fitness center,"#2, East Coast Rd, near PWD Water Tank, Lawspet, Puducherry, 605008, India",https://www.google.co.kr/maps/place/Feet+Functional+Training+%26+Zumba+Fitness/data=!4m5!3m4!1s0x3a5361cc250c5641:0xd8a827df7fc45aa4!8m2!3d11.952969!4d79.8195252?authuser=0&hl=en&rclk=1,11.952969,79.8195252,Puducherry
OLYMPIA GYM,Gym,"D-Block No-5 Viduthalai Nagar, Mudaliarpet, Puducherry 605004, India",https://www.google.co.kr/maps/place/OLYMPIA+GYM/data=!4m5!3m4!1s0x3a5361f98a50f67d:0xaf7e88eabd2e4125!8m2!3d11.9417938!4d79.8154301?authuser=0&hl=en&rclk=1,11.9417938,79.8154301,Puducherry
Global 2 Fitness Centre And Gym,Gym,"4 Mary Uzhavarkarai Road Mettupalayam to Moolakulam Road, Puducherry 605009, India",https://www.google.co.kr/maps/place/Global+2+Fitness+Centre+And+Gym/data=!4m5!3m4!1s0x3a5361021fbb71f9:0x6c8fa11e4705a941!8m2!3d11.9370744!4d79.7860086?authuser=0&hl=en&rclk=1,11.9370744,79.7860086,Puducherry
Global Gym,Gym,"Muthu Pillai Nagar, Vanarapet, Puducherry, 605004, India",https://www.google.co.kr/maps/place/Global+Gym/data=!4m5!3m4!1s0x3a53619b26a4dc27:0xe093c1d158e52ddb!8m2!3d11.9240598!4d79.8174739?authuser=0&hl=en&rclk=1,11.9240598,79.8174739,Puducherry
New Star Fitness,Gym,"No 19 111 Cross, Mariyamman Koil Street, Karamanikuppam, Puducherry, 605004, India",https://www.google.co.kr/maps/place/New+Star+Fitness/data=!4m5!3m4!1s0x3a536198c9cdf745:0x336f5be6935b041d!8m2!3d11.925736!4d79.808707?authuser=0&hl=en&rclk=1,11.925736,79.808707,Puducherry
Bharath Fitness centre,Gym,"No.11, Kamaraj salai, Thattanchavady, Puducherry, 605006, India",https://www.google.co.kr/maps/place/Bharath+Fitness+centre/data=!4m5!3m4!1s0x3a53611216e28b55:0xf146d71a18f7e163!8m2!3d11.944098!4d79.802538?authuser=0&hl=en&rclk=1,11.944098,79.802538,Puducherry
Miss rose Hi Tech Ladies Fitness Xentre,Gym,"15A, Airport Road, Rajaji Nagar, Avvai Nagar, Lawspet, Puducherry, 605008, India",https://www.google.co.kr/maps/place/Miss+rose+Hi+Tech+Ladies+Fitness+Xentre/data=!4m5!3m4!1s0x3a536140e2d91125:0x4ec081e9f403f965!8m2!3d11.9576785!4d79.8097506?authuser=0&hl=en&rclk=1,11.9576785,79.8097506,Puducherry
Nutrition Centre,Gym,"No 168, Lawspet Main Road, Pakkamudayanpet, Lawspet, Puducherry, 605008, India",https://www.google.co.kr/maps/place/Nutrition+Centre/data=!4m5!3m4!1s0x3a5361cbef78006f:0x33e570ea7b8f0b42!8m2!3d11.9479638!4d79.8104784?authuser=0&hl=en&rclk=1,11.9479638,79.8104784,Puducherry
Sengathir Gym,Gym,"WRX4+MG6, Lawspet, Puducherry, 605008, India",https://www.google.co.kr/maps/place/Sengathir+Gym/data=!4m5!3m4!1s0x3a5361cfa9de0099:0x3177176a4279147f!8m2!3d11.9491738!4d79.806272?authuser=0&hl=en&rclk=1,11.9491738,79.806272,Puducherry
Layers - A movement priority fitnesium,Fitness center,"17, Vysial St, Heritage Town, Puducherry, 605001, India",https://www.google.co.kr/maps/place/Layers+-+A+movement+priority+fitnesium/data=!4m5!3m4!1s0x3a5363c88876131d:0x675f4ef507c8a2cd!8m2!3d11.9373966!4d79.8322489?authuser=0&hl=en&rclk=1,11.9373966,79.8322489,Puducherry
z Gym,Gym,"No:1.Abc Rd,, Puducherry, India",https://www.google.co.kr/maps/place/z+Gym/data=!4m5!3m4!1s0x3a53617c4997c02d:0x85b8993597bfea42!8m2!3d11.9359251!4d79.8290634?authuser=0&hl=en&rclk=1,11.9359251,79.8290634,Puducherry
Dumbbells Shop,Gym,"WRR5+W9P, Gnanapragasam Nagar, Saram, Puducherry, 605013, India",https://www.google.co.kr/maps/place/Dumbbells+Shop/data=!4m5!3m4!1s0x3a53618defc7a537:0x68ac05b815100417!8m2!3d11.942336!4d79.8084543?authuser=0&hl=en&rclk=1,11.942336,79.8084543,Puducherry
Outdoor Gym,Gym,"1, 1, Suffren St, White Town, Rajbhavan, Puducherry 605001, India",https://www.google.co.kr/maps/place/Outdoor+Gym/data=!4m5!3m4!1s0x3a53630d866dcab9:0xbf819ca420ec8d3e!8m2!3d11.9324015!4d79.8337355?authuser=0&hl=en&rclk=1,11.9324015,79.8337355,Puducherry
O2 Fitness Centre,Gym,"No 6005008, 7th Cross St, Samipillai Thottam, Pethuchettypet, Lawspet, Puducherry, 605012, India",https://www.google.co.kr/maps/place/O2+Fitness+Centre/data=!4m5!3m4!1s0x3a53615e7004b8bb:0xb495fee1e642968e!8m2!3d11.957068!4d79.8247447?authuser=0&hl=en&rclk=1,11.957068,79.8247447,Puducherry
Outdoor Gym,Gym,"56, Goubert Ave, White Town, Puducherry, 605001, India",https://www.google.co.kr/maps/place/Outdoor+Gym/data=!4m5!3m4!1s0x3a53633bb29a48c5:0xb9e1db6259976f2c!8m2!3d11.9262906!4d79.8342344?authuser=0&hl=en&rclk=1,11.9262906,79.8342344,Puducherry
"WOGA SORTS ACADEMY, PONDICHERRY",Gym,"XR3C+GGW, Krishna Nagar, Puducherry, 605003, India","https://www.google.co.kr/maps/place/WOGA+SORTS+ACADEMY,+PONDICHERRY/data=!4m5!3m4!1s0x3a5361677613bf9d:0x5b00a39bd43244fe!8m2!3d11.9538749!4d79.8213413?authuser=0&hl=en&rclk=1",11.9538749,79.8213413,Puducherry
Geoga Physical Culture Academy,Fitness center,"No 10/189 Second Floor, 5th Cross St, Thulukathamman Nagar, Velrampet, Puducherry, 605004, India",https://www.google.co.kr/maps/place/Geoga+Physical+Culture+Academy/data=!4m5!3m4!1s0x3a5361ac80c0535d:0xb31b0593e30365ea!8m2!3d11.9134457!4d79.8058241?authuser=0&hl=en&rclk=1,11.9134457,79.8058241,Puducherry
Police Gym,Gym,"Unnamed Road, Gorimedu, Priyadarshini Nagar, Puducherry, 605006, India",https://www.google.co.kr/maps/place/Police+Gym/data=!4m5!3m4!1s0x3a53616a4a67dd8b:0x893e57e557735830!8m2!3d11.9503055!4d79.7949598?authuser=0&hl=en&rclk=1,11.9503055,79.7949598,Puducherry
sports Ground,Gym,"WRWJ+7VQ, Vazhakulam, Puducherry, 605003, India",https://www.google.co.kr/maps/place/sports+Ground/data=!4m5!3m4!1s0x3a5363d84b9289b3:0xc71bdff583e8b707!8m2!3d11.945712!4d79.8322234?authuser=0&hl=en&rclk=1,11.945712,79.8322234,Puducherry
BodyImage Men's Gym,Gym,"National Highway 66, Gandhi Nagar, Puducherry, 605006, India",https://www.google.co.kr/maps/place/BodyImage+Men's+Gym/data=!4m5!3m4!1s0x3a536111a3f9ad81:0xb133f1bf267732d4!8m2!3d11.945295!4d79.7999601?authuser=0&hl=en&rclk=1,11.945295,79.7999601,Puducherry
Jasicca Fitness Studio,Gym,"No.98, villianur main road (opp. to sathyamoorthy govt high school), Murungapakkam, Puducherry 605011, India",https://www.google.co.kr/maps/place/Jasicca+Fitness+Studio/data=!4m5!3m4!1s0x3a5361c15ad34067:0x15b05fd374715e81!8m2!3d11.9041912!4d79.8025055?authuser=0&hl=en&rclk=1,11.9041912,79.8025055,Puducherry
Orange Ladies Fitness,Fitness center,"23, Pudhukulam St, Radhakrishnan Nagar, Ariyankuppam, Puducherry 605007, India",https://www.google.co.kr/maps/place/Orange+Ladies+Fitness/data=!4m5!3m4!1s0x3a5361e68bdb3df7:0xdb43e9a462a5c867!8m2!3d11.895147!4d79.8117759?authuser=0&hl=en&rclk=1,11.895147,79.8117759,Puducherry
Auro Soft,Gym,"WRV5+3F3, Gnanapragasam Nagar, Saram, Puducherry, 605009, India",https://www.google.co.kr/maps/place/Auro+Soft/data=!4m5!3m4!1s0x3a5361e187e918a5:0xfcf9a7cfa0596ab!8m2!3d11.9426467!4d79.8086568?authuser=0&hl=en&rclk=1,11.9426467,79.8086568,Puducherry
Body Image Fitness World,Gym,"E.C. Road, E C R, Kottapalayam, near Latha Steel House, Puducherry, 605008, India",https://www.google.co.kr/maps/place/Body+Image+Fitness+World/data=!4m5!3m4!1s0x3a53616d081c2855:0xdc3f5cb18007d60a!8m2!3d11.94524!4d79.81005?authuser=0&hl=en&rclk=1,11.94524,79.81005,Puducherry
"Warriors Boxing Academy, Pondicherry",Boxing gym,"3rd Cross St, Mariamman Nagar, Karamanikuppam, Puducherry, 605005, India","https://www.google.co.kr/maps/place/Warriors+Boxing+Academy,+Pondicherry/data=!4m5!3m4!1s0x3a53618f2662e3f9:0xd1b68a363ac04d95!8m2!3d11.9259494!4d79.810952?authuser=0&hl=en&rclk=1",11.9259494,79.810952,Puducherry
FITNESS 1 Unisex Fitness studio,Fitness center,"No.52,2nd Floor, J.M Plaza, Vazhudavoor Rd, Kathirkamam, Puducherry, 605009, India",https://www.google.co.kr/maps/place/FITNESS+1+Unisex+Fitness+studio/data=!4m5!3m4!1s0x3a536198ec94099b:0x1864416496275c56!8m2!3d11.9421086!4d79.782655?authuser=0&hl=en&rclk=1,11.9421086,79.782655,Puducherry
pondy cycle tour,Gym,"Kandappa Mudaliar St, MG Road Area, Puducherry, 605001, India",https://www.google.co.kr/maps/place/pondy+cycle+tour/data=!4m5!3m4!1s0x3a53622a8063f861:0xa19fe2b76361a2f5!8m2!3d11.9298923!4d79.8298278?authuser=0&hl=en&rclk=1,11.9298923,79.8298278,Puducherry
union amical et sportive,Gym,"WRH5+QXX, Natesan Nagar, Puducherry, 605005, India",https://www.google.co.kr/maps/place/union+amical+et+sportive/data=!4m5!3m4!1s0x3a53619faca5c0c1:0xab4e042f4184137b!8m2!3d11.9294872!4d79.8099892?authuser=0&hl=en&rclk=1,11.9294872,79.8099892,Puducherry
Sara Lady World,Gym,"Nellithoppu, Anna Nagar, near Housing Board, Puducherry, 605005, India",https://www.google.co.kr/maps/place/Sara+Lady+World/data=!4m5!3m4!1s0x3a5361749adf0231:0xa1d9c4d206088ff9!8m2!3d11.936973!4d79.809277?authuser=0&hl=en&rclk=1,11.936973,79.809277,Puducherry
Police Fitness Centre,Gym,"Unnamed Road, Gorimedu, Priyadarshini Nagar, Puducherry, 605006, India",https://www.google.co.kr/maps/place/Police+Fitness+Centre/data=!4m5!3m4!1s0x3a53611c28df7997:0xfe58f8febc328f61!8m2!3d11.9502813!4d79.7948633?authuser=0&hl=en&rclk=1,11.9502813,79.7948633,Puducherry
Peace & Cure Yoga Centre - Branch,Gym,"14, Balaji Nagar Main Rd, Annamalai Nagar, Puducherry, 605013, India",https://www.google.co.kr/maps/place/Peace+%26+Cure+Yoga+Centre+-+Branch/data=!4m5!3m4!1s0x3a5361654fdcc94f:0x50ed188df412c278!8m2!3d11.9441314!4d79.819188?authuser=0&hl=en&rclk=1,11.9441314,79.819188,Puducherry
Police Quaters Ground Pavilion,Gym,"WQXW+X3H, Gorimedu, Priyadarshini Nagar, Puducherry, 605006, India",https://www.google.co.kr/maps/place/Police+Quaters+Ground+Pavilion/data=!4m5!3m4!1s0x3a536119c311e623:0x3ad8a61def1be60a!8m2!3d11.9499322!4d79.795223?authuser=0&hl=en&rclk=1,11.9499322,79.795223,Puducherry
universal fitness gym best gym best fitness centre ladies fitness centre,Gym,"26,2nd floor, s.b.i ,a, Lenin St, t.m, Kuyavarpalayam, Puducherry, 605013, India",https://www.google.co.kr/maps/place/universal+fitness+gym+best+gym+best+fitness+centre+ladies+fitness+centre/data=!4m5!3m4!1s0x3a536170487490f7:0x8ae7a742033acd9f!8m2!3d11.9391975!4d79.8139358?authuser=0&hl=en&rclk=1,11.9391975,79.8139358,Puducherry
Strong Man Fitness and Gym (unisexcrossfit gym),Gym,"No.2, Vazhudavoor Rd, Kurumbapet, Marie Oulgaret, Puducherry, 605009, India",https://www.google.co.kr/maps/place/Strong+Man+Fitness+and+Gym+(unisexcrossfit+gym)/data=!4m5!3m4!1s0x3a5360f05cb23f8d:0xd192eb24f280f091!8m2!3d11.9403744!4d79.7604171?authuser=0&hl=en&rclk=1,11.9403744,79.7604171,Puducherry
La Casita,Physical fitness program,"Sathya Nagar East, Puducherry, 605009, India",https://www.google.co.kr/maps/place/La+Casita/data=!4m5!3m4!1s0x3a53617db9189c39:0x3b880ad4f2f46460!8m2!3d11.9415915!4d79.8083133?authuser=0&hl=en&rclk=1,11.9415915,79.8083133,Puducherry
ïMrÀñ KhÁñ Fitness,Gym,"106, Pappammal Koil St, Vaithikuppam, Puducherry, 605012, India",https://www.google.co.kr/maps/place/%C3%AFMr%C3%80%C3%B1+Kh%C3%81%C3%B1+Fitness/data=!4m5!3m4!1s0x3a5363da1d79f633:0xd90c6155518c3551!8m2!3d11.9449697!4d79.835317?authuser=0&hl=en&rclk=1,11.9449697,79.835317,Puducherry
karunya Travels,Gym,"Sankara Das St, Heritage Town, Puducherry, 605001, India",https://www.google.co.kr/maps/place/karunya+Travels/data=!4m5!3m4!1s0x3a5363d6534b76c7:0x70a53007d33fcf31!8m2!3d11.941171!4d79.8320441?authuser=0&hl=en&rclk=1,11.941171,79.8320441,Puducherry
Nuitrion Centre,Gym,"no 83 & 84 J plaza ellaipillai chavdy, 605005, India",https://www.google.co.kr/maps/place/Nuitrion+Centre/data=!4m5!3m4!1s0x3a53615188331c21:0xa7b845b5bd5908f5!8m2!3d11.9320073!4d79.8056339?authuser=0&hl=en&rclk=1,11.9320073,79.8056339,Puducherry
Diamond gym,Gym,"VRVG+6M6, Veerampattinam, Puducherry 605007, India",https://www.google.co.kr/maps/place/Diamond+gym/data=!4m5!3m4!1s0x3a5361fa0504cb15:0x781f935af7a39d1d!8m2!3d11.8930409!4d79.826638?authuser=0&hl=en&rclk=1,11.8930409,79.826638,Puducherry
herbalife nutrition center,Gym,"2, Sree Nivas Nagar Main Rd, Ariyankuppam, Puducherry 605007, India",https://www.google.co.kr/maps/place/herbalife+nutrition+center/data=!4m5!3m4!1s0x3a5361dcdba68313:0xf928e64764477b51!8m2!3d11.8969766!4d79.8039545?authuser=0&hl=en&rclk=1,11.8969766,79.8039545,Puducherry
Sri Sri meditation hall,Gym,"4/8, 1st Cross, Jayaram Nagar, Saram, Puducherry, 605013, India",https://www.google.co.kr/maps/place/Sri+Sri+meditation+hall/data=!4m5!3m4!1s0x3a53616e6a4e859d:0x6b278f4bf9a5dcad!8m2!3d11.9449822!4d79.8141151?authuser=0&hl=en&rclk=1,11.9449822,79.8141151,Puducherry
Flex gym,Gym,"NH32, Ariyankuppam, Puducherry 605007, India",https://www.google.co.kr/maps/place/Flex+gym/data=!4m5!3m4!1s0x3a536105dafb2d3b:0x58f4267e751d8e49!8m2!3d11.8919226!4d79.8019302?authuser=0&hl=en&rclk=1,11.8919226,79.8019302,Puducherry
Box and Cross Boxing Gym,Boxing gym,"4, SH 49, Krishna Nagar, Puducherry, 605012, India",https://www.google.co.kr/maps/place/Box+and+Cross+Boxing+Gym/data=!4m5!3m4!1s0x3a536121de32f4b3:0x7a6eed43529eb8af!8m2!3d11.9528902!4d79.8193679?authuser=0&hl=en&rclk=1,11.9528902,79.8193679,Puducherry
Taarzan Academy,Gymnastics center,"Opp to Vinayagar Kovil, Lawspet Main Road, Puducherry, 605008, India",https://www.google.co.kr/maps/place/Taarzan+Academy/data=!4m5!3m4!1s0x3a53615f1ae9953b:0xe38c8302b9b84619!8m2!3d11.953844!4d79.8174209?authuser=0&hl=en&rclk=1,11.953844,79.8174209,Puducherry
Ganesh Yoga Classes,Yoga studio,"Aravindar St, Heritage Town, Puducherry, 605001, India",https://www.google.co.kr/maps/place/Ganesh+Yoga+Classes/data=!4m5!3m4!1s0x3a5363d5d9e308d3:0x3dd2ae1c341acfd1!8m2!3d11.9381347!4d79.8317755?authuser=0&hl=en&rclk=1,11.9381347,79.8317755,Puducherry
Black Fitness Studio,Gym,"No. 16, 17, opposite to achariya school, karikalampakkam, main road, Villianur, Puducherry 605110, India",https://www.google.co.kr/maps/place/Black+Fitness+Studio/data=!4m5!3m4!1s0x3a5361ea2b365355:0x218ef78afd6bc259!8m2!3d11.9022069!4d79.7527689?authuser=0&hl=en&rclk=1,11.9022069,79.7527689,Puducherry
Super Sports,Gym,"WQH7+X6G, VIP's Residential Area, Marie Oulgaret, Puducherry, 605111, India",https://www.google.co.kr/maps/place/Super+Sports/data=!4m5!3m4!1s0x3a53610b81be5687:0xcbc276e56b05ec9b!8m2!3d11.9299451!4d79.7630821?authuser=0&hl=en&rclk=1,11.9299451,79.7630821,Puducherry
Weight Loss centre,Gym,"312, Vazhudavoor Rd, Kathirkamam, Puducherry, 605009, India",https://www.google.co.kr/maps/place/Weight+Loss+centre/data=!4m5!3m4!1s0x3a5361eb4d583ebf:0x15212c3ef5a97bc5!8m2!3d11.9408381!4d79.7932672?authuser=0&hl=en&rclk=1,11.9408381,79.7932672,Puducherry
வேதபுரம் அறிவுதிருகோயில்,Gym,"23, 14th Cross Rd, Annamalai Nagar, Puducherry, 605013, India",https://www.google.co.kr/maps/place/%E0%AE%B5%E0%AF%87%E0%AE%A4%E0%AE%AA%E0%AF%81%E0%AE%B0%E0%AE%AE%E0%AF%8D+%E0%AE%85%E0%AE%B1%E0%AE%BF%E0%AE%B5%E0%AF%81%E0%AE%A4%E0%AE%BF%E0%AE%B0%E0%AF%81%E0%AE%95%E0%AF%8B%E0%AE%AF%E0%AE%BF%E0%AE%B2%E0%AF%8D/data=!4m5!3m4!1s0x3a53616f7b0bc5db:0x2ea2f4b391d3b6a5!8m2!3d11.9475447!4d79.8193744?authuser=0&hl=en&rclk=1,11.9475447,79.8193744,Puducherry
RV FITNESS & GYM (UNISEX),Fitness center,"Road, Thavalakuppam, Puducherry 605007, India",https://www.google.co.kr/maps/place/RV+FITNESS+%26+GYM+(UNISEX)/data=!4m5!3m4!1s0x3a549e30998c8017:0x7ba3be6b44e80a5d!8m2!3d11.8711584!4d79.7954382?authuser=0&hl=en&rclk=1,11.8711584,79.7954382,Puducherry
Patangali Yoga Center,Yoga studio,"WRRF+597, Venkata Nagar, Puducherry, 605011, India",https://www.google.co.kr/maps/place/Patangali+Yoga+Center/data=!4m5!3m4!1s0x3a53617b84c717c1:0xcb93bd1d43546837!8m2!3d11.9404147!4d79.823431?authuser=0&hl=en&rclk=1,11.9404147,79.823431,Puducherry
"Modern Food Complex, IGGMC&RI",Fitness center,"Pondicherry Goverment medical College, Kangan Lake St, Kathirkamam, Puducherry, 605009, India","https://www.google.co.kr/maps/place/Modern+Food+Complex,+IGGMC%26RI/data=!4m5!3m4!1s0x3a53610f4f766843:0xb2f0b40a69c55618!8m2!3d11.9378171!4d79.7971837?authuser=0&hl=en&rclk=1",11.9378171,79.7971837,Puducherry
Yoganjali Natyalayam,Yoga studio,"25, 2nd Cross - Iyyanar Nagar, Pudupalaiyam, Puducherry, 605013, India",https://www.google.co.kr/maps/place/Yoganjali+Natyalayam/data=!4m5!3m4!1s0x3a5361aaaa1dacb9:0xd61dd57d08c25900!8m2!3d11.935176!4d79.8157885?authuser=0&hl=en&rclk=1,11.935176,79.8157885,Puducherry
Mass & Class Gym,Gym,"XQR2+J52, Sedarapet, Puducherry 605111, India",https://www.google.co.kr/maps/place/Mass+%26+Class+Gym/data=!4m5!3m4!1s0x3a53675b59b06375:0x5495010279dce29c!8m2!3d11.991503!4d79.7503808?authuser=0&hl=en&rclk=1,11.991503,79.7503808,Puducherry
Fitness United,Gym,"Sree Valli Residency, 12/ ,, Cuddalore Pondicherry Road (ECR), Kirumapakkam, Puducherry, 605007, India",https://www.google.co.kr/maps/place/Fitness+United/data=!4m5!3m4!1s0x3a549f1e7eb83ddd:0x1d0189da71dcdba7!8m2!3d11.8238665!4d79.7823861?authuser=0&hl=en&rclk=1,11.8238665,79.7823861,Puducherry
Gyanodhayam Yoga Centre,Gym,"2nd cross perambai road, Near M.G.R Statue, Rd, Villianor, Perambai, Puducherry, 605010, India",https://www.google.co.kr/maps/place/Gyanodhayam+Yoga+Centre/data=!4m5!3m4!1s0x3a536065e7f01f31:0x3af0d21d21fc49ae!8m2!3d11.9200636!4d79.7561586?authuser=0&hl=en&rclk=1,11.9200636,79.7561586,Puducherry
Pudukuppam local gym,Gym,"VR89+H2V, Pudukuppam, Puducherry 605007, India",https://www.google.co.kr/maps/place/Pudukuppam+local+gym/data=!4m5!3m4!1s0x3a549ff533fd3765:0x7799457635268fbf!8m2!3d11.8664824!4d79.817547?authuser=0&hl=en&rclk=1,11.8664824,79.817547,Puducherry
Ladies Gym,Gym,"Pondicherry University, Kalapet, Puducherry 605014, India",https://www.google.co.kr/maps/place/Ladies+Gym/data=!4m5!3m4!1s0x3a5365a406784bf5:0x75b1efd33e0c42d8!8m2!3d12.0209663!4d79.8497868?authuser=0&hl=en&rclk=1,12.0209663,79.8497868,Puducherry
Sri Patanjali Yoga Studio,Yoga studio,"Villianur Main Rd, Kavery Nagar, Reddiarpalayam, Puducherry, 605010, India",https://www.google.co.kr/maps/place/Sri+Patanjali+Yoga+Studio/data=!4m5!3m4!1s0x3a5361ce4da2f76b:0xfcbdce99ce6c6330!8m2!3d11.9310668!4d79.799155?authuser=0&hl=en&rclk=1,11.9310668,79.799155,Puducherry
Auroville Gym,Gym,"XRVJ+7HJ, Kuilapalayam, Tamil Nadu 605101, India",https://www.google.co.kr/maps/place/Auroville+Gym/data=!4m5!3m4!1s0x3a53641dbf34fced:0x932da9c66e355ebf!8m2!3d11.9932104!4d79.8314032?authuser=0&hl=en&rclk=1,11.9932104,79.8314032,Puducherry
Gents Gym,Gym,"2VJ2+333, Pondicherry University, Puducherry, 605014, India",https://www.google.co.kr/maps/place/Gents+Gym/data=!4m5!3m4!1s0x3a5365c990e282a1:0xcf72a80b70f288fc!8m2!3d12.0301287!4d79.8501563?authuser=0&hl=en&rclk=1,12.0301287,79.8501563,Puducherry
Yogaalayam Centre For Yoga And Siddha Research,Yoga studio,"No. 44, 44, 11th Cross St, Anna Nagar, Puducherry, 605005, India",https://www.google.co.kr/maps/place/Yogaalayam+Centre+For+Yoga+And+Siddha+Research/data=!4m5!3m4!1s0x1106aef5f0b38133:0xe5af73819b6466b2!8m2!3d11.935176!4d79.809555?authuser=0&hl=en&rclk=1,11.935176,79.809555,Puducherry
Raju Fitness Gym,Gym,"No 43, ECR Road, Kalapet, Puducherry, 605014, India",https://www.google.co.kr/maps/place/Raju+Fitness+Gym/data=!4m5!3m4!1s0x3a53644c49b7bfa1:0x3515579b9ca34720!8m2!3d12.0197785!4d79.8600322?authuser=0&hl=en&rclk=1,12.0197785,79.8600322,Puducherry
Ever for gym,Gym,"ECR road, Periyakalapet, Puducherry, 605014, India",https://www.google.co.kr/maps/place/Ever+for+gym/data=!4m5!3m4!1s0x3a5365af86bedd07:0x6fdf16204db1ba7c!8m2!3d12.035122!4d79.865663?authuser=0&hl=en&rclk=1,12.035122,79.865663,Puducherry
Pondy Yoga Centre(PYC),Yoga studio,"17, Murugan Street, Sithankudi, Brindavanam, Puducherry, 605013, India",https://www.google.co.kr/maps/place/Pondy+Yoga+Centre(PYC)/data=!4m5!3m4!1s0x3a53617a61762503:0x188ed139fb13c5ea!8m2!3d11.940453!4d79.8195132?authuser=0&hl=en&rclk=1,11.940453,79.8195132,Puducherry
Rock Shine Fitness Gym,Gym,"Gandhi School, Ambedkar Statue, k. K. Nagar 1st Street, T.C.Koot Road, Puducherry, Tamil Nadu 605111, India",https://www.google.co.kr/maps/place/Rock+Shine+Fitness+Gym/data=!4m5!3m4!1s0x3a536718a387b97f:0x2bb8b93ad4be701!8m2!3d11.9988588!4d79.7781769?authuser=0&hl=en&rclk=1,11.9988588,79.7781769,Puducherry
Anandam Yoga Centre,Yoga studio,"15, Cheran Street-Mullai Nagar opp. New bus stand, Orleanpet, Puducherry, 605005, India",https://www.google.co.kr/maps/place/Anandam+Yoga+Centre/data=!4m5!3m4!1s0x3a53619e250ed915:0xa1d7630d1ff1e4a2!8m2!3d11.9300767!4d79.8146536?authuser=0&hl=en&rclk=1,11.9300767,79.8146536,Puducherry
Deepsthal Yoga Classes,Yoga studio,"21 Padminitottam, Kuruchikuppam, Puducherry, 605012, India",https://www.google.co.kr/maps/place/Deepsthal+Yoga+Classes/data=!4m5!3m4!1s0x3a53632d5b3bc703:0x2e3e0e66fb3273d9!8m2!3d11.9427251!4d79.8366879?authuser=0&hl=en&rclk=1,11.9427251,79.8366879,Puducherry
Akash'group Cricket Ground,Gym,"WQQW+8J4, Kathirkamam, Puducherry, 605009, India",https://www.google.co.kr/maps/place/Akash'group+Cricket+Ground/data=!4m5!3m4!1s0x3a5361beb480067d:0xd5296bb9cc5d7153!8m2!3d11.9382627!4d79.7965856?authuser=0&hl=en&rclk=1,11.9382627,79.7965856,Puducherry
Lifestyle Yoga Studio,Yoga studio,"No.50, Lenin Nagar, Samipillaithottam Rd, Karuvadikuppam, Puducherry, 605008, India",https://www.google.co.kr/maps/place/Lifestyle+Yoga+Studio/data=!4m5!3m4!1s0x3a53615e9a807d61:0xd577580f43cc7201!8m2!3d11.9511872!4d79.8308873?authuser=0&hl=en&rclk=1,11.9511872,79.8308873,Puducherry
Hulk Gym & Fitness Centre,Gym,"57, East Coast Rd, Chinna Kalapet, Kalapet, Puducherry 605014, India",https://www.google.co.kr/maps/place/Hulk+Gym+%26+Fitness+Centre/data=!4m5!3m4!1s0x3a5365b20bd7506b:0x6661dbcb024dd855!8m2!3d12.0168407!4d79.8598807?authuser=0&hl=en&rclk=1,12.0168407,79.8598807,Puducherry
Skale fitness unlimited best unisex gym fitness centre puducherry,Training centre,"GKM ARCADE, 100 Feet Rd, Sundararaja Nagar, Anna Nagar, Puducherry, 605005, India",https://www.google.co.kr/maps/place/Skale+fitness+unlimited+best+unisex+gym+fitness+centre+puducherry/data=!4m5!3m4!1s0x3a53615d426db15f:0xb74b39f41ac7d065!8m2!3d11.9282671!4d79.8073986?authuser=0&hl=en&rclk=1,11.9282671,79.8073986,Puducherry
Sita Cultural Centre,Cultural center,"No-22, Kandappa Mudaliar St, MG Road Area, Puducherry, 605001, India",https://www.google.co.kr/maps/place/Sita+Cultural+Centre/data=!4m5!3m4!1s0x3a53622a804465f1:0x2ec7ece18ab7f593!8m2!3d11.929941!4d79.829792?authuser=0&hl=en&rclk=1,11.929941,79.829792,Puducherry
Mindless Mind Yoga Center,Yoga studio,"#47 kodisami nagar 100 ft Road, kamachi road, near railway gate Hotal, Puducherry, 605004, India",https://www.google.co.kr/maps/place/Mindless+Mind+Yoga+Center/data=!4m5!3m4!1s0x3a5361c821adec81:0x6fa4a2f043b1314f!8m2!3d11.9252828!4d79.8069729?authuser=0&hl=en&rclk=1,11.9252828,79.8069729,Puducherry
Universal Finance and Chits Pvt Ltd,Gym,"Universal Finance and Chits Pvt Ltd, Manakula Vinayagar Street, Annamalai Nagar, Puducherry, 605003, India",https://www.google.co.kr/maps/place/Universal+Finance+and+Chits+Pvt+Ltd/data=!4m5!3m4!1s0x3a536146d623c4bb:0x73695a74c73094f8!8m2!3d11.9497726!4d79.8157953?authuser=0&hl=en&rclk=1,11.9497726,79.8157953,Puducherry
THE ART OF LIVING,Yoga studio,"Relax Kerala Ayurveda, 21, Sri Aurobindo St, Heritage Town, Puducherry, 605001, India",https://www.google.co.kr/maps/place/THE+ART+OF+LIVING/data=!4m5!3m4!1s0x1106aef718bf1519:0x6fb1453e72822675!8m2!3d11.9379166!4d79.8323857?authuser=0&hl=en&rclk=1,11.9379166,79.8323857,Puducherry
Isha Yoga Centre Puducherry,Yoga studio,"MGR Nagar South Extension, Mothilal Nagar, Marie Oulgaret, Puducherry, 605009, India",https://www.google.co.kr/maps/place/Isha+Yoga+Centre+Puducherry/data=!4m5!3m4!1s0x3a5361ed8b574131:0x1a412d63263e78d4!8m2!3d11.9341944!4d79.7864823?authuser=0&hl=en&rclk=1,11.9341944,79.7864823,Puducherry
O2 Groups,Yoga studio,"7th Cross St, Sithankudi, Brindavanam, Puducherry, 605013, India",https://www.google.co.kr/maps/place/O2+Groups/data=!4m5!3m4!1s0x3a53617a867d2fd3:0xd23c0cf95b76bcc7!8m2!3d11.9410119!4d79.819002?authuser=0&hl=en&rclk=1,11.9410119,79.819002,Puducherry
Manavalakalai Mandram Trust. SKY YOGA CENTRE,Yoga studio,"Near Lawspet Uzhavar Santhai, Avvai Nagar, Lawspet, Puducherry, 605008, India",https://www.google.co.kr/maps/place/Manavalakalai+Mandram+Trust.+SKY+YOGA+CENTRE/data=!4m5!3m4!1s0x3a536142e3e369d7:0xcbdbf0b658d11254!8m2!3d11.9559173!4d79.8122587?authuser=0&hl=en&rclk=1,11.9559173,79.8122587,Puducherry
Gym and Fitness Certification Training,Training centre,"Kamaraj Salai, Sathya Nagar, Gnanapragasam Nagar, Saram, Puducherry, 605013, India",https://www.google.co.kr/maps/place/Gym+and+Fitness+Certification+Training/data=!4m5!3m4!1s0x3a53616c50165c35:0xc85c4cc7c03f4c42!8m2!3d11.9410022!4d79.8129806?authuser=0&hl=en&rclk=1,11.9410022,79.8129806,Puducherry
Kanagasabai Fitness Gym,Gym,"#6, sugumar nagar, kalithirthalkuppam, Madagadipet, Puducherry 605107, India",https://www.google.co.kr/maps/place/Kanagasabai+Fitness+Gym/data=!4m5!3m4!1s0x3a5358dec15de5bb:0x6ef46350005f121b!8m2!3d11.9211589!4d79.6320243?authuser=0&hl=en&rclk=1,11.9211589,79.6320243,Puducherry
